"zref","name","name:ca","zCATEGORIA","amenity","admin_level","government","office","chamber","addr:street","nohousenumber","addr:housenumber","addr:floor","addr:door","addr:postcode","zPOBLACIO","zCODI_MUNICIPI","zCOMARCA","phone","fax","zUTMX","zUTMY","lon","lat","email","website","ZDATA_MODIFICACIO","ZPROPIETATS","ZGeoreferència"
3040257,"Confraria de Pescadors del Port de la Selva","Confraria de Pescadors del Port de la Selva","Agricultura. Ramaderia. Pesca|Confraries de pescadors||",,,,"chamber","fisherfolk","Moll d'en Balleu",,4,,,17489,"Port de la Selva, el",171404,"Alt Empordà","+34-972 12 60 12","972 12 60 12",516760250,4687315027,"3.203455313","42.337909021","info@cpportdelaselva.com / comptabilitat@cpportdelaselva.com",,"07/19/2024 07:37:16 AM",,"POINT (3.2034552 42.33791)"
3040241,"Confraria de Pescadors de Pineda de Mar","Confraria de Pescadors de Pineda de Mar","Agricultura. Ramaderia. Pesca|Confraries de pescadors||",,,,"chamber","fisherfolk","Carrer dels Ciutadans",,8,,,"08397","Pineda de Mar",81635,"Maresme","+34-93 767 17 86","93 767 17 86",474129982,4608492941,"2.689430327","41.627743579","fhorta@telefonica.net",,"07/19/2024 07:37:16 AM",,"POINT (2.6894302 41.627743)"
15399705,"Confraria de Pescadors de Cadaqués","Confraria de Pescadors de Cadaqués","Agricultura. Ramaderia. Pesca|Confraries de pescadors||",,,,"chamber","fisherfolk","Avinguda de Caritat Serinyana",,10,,,17488,"Cadaqués",170329,"Alt Empordà","+34-972 25 91 42","972 25 91 42",522788083,4682003062,"3.276417991","42.289915918","cpcadaques@gmail.com",,"07/19/2024 07:37:16 AM",,"POINT (3.276418 42.289917)"
3040250,"Confraria de Pescadors de Tossa de Mar","Confraria de Pescadors de Tossa de Mar","Agricultura. Ramaderia. Pesca|Confraries de pescadors||",,,,"chamber","fisherfolk","Carrer de Cadiretes",,17,,37,17320,"Tossa de Mar",172023,"Selva","+34-972 34 17 77","972 34 17 77",493268811,4619531860,"2.919067046","41.727564070",,,"07/19/2024 07:37:16 AM",,"POINT (2.9190671 41.727566)"
3040255,"Confraria de Pescadors de l'Estartit","Confraria de Pescadors de l'Estartit","Agricultura. Ramaderia. Pesca|Confraries de pescadors||",,,,"chamber","fisherfolk","Carrer del Ter Vell",,21,,,17258,,,,"+34-972 75 01 25","972 75 01 25",516594991,4655911001,"3.200552772","42.055024364",,,"07/19/2024 07:37:16 AM",,"POINT (3.2005527 42.055023)"
3040232,"Confraria de Pescadors de Calafell","Confraria de Pescadors de Calafell","Agricultura. Ramaderia. Pesca|Confraries de pescadors||",,,,"chamber","fisherfolk","Carrer de Vilamar",,21,2,,43820,"Calafell",430379,"Baix Penedès","+34-977 69 17 15","977 69 17 15",380126741,4560565999,"1.570619919","41.187585929","cpcalafell@gmail.com",,"07/19/2024 07:37:16 AM",,"POINT (1.57062 41.187588)"
3040247,"Confraria de Pescadors de Sitges","Confraria de Pescadors de Sitges","Agricultura. Ramaderia. Pesca|Confraries de pescadors||",,,,"chamber","fisherfolk","Carrer de la Carreta",,24,,,"08870","Sitges",82704,"Garraf","+34-93 894 00 02","93 894 00 02",400278354,4565576472,"1.810037597","41.235441458","confraria_sitges@yahoo.es",,"07/19/2024 07:37:16 AM",,"POINT (1.8100376 41.235443)"
3040243,"Confraria de Pescadors de Sant Pere de Tortosa i la Ràpita","Confraria de Pescadors de Sant Pere de Tortosa i la Ràpita","Agricultura. Ramaderia. Pesca|Confraries de pescadors||",,,,"chamber","fisherfolk","Carrer de la Vista Alegre",,28,0,"A",43540,"Sant Carles de la Ràpita",431362,"Montsià","+34-977 74 05 17","977 74 05 17",296326475,4498856318,"0.593416956","40.617315117","santperedelta@gmail.com",,"07/19/2024 07:37:16 AM",,"POINT (0.5934169 40.617313)"
3040239,"Confraria de Pescadors de Montgat - El Masnou - Premià de Mar","Confraria de Pescadors de Montgat - El Masnou - Premià de Mar","Agricultura. Ramaderia. Pesca|Confraries de pescadors||",,,,"chamber","fisherfolk","Carrer de l'Església",,36,1,,"08390","Montgat",81265,"Maresme","+34-93 7442002","93 7442002",440105604,4590900692,"2.282743065","41.467466874",,,"07/19/2024 07:37:16 AM",,"POINT (2.282743 41.46747)"
3040237,"Confraria de Pescadors de Malgrat de Mar","Confraria de Pescadors de Malgrat de Mar","Agricultura. Ramaderia. Pesca|Confraries de pescadors||",,,,"chamber","fisherfolk","Carrer de Sant Elm",,36,,,"08380","Malgrat de Mar",81108,"Maresme","+34-93 761 20 01","93 761 20 01",478849972,4610263155,"2.746030645","41.643827282",,,"07/19/2024 07:36:41 AM",,"POINT (2.7460306 41.643826)"
3040238,"Confraria de Pescadors de Mataró","Confraria de Pescadors de Mataró","Agricultura. Ramaderia. Pesca|Confraries de pescadors||",,,,"chamber","fisherfolk","Avinguda del Maresme",,281,,,"08301","Mataró",81213,"Maresme","+34-93 796 37 08","93 796 37 08",453943583,4598372763,"2.447877987","41.535681971","copemar22@hotmail.com",,"07/19/2024 07:37:16 AM",,"POINT (2.447878 41.535683)"
3040233,"Confraria de Pescadors de Calella","Confraria de Pescadors de Calella","Agricultura. Ramaderia. Pesca|Confraries de pescadors||",,,,"chamber","fisherfolk","Carrer de les Ànimes",,"73-75",2,4,"08370","Calella",80351,"Maresme","+34-93 769 28 79","93 769 28 79",471928176,4607207091,"2.663058354","41.616087339",,,"07/19/2024 07:37:16 AM",,"POINT (2.6630583 41.61609)"
9127600,"Confraria de Pescadors de Sant Feliu de Guíxols","Confraria de Pescadors de Sant Feliu de Guíxols","Agricultura. Ramaderia. Pesca|Confraries de pescadors||",,,,"chamber","fisherfolk","Moll de Pescadors","yes",,,,17220,"Sant Feliu de Guíxols",171609,"Baix Empordà","+34-972 32 03 81","972 32 03 81",503056328,4625395169,"3.036772000","41.780411000","info@cpguixols.cat",,"07/19/2024 07:37:16 AM",,"POINT (3.036772 41.78041)"
3040229,"Confraria de Pescadors de Barcelona","Confraria de Pescadors de Barcelona","Agricultura. Ramaderia. Pesca|Confraries de pescadors||",,,,"chamber","fisherfolk","Moll de Pescadors","yes",,,,"08039","Barcelona",80193,"Barcelonès","+34-93 221 77 45","93 221 77 45",431905878,4580595639,"2.185490000","41.374105000",,,"07/19/2024 07:37:16 AM",,"POINT (2.18549 41.374104)"
3040228,"Confraria de Pescadors de Badalona","Confraria de Pescadors de Badalona","Agricultura. Ramaderia. Pesca|Confraries de pescadors||",,,,"chamber","fisherfolk","Moll de Quimet Costa","yes",,,,"08912","Badalona",80155,"Barcelonès","+34-93 384 35 06","93 384 35 06",436435934,4587095615,"2.239244878","41.432891634","confrariabadalona@gmail.com",,"07/19/2024 07:37:16 AM",,"POINT (2.239245 41.43289)"
3040227,"Confraria de Pescadors d'Arenys de Mar","Confraria de Pescadors d'Arenys de Mar","Agricultura. Ramaderia. Pesca|Confraries de pescadors||",,,,"chamber","fisherfolk","Moll de Pescadors","yes",,,,"08350","Arenys de Mar",80060,"Maresme","+34-93 792 04 90","93 792 04 90",463126096,4602985437,"2.557687000","41.577675000","cpsantelmo@gmail.com",,"07/19/2024 07:37:16 AM",,"POINT (2.557687 41.577675)"
3040242,"Confraria de Pescadors de Roses","Confraria de Pescadors de Roses","Agricultura. Ramaderia. Pesca|Confraries de pescadors||",,,,"chamber","fisherfolk","Carrer del Comercial","yes",,,,17480,"Roses",171523,"Alt Empordà","+34-972 25 62 91","972 25 62 91",514848638,4678211875,"3.180016420","42.255963450",,"http://www.confrariapescadorsroses.cat","07/19/2024 07:37:16 AM",,"POINT (3.1800165 42.255962)"
3040230,"Confraria de Pescadors de Blanes","Confraria de Pescadors de Blanes","Agricultura. Ramaderia. Pesca|Confraries de pescadors||",,,,"chamber","fisherfolk","Carrer de l'Esplanada del Port","yes",,,,17300,"Blanes",170237,"Selva","+34-972 33 01 24","972 33 01 24",483291210,4613843801,"2.799246000","41.676149000",,,"07/19/2024 07:37:16 AM",,"POINT (2.799246 41.676147)"
3040236,"Confraria de Pescadors de Llançà","Confraria de Pescadors de Llançà","Agricultura. Ramaderia. Pesca|Confraries de pescadors||",,,,"chamber","fisherfolk","Moll Pesquer","yes",,,,17490,"Llançà",170926,"Alt Empordà","+34-972 38 03 62","972 38 03 62",513556844,4691295191,"3.164629787","42.373803461","confraria@cpllanca.com",,"07/19/2024 07:37:16 AM",,"POINT (3.1646297 42.373802)"
3040254,"Confraria de Pescadors de l'Escala","Confraria de Pescadors de l'Escala","Agricultura. Ramaderia. Pesca|Confraries de pescadors||",,,,"chamber","fisherfolk","Carrer del Port de la Clota","yes",,,,17130,"Escala, l'",170622,"Alt Empordà","+34-972 77 65 97","972 77 65 97",512343821,4662708246,"3.149320603","42.116376080","info@cpescala.cat",,"07/19/2024 07:37:16 AM",,"POINT (3.1493206 42.116375)"
3040248,"Confraria de Pescadors de Tarragona","Confraria de Pescadors de Tarragona","Agricultura. Ramaderia. Pesca|Confraries de pescadors||",,,,"chamber","fisherfolk","Moll dels Pescadors","yes",,,,43004,"Tarragona",431482,"Tarragonès","+34-977 21 55 19","977 21 55 19",352209840,4552380392,"1.239845162","41.109273383","cp_tarr@gna.es ",,"07/19/2024 07:37:16 AM",,"POINT (1.2398452 41.109272)"
3040234,"Confraria de Pescadors de Cambrils","Confraria de Pescadors de Cambrils","Agricultura. Ramaderia. Pesca|Confraries de pescadors||",,,,"chamber","fisherfolk","Moll de Ponent","yes",,,,43850,"Cambrils",430385,"Baix Camp","+34-977 36 00 52","977 36 00 52",336880480,4547646309,"1.058644000","41.063756000","confraria.cambrils@gmail.com / secretari.confrariacambrils@gmail.com",,"07/19/2024 07:37:16 AM",,"POINT (1.058644 41.063755)"
3040252,"Confraria de Pescadors de l'Ametlla de Mar","Confraria de Pescadors de l'Ametlla de Mar","Agricultura. Ramaderia. Pesca|Confraries de pescadors||",,,,"chamber","fisherfolk","Moll Pesquer","yes",,,,43860,"Ametlla de Mar, l'",430136,"Baix Ebre","+34-977 45 60 07","977 45 60 07",314755296,4527896446,"0.801529000","40.881171000","administracio@coframet.cat",,"07/19/2024 07:37:16 AM",,"POINT (0.801529 40.881172)"
3040249,"Confraria de Pescadors de Torredembarra","Confraria de Pescadors de Torredembarra","Agricultura. Ramaderia. Pesca|Confraries de pescadors||",,,,"chamber","fisherfolk","Moll Pesquer","yes",,,,43830,"Torredembarra",431536,"Tarragonès","+34-977 64 48 30","977 64 48 30",365765581,4554966101,"1.400671000","41.134933000","torredembarra@confrariespescadors.cat",,"07/19/2024 07:37:16 AM",,"POINT (1.400671 41.134933)"
3040256,"Confraria de Pescadors de les Cases d'Alcanar","Confraria de Pescadors de les Cases d'Alcanar","Agricultura. Ramaderia. Pesca|Confraries de pescadors||",,,,"chamber","fisherfolk","Moll de Pesquers","yes",,,,43569,,,,"+34-977 73 70 20","977 73 70 20",290904987,4491996572,"0.530428000","40.552363000","raulribot@cplescases.com",,"07/19/2024 07:37:16 AM",,"POINT (0.530428 40.552364)"
3040244,"Confraria de Pescadors de la Ràpita (Verge del Carme)","Confraria de Pescadors de la Ràpita (Verge del Carme)","Agricultura. Ramaderia. Pesca|Confraries de pescadors||",,,,"chamber","fisherfolk","Moll Pesquer","yes",,,,43540,"Sant Carles de la Ràpita",431362,"Montsià","+34-977 74 01 56","977 74 01 56",297080050,4499036536,"0.601137000","40.617239000","cprapita@gna.es / joanbalague@pescarapita.com",,"07/19/2024 07:37:16 AM",,"POINT (0.601137 40.61724)"
