z_NO_OSM,zref,name,name:ca,zCATEGORIA,amenity,admin_level,government,office,chamber,addr:street,nohousenumber,addr:housenumber,addr:floor,addr:door,addr:postcode,zPOBLACIO,zCODI_MUNICIPI,zCOMARCA,phone,fax,zUTMX,zUTMY,lon,lat,email,website,ZDATA_MODIFICACIO,ZPROPIETATS,ZGeoreferència,
,1841291,Unae Lleida,Unae Lleida,Comerç. Consum|Organitzacions de persones consumidores||,,,,association,,Carrer de Mossèn Amic,,1,,,25007,Lleida,251207,Segrià,+34-973247421,+34-973230121,302236178,4609737668,0.626396832,41.614862932,unaeconsumidors@gmail.com,,04/02/2024 07:01:27 AM,,POINT (0.62639683 41.614864),
,1841314,Associació El Defensor de L'Estudiant,Associació El Defensor de L'Estudiant,Comerç. Consum|Organitzacions de persones consumidores||,,,,association,,Carrer de Pere Vergés,,1,,,8020,Barcelona,80193,Barcelonès,,,433898350,4585991510,2.208952690,41.422763953,defensor.estudiant@gmx.com,,04/02/2024 07:01:26 AM,,POINT (2.2089527 41.422764),
,1841287,El Defensor de L'Estudiant,El Defensor de L'Estudiant,Comerç. Consum|Organitzacions de persones consumidores||,,,,association,,Carrer de Pere Vergés,,1,,,8020,Barcelona,80193,Barcelonès,,,433898350,4585991510,2.208952690,41.422763953,info@defensorestudiante.org,,04/02/2024 07:01:27 AM,,POINT (2.2089527 41.422764),
,1841283,"Cus:Salut, Consum i Alimentació-Delegació A Tàrrega","Cus:Salut, Consum i Alimentació-Delegació A Tàrrega",Comerç. Consum|Organitzacions de persones consumidores||,,,,association,,Avinguda del Segle XX,,2,,,25300,Tàrrega,252173,Urgell,+34-973270220,973270220,345082199,4612639575,1.139595800,41.650454400,custarrega@gmail.com,http://www.cus-usuaris.org,04/02/2024 07:01:27 AM,,POINT (1.1395957 41.650455),
,1841327,Aicuc. Associació Intercomarcal de Consumidors i Usuaris de Catalunya (Salou),Aicuc. Associació Intercomarcal de Consumidors i Usuaris de Catalunya (Salou),Comerç. Consum|Organitzacions de persones consumidores||,,,,association,,Carrer de l'Advocat Gallego,,2,,,43804,Salou,439057,Tarragonès,+34-977216951,977216951,343370082,4549469561,1.135358500,41.081410100,info@aicuc.org,http://www.aicuc.org,04/02/2024 07:01:31 AM,,POINT (1.1353585 41.08141),
,1841298,Associació Tarraco de Protecció Als Consumidors i Usuaris de La Província de Tarragona- Atpcupt,Associació Tarraco de Protecció Als Consumidors i Usuaris de La Província de Tarragona- Atpcupt,Comerç. Consum|Organitzacions de persones consumidores||,,,,association,,Carrer del Riu Llobregat,,2,,,43006,Tarragona,431482,Tarragonès,+34-977550030,977550030,349701762,4553292268,1.209765123,41.117023458,asotarraco@telefonica.net,http://usuaris.tinet.org/atpcupt/indice.htm,04/02/2024 07:01:27 AM,,POINT (1.2097651 41.117023),
,1841293,Adcuc- Associació En Defensa del Consumidor i L'Usuari de Cornellà,Adcuc- Associació En Defensa del Consumidor i L'Usuari de Cornellà,Comerç. Consum|Organitzacions de persones consumidores||,,,,association,,Carrer d'Hermenegildo Goula,,3,,,8940,Cornellà de Llobregat,80734,Baix Llobregat,+34-933765903,+34-933754011,422738465,4579120383,2.076292800,41.359883800,consumco@hotmail.com,,04/02/2024 07:01:27 AM,,POINT (2.0762928 41.359882),
,1841326,Ocuc Mataró.Organització de Consumidors i Usuaris Catalunya ,Ocuc Mataró.Organització de Consumidors i Usuaris Catalunya ,Comerç. Consum|Organitzacions de persones consumidores||,,,,association,,Plaça de Miquel Biada,,5,,,8301,Mataró,81213,Maresme,+34-934174737,934174737,453687921,4598131760,2.444831822,41.533496503,,,04/02/2024 07:01:31 AM,,POINT (2.4448318 41.533497),
,1841281,"Cus:Salut, Consum i Alimentació-Delegació A Lleida","Cus:Salut, Consum i Alimentació-Delegació A Lleida",Comerç. Consum|Organitzacions de persones consumidores||,,,,association,,Carrer de Sant Pere Claver (Centre Cívic),,5,,,25005,Lleida,251207,Segrià,+34-973270220,973270220,303248250,4610964875,0.638130800,41.626157400,cuslleida@gmail.com,http://www.cus-usuaris.org,04/02/2024 07:01:27 AM,,POINT (0.6381308 41.626156),
,1841301,Ucc Tarragona,Ucc Tarragona,Comerç. Consum|Organitzacions de persones consumidores||,,,,association,,Carrer Nou,,5,,,43300,Mont-roig del Camp,430923,Baix Camp,,+34-933042659,328566737,4550382031,0.958976264,41.086638681,ucctarragona@consumidors.org,,04/02/2024 07:01:27 AM,,POINT (0.95897627 41.08664),
,1841320,Acpb. Associació de Consumidors de La Provincia de Barcelona ,Acpb. Associació de Consumidors de La Provincia de Barcelona ,Comerç. Consum|Organitzacions de persones consumidores||,,,,association,,Avinguda del Portal de l'Àngel,,7,,,8002,Barcelona,80193,Barcelonès,+34-933024138,933024138,430916251,4581821573,2.173744916,41.384955829,acpb@acpb.cat,http://www.acpb.cat,06/26/2024 10:02:38 AM,,POINT (2.173745 41.384956),
,1841329,"Cus:Salut, Consum i Alimentació","Cus:Salut, Consum i Alimentació",Comerç. Consum|Organitzacions de persones consumidores||,,,,association,,Avinguda del Portal de l'Àngel,,7,,,8002,Barcelona,80193,Barcelonès,+34-933024138,+34-933178575,430916251,4581821573,2.173744921,41.384955832,consum@cus-usuaris.org,http://www.cus-usuaris.org,04/02/2024 07:01:31 AM,,POINT (2.173745 41.384956),
,1841333,Ucc.Unió de Consumidors de Catalunya ,Ucc.Unió de Consumidors de Catalunya ,Comerç. Consum|Organitzacions de persones consumidores||,,,,association,,Rambla de Santa Mònica,,10, baixos,,8002,Barcelona,80193,Barcelonès,+34-934546776,+34-933042659,431090938,4580963255,2.175931600,41.377240200,ucc@consumidors.org,http://www.consumidors.org,04/02/2024 07:01:31 AM,,POINT (2.1759317 41.37724),
,1841286,Unió d'Usuaris Bancaris de Canovelles,Unió d'Usuaris Bancaris de Canovelles,Comerç. Consum|Organitzacions de persones consumidores||,,,,association,,Avinguda de Canovelles,,12,,,8420,Canovelles,80410,Vallès Oriental,,,439793321,4607364461,2.277354617,41.615727274,asonoramal@hotmail.com,,04/02/2024 07:01:27 AM,,POINT (2.2773547 41.615726),
,1841294,Salut Mental de Sabadell. Associació de Familiars Dels Malalts,Salut Mental de Sabadell. Associació de Familiars Dels Malalts,Comerç. Consum|Organitzacions de persones consumidores||,,,,association,,Carrer de Borriana,,13,,,8202,Sabadell,81878,Vallès Occidental,+34-937274840,937274840,425704206,4599963533,2.109180984,41.547885467,salmensa@salmensa.org,http://www.salutmentalsabadell.org,04/02/2024 07:01:27 AM,,POINT (2.109181 41.547886),
,1841330,Fccuc. Federació de Cooperatives de Consumidors i Usuaris de Catalunya,Fccuc. Federació de Cooperatives de Consumidors i Usuaris de Catalunya,Comerç. Consum|Organitzacions de persones consumidores||,,,,association,,Carrer de Premià,,15,,,8014,Barcelona,80193,Barcelonès,+34-933012020,+34-933027995,427999229,4580900955,2.138969854,41.376408388,cooperativesdeconsum@fccuc.coop,,04/02/2024 07:01:31 AM,,POINT (2.13897 41.376408),
,1841285,Aicuc. Associació Intercomarcal de Consumidors i Usuaris de Catalunya ,Aicuc. Associació Intercomarcal de Consumidors i Usuaris de Catalunya ,Comerç. Consum|Organitzacions de persones consumidores||,,,,association,,Carrer de Pere Martell,,16,,,43003,Tarragona,431482,Tarragonès,+34-977216951,977216951,352616594,4553182655,1.244494880,41.116570714,info@aicuc.org,http://www.aicuc.org,04/02/2024 07:01:27 AM,,POINT (1.2444949 41.11657),
,1841292,Consell Alimentari de La Mediterrània-Cam,Consell Alimentari de La Mediterrània-Cam,Comerç. Consum|Organitzacions de persones consumidores||,,,,association,,Avinguda de Sant Jaume,,18,,,8700,Igualada,81022,Anoia,+34-932015333,+34-932023737,382141205,4605159147,1.585957892,41.589438220,joanborrasan@gmail.com,http://www.cam.cat,04/02/2024 07:01:27 AM,,POINT (1.5859579 41.58944),
,1841268,Facua-Associació de Consumidors En Acció de Catalunya,Facua-Associació de Consumidors En Acció de Catalunya,Comerç. Consum|Organitzacions de persones consumidores||,,,,association,,Carrer de Leiva,,25,,,8014,Barcelona,80193,Barcelonès,+34-931402985,931402985,428330631,4580611249,2.142966792,41.373828695,catalunya@facua.org,http://www.facua.cat,04/02/2024 07:01:27 AM,,POINT (2.1429667 41.37383),
,1841315,Cooperativa El Brot (Cultiu Biològic),Cooperativa El Brot (Cultiu Biològic),Comerç. Consum|Organitzacions de persones consumidores||,,,,association,,Carrer de Pròsper de Bofarull,,26,,,43202,Reus,431233,Baix Camp,+34-977331647,977331647,340709996,4558103712,1.101467772,41.158627526,elbrotcr@yahoo.es,,04/02/2024 07:01:26 AM,,POINT (1.1014677 41.158627),
,1841324,"Aicec-Adicae Barcelona. Associació d'Usuaris de Bancs, Caixes i Assegurances de Catalunya","Aicec-Adicae Barcelona. Associació d'Usuaris de Bancs, Caixes i Assegurances de Catalunya",Comerç. Consum|Organitzacions de persones consumidores||,,,,association,,Carrer d'Entença,,30,,,8015,Barcelona,80193,Barcelonès,+34-931593633,+34-933425045,429300217,4580932216,2.154522600,41.376805300,coordinacioncatalunya@adicae.net,http://www.aicec.adicae.net,04/02/2024 07:01:32 AM,,POINT (2.1545227 41.376804),
,1841295,Consum Social Català,Consum Social Català,Comerç. Consum|Organitzacions de persones consumidores||,,,,association,,Avinguda del Portal de l'Àngel,,38,,,8002,Barcelona,80193,Barcelonès,+34-934813660,+34-934813661,430783184,4581995397,2.172133714,41.386509973,consum@intersindical-csc.cat,,04/02/2024 07:01:27 AM,,POINT (2.1721337 41.38651),
,1841296,Associació Promotora de L'Orientació del Consum de La Gent Gran-Progran,Associació Promotora de L'Orientació del Consum de La Gent Gran-Progran,Comerç. Consum|Organitzacions de persones consumidores||,,,,association,,Carrer de la Providència,,42,,,8024,Barcelona,80193,Barcelonès,,,429524262,4584225769,2.156818365,41.406488822,progran@telefonica.net,,04/02/2024 07:01:27 AM,,POINT (2.1568184 41.40649),
,1841251,Federació Unió Cívica de Consumidors i Mestresses de Casa de Catalunya (Unae),Federació Unió Cívica de Consumidors i Mestresses de Casa de Catalunya (Unae),Comerç. Consum|Organitzacions de persones consumidores||,,,,association,,Carrer de Roger de Llúria,,44,,,8009,Barcelona,80193,Barcelonès,+34-933012627,933012627,430630037,4582631284,2.170229364,41.392224013,unae@unae.cat,http://www.unae.cat,04/02/2024 07:01:28 AM,,POINT (2.1702294 41.392223),
,1841325,Unae Barcelona.Unió Cívica de Consumidors i Mestresses de Casa de Barcelona i Província,Unae Barcelona.Unió Cívica de Consumidors i Mestresses de Casa de Barcelona i Província,Comerç. Consum|Organitzacions de persones consumidores||,,,,association,,Carrer de Roger de Llúria,,44,,,8009,Barcelona,80193,Barcelonès,+34-933181693,+34-934127257,430630037,4582631284,2.170229364,41.392224013,unae@unaebcn.cat,http://www.unae.cat,04/02/2024 07:01:32 AM,,POINT (2.1702294 41.392223),
,1841313,Associació Catalana de L'Hemofilia,Associació Catalana de L'Hemofilia,Comerç. Consum|Organitzacions de persones consumidores||,,,,association,,Via Laietana,,57,,,8003,Barcelona,80193,Barcelonès,+34-933014044,933014044,430926102,4582106631,2.173830228,41.387524108,info@hemofilia.cat,,04/02/2024 07:01:26 AM,,POINT (2.1738303 41.387524),
,1841332,Associació Catalana de L'Hemofília,Associació Catalana de L'Hemofília,Comerç. Consum|Organitzacions de persones consumidores||,,,,association,,Via Laietana,,57,,,8003,Barcelona,80193,Barcelonès,+34-933014044,+34-933178157,430926102,4582106631,2.173830228,41.387524108,info@hemofilia.cat,http://www.hemofilia.cat,04/02/2024 07:01:31 AM,,POINT (2.1738303 41.387524),
,1841246,Assic-Associació Per A La Informació Dels Consumidors,Assic-Associació Per A La Informació Dels Consumidors,Comerç. Consum|Organitzacions de persones consumidores||,,,,association,,Carrer de Balmes,,61,,,8007,Barcelona,80193,Barcelonès,+34-932007800,+34-932003905,429899466,4582384109,2.161520121,41.389934447,infoassic@gmail.com,http://www.assiclegal.com,04/02/2024 07:01:28 AM,,POINT (2.16152 41.389935),
,1841297,Unae Tortosa. Unió de Consumidors i Mestresses de Casa de Tortosa,Unae Tortosa. Unió de Consumidors i Mestresses de Casa de Tortosa,Comerç. Consum|Organitzacions de persones consumidores||,,,,association,,Avinguda de la Generalitat,,77,,,43500,Tortosa,431554,Baix Ebre,+34-977442933,+34-977444646,290837677,4520458838,0.520256118,40.808506239,,,04/02/2024 07:01:27 AM,,POINT (0.5202561 40.808506),
,1841267,Associació de Consumidors i Usuaris del Transport Aeri i Viatges Combinats - Acutavc,Associació de Consumidors i Usuaris del Transport Aeri i Viatges Combinats - Acutavc,Comerç. Consum|Organitzacions de persones consumidores||,,,,association,,Carrer de Floridablanca,,114,,,8011,Barcelona,80193,Barcelonès,+34-93289399,+34-932893996,429813308,4581276318,2.160618012,41.379949429,dan.miro@icab.es,http://www.acutavc.com,04/02/2024 07:01:27 AM,,POINT (2.160618 41.379948),
,1841300,Ucc Catalunya-Cervelló,Ucc Catalunya-Cervelló,Comerç. Consum|Organitzacions de persones consumidores||,,,,association,,Carrer Major,,166,,,8758,Cervelló,80689,Baix Llobregat,,+34-933042659,413031628,4583269224,1.959663847,41.396259018,direccio@consumidors.org,,04/02/2024 07:01:27 AM,,POINT (1.9596639 41.39626),
,1841328,Abacus Sccl. Societat Cooperativa Catalana Limitada,Abacus Sccl. Societat Cooperativa Catalana Limitada,Comerç. Consum|Organitzacions de persones consumidores||,,,,association,,Carrer de Perú,,186,,,8020,Barcelona,80193,Barcelonès,+34-932178166,+34-932377216,433289099,4584862066,2.201786943,41.412541023,amaya.saura@abacus.coop,http://www.abacus.coop,04/02/2024 07:01:31 AM,,POINT (2.201787 41.41254),
,1841331,Consum Català. Associació Catalana de Consumidors,Consum Català. Associació Catalana de Consumidors,Comerç. Consum|Organitzacions de persones consumidores||,,,,association,,Carrer de la Diputació,,276,,,8009,Barcelona,80193,Barcelonès,+34-933211271,+34-933211271,430535024,4582585223,2.169098261,41.391800956,comunicacio@consumcatala.cat,http://www.consumcatala.cat,04/02/2024 07:01:31 AM,,POINT (2.1690984 41.3918),
,1841323,Associació de Consumidors de Mitjans Audiovisuals de Catalunya-Tac,Associació de Consumidors de Mitjans Audiovisuals de Catalunya-Tac,Comerç. Consum|Organitzacions de persones consumidores||,,,,association,,Carrer de la Diputació,,411,,,8013,Barcelona,80193,Barcelonès,+34-934881757,934881757,431227417,4583292112,2.177299182,41.398227188,info@taconline.net,http://www.taconline.net,04/02/2024 07:01:32 AM,,POINT (2.1772993 41.398228),
,1841322,Racc.Reial Automòbil Club de Catalunya ,Racc.Reial Automòbil Club de Catalunya ,Comerç. Consum|Organitzacions de persones consumidores||,,,,association,,Avinguda Diagonal,,687,,,8028,Barcelona,80193,Barcelonès,+34-934955067,+34-934495599,425293486,4581626017,2.106527219,41.382692053,recursos.humans@racc.es,http://www.racc.cat,04/02/2024 07:01:32 AM,,POINT (2.1065273 41.38269),
,1841303,Acub-Associació Provincial de Consumidors i Usuaris de Barcelona,Acub-Associació Provincial de Consumidors i Usuaris de Barcelona,Comerç. Consum|Organitzacions de persones consumidores||,,,,association,,Carrer de Roger de Flor,,49-51,,,8013,Barcelona,80193,Barcelonès,+34-93.268.20.4,93.268.20.4,431486242,4582677005,2.180464700,41.392709200,fedine@tiservinet.es,,04/02/2024 07:01:27 AM,,POINT (2.1804647 41.392708),
,1841284,Aicec-Adicae Tarragona,Aicec-Adicae Tarragona,Comerç. Consum|Organitzacions de persones consumidores||,,,,association,,Carrer de Pons d'Icart,yes,,,,43004,Tarragona,431482,Tarragonès,+34-685919241,685919241,353292650,4552822974,1.252629800,41.113454600,tarragona@adicae.net,http://aicec.adicae.net,04/02/2024 07:01:27 AM,,POINT (1.2526298 41.113453),
,1841282,"Cus:Salut, Consum i Alimentació-Delegació A Mollerussa","Cus:Salut, Consum i Alimentació-Delegació A Mollerussa",Comerç. Consum|Organitzacions de persones consumidores||,,,,association,,Avinguda del Canal ,yes,,,,25230,Mollerussa,251370,Pla d'Urgell,+34-973270220,973270220,324537308,4610587062,0.893625754,41.627722558,mollerussacus@gmail.com,http://www.cus-usuaris.org,04/02/2024 07:01:27 AM,,POINT (0.89362574 41.627724),
,1841304,Facua Tarragona,Facua Tarragona,Comerç. Consum|Organitzacions de persones consumidores||,,,,association,,Carrer del Ponts d'Icart,yes,,,,43004,Tarragona,431482,Tarragonès,,,353335045,4552820536,1.253135100,41.113440300,,,04/02/2024 07:01:27 AM,,POINT (1.2531351 41.11344),
,1841255,Junta Arbitral de Consum de Catalunya,Junta Arbitral de Consum de Catalunya,Comerç. Consum|Juntes arbitrals de consum||,,,,,customer_service,Plaça de Pompeu Fabra,,1,,,17002,Girona,170792,Gironès,+34-872975000,+34-872975424,485271265,4647689855,2.822207288,41.981071058,,,04/02/2024 07:01:27 AM,,POINT (2.8222072 41.98107),
,1841257,Junta Arbitral de Consum de Catalunya ,Junta Arbitral de Consum de Catalunya ,Comerç. Consum|Juntes arbitrals de consum||,,,,,customer_service,Carrer de Pompeu Fabra,,1,,,43004,Tarragona,431482,Tarragonès,+34-977251717,+34-977251725,353298648,4552762012,1.252715763,41.112906788,,,04/02/2024 07:01:27 AM,,POINT (1.2527157 41.112907),
,1841258,Junta Arbitral de Consum de Catalunya ,Junta Arbitral de Consum de Catalunya ,Comerç. Consum|Juntes arbitrals de consum||,,,,,customer_service,Plaça de Gerard Vergès ,,1,,,43500,Tortosa,431554,Baix Ebre,+34-977441234,+34-977441943,291070332,4520881907,0.522870237,40.812373134,consumTerresEbre@gencat.cat,,04/02/2024 07:01:27 AM,,POINT (0.52287024 40.812374),
,1841261,Junta Arbitral de Consum de Lleida,Junta Arbitral de Consum de Lleida,Comerç. Consum|Juntes arbitrals de consum||,,,,,customer_service,Avinguda de Tortosa,,2,,,25005,Lleida,251207,Segrià,+34-973700424,+34-973700484,303104816,4610184769,0.636666888,41.619101388,junta.arbitral@paeria.cat,,04/02/2024 07:01:27 AM,,POINT (0.6366669 41.619102),
,1841256,Junta Arbitral de Consum de Catalunya,Junta Arbitral de Consum de Catalunya,Comerç. Consum|Juntes arbitrals de consum||,,,,,customer_service,Avinguda del Segre,,7,,,25007,Lleida,251207,Segrià,+34-973728000,+34-973727778,302759411,4609953374,0.632600594,41.616933649,,,04/02/2024 07:01:27 AM,,POINT (0.6326006 41.616932),
,1841265,Junta Arbitral de Consum de Vilafranca del Penedès,Junta Arbitral de Consum de Vilafranca del Penedès,Comerç. Consum|Juntes arbitrals de consum||,,,,,customer_service,Carrer de Cort,,14,,,8720,Vilafranca del Penedès,83054,Alt Penedès,+34-938920358,+34-938181870,391072069,4578039157,1.697976573,41.346486062,jac@vilafranca.org,,04/02/2024 07:01:27 AM,,POINT (1.6979766 41.346485),
,1841179,Junta Arbitral de Consum de Catalunya,Junta Arbitral de Consum de Catalunya,Comerç. Consum|Juntes arbitrals de consum||,,,,,customer_service,Carrer del Foc,,56,,,8038,Barcelona,80193,Barcelonès,+34-93857400,93857400,428031172,4578558937,2.139629735,41.355317517,,,04/02/2024 07:01:30 AM,,POINT (2.1396298 41.355316),
,1841262,Junta Arbitral de Consum de Mataró,Junta Arbitral de Consum de Mataró,Comerç. Consum|Juntes arbitrals de consum||,,,,,customer_service,Avinguda de Josep Puig i Cadafalch,,101,,,8303,Mataró,81213,Maresme,+34-937582321,+34-937582320,452345605,4598862717,2.428683569,41.540001390,jacmataro@ajmataro.cat,,04/02/2024 07:01:27 AM,,POINT (2.4286835 41.54),
,1841263,Junta Arbitral de Consum de Sabadell,Junta Arbitral de Consum de Sabadell,Comerç. Consum|Juntes arbitrals de consum||,,,,,customer_service,Carrer Tres Creus,,202,,,8203,Sabadell,81878,Vallès Occidental,+34-937453168,+34-937453170,426340566,4599759032,2.116835238,41.546102520,jac@ajsabadell.cat,,04/02/2024 07:01:27 AM,,POINT (2.1168354 41.5461),
,1841264,Junta Arbitral de Consum de Terrassa,Junta Arbitral de Consum de Terrassa,Comerç. Consum|Juntes arbitrals de consum||,,,,,customer_service,Carretera de Montcada,,596,,,8223,Terrassa,82798,Vallès Occidental,+34-937315982,+34-937366692,418956656,4601245449,2.028114518,41.558775334,consum@terrassa.cat,,04/02/2024 07:01:27 AM,,POINT (2.0281146 41.558777),
,1841260,Junta Arbitral de Consum de Barcelona,Junta Arbitral de Consum de Barcelona,Comerç. Consum|Juntes arbitrals de consum||,,,,,customer_service,Ronda de Sant Pau,,43-45,,,8015,Barcelona,80193,Barcelonès,+34-934023344,+34-934027847,430173869,4580955345,2.164966600,41.377089900,junta-arbitral@bcn.cat,,04/02/2024 07:01:27 AM,,POINT (2.1649666 41.37709),
,1841259,Junta Arbitral de Consum de Badalona,Junta Arbitral de Consum de Badalona,Comerç. Consum|Juntes arbitrals de consum||,,,,,customer_service,Plaça de l'Assemblea de Catalunya,,9-12,,,8911,Badalona,80155,Barcelonès,+34-934832743,+34-934832949,437283722,4589275675,2.249121600,41.452615100,jac@badalona.cat,,04/02/2024 07:01:27 AM,,POINT (2.2491217 41.452614),
,1841307,Ofideute (Girona),Ofideute (Girona),Comerç. Consum|Servei públic de Consum||,,,,,customer_service,,Plaça de Pompeu Fabra,,1,,,17002,Girona,170792,Gironès,+34-872975000,872975000,485271265,4647689855,2.822207288,41.981071058,,,04/02/2024 07:01:26 AM,,POINT (2.8222072 41.98107)
,1841342,Oficina Comarcal d'Informació al Consumidor del Segrià,Oficina Comarcal d'Informació al Consumidor del Segrià,Comerç. Consum|Servei públic de Consum||,,,,,customer_service,,Passeig de Balmes,,3,,,25200,Cervera,250729,Segarra,+34-973531300,973531300,356425024,4614667742,1.275262482,41.670837927,consum@segria.cat,,04/02/2024 07:01:31 AM,"Funcions|- Gestionar les reclamacions per mitjà de la mediació en matèria de consum.<br>- Informar, orientar i assessorar les persones consumidores sobre llurs drets i deures i les formes d'exercir-los.<br>- Rebre i tramitar les queixes, reclamacions i denúncies de les persones consumidores.",POINT (1.2752625 41.670837)
,1841172,Oficina Comarcal d'Informació al Consumidor de La Cerdanya,Oficina Comarcal d'Informació al Consumidor de La Cerdanya,Comerç. Consum|Servei públic de Consum||,,,,,customer_service,,Plaça del Rec,,5,,,17520,Puigcerdà,171411,Cerdanya,+34-972884884,+34-972882283,411584616,4698590432,1.925069044,42.434596155,ocic@cerdanya.org,,04/02/2024 07:01:30 AM,"Funcions|- Gestionar les reclamacions per mitjà de la mediació en matèria de consum.<br>- Informar, orientar i assessorar les persones consumidores sobre llurs drets i deures i les formes d'exercir-los.<br>- Rebre i tramitar les queixes, reclamacions i denúncies de les persones consumidores.",POINT (1.9250691 42.434597)
,1841309,Ofideute (Tarragona),Ofideute (Tarragona),Comerç. Consum|Servei públic de Consum||,,,,,customer_service,,Carrer del Cardenal Vidal i Barraquer,,14,,,43004,Tarragona,431482,Tarragonès,+34-977247036,977247036,352263080,4553277797,1.240263136,41.117363125,,,04/02/2024 07:01:26 AM,,POINT (1.2402631 41.117363)
,1841193,Oficina Municipal d'Informació al Consumidor del Masnou,Oficina Municipal d'Informació al Consumidor del Masnou,Comerç. Consum|Servei públic de Consum||,,,,,customer_service,,Carrer de Roger de Flor,,23,,,8320,"Masnou, el",81189,Maresme,+34-935571800,+34-935571701,443064214,4592234595,2.318045100,41.479696600,omic@elmasnou.cat,http://elmasnou.cat/omic-oficina-municipal-informacio-sobre-consum,04/02/2024 07:01:29 AM,"Funcions|- Gestionar les denúncies i acomplir les tasques d'inspecció en matèria de consum.<br>- Gestionar les reclamacions per mitjà de la mediació en matèria de consum.<br>- Informar, orientar i assessorar les persones consumidores sobre llurs drets i deures i les formes d'exercir-los.<br>- Rebre i tramitar les queixes, reclamacions i denúncies de les persones consumidores.",POINT (2.3180451 41.4797)
,16140497,Oficina Municipal d'Informació A Les Persones Consumidores de Pallejà,Oficina Municipal d'Informació A Les Persones Consumidores de Pallejà,Comerç. Consum|Servei públic de Consum||,,,,,customer_service,,Avinguda de Prat de la Riba,,27,,,8780,Pallejà,81574,Baix Llobregat,+34-936631540,936631540,416227867,4586061091,1.997505805,41.421742487,adel.palleja@palleja.cat,http://www.palleja.cat,04/02/2024 07:01:26 AM,"Funcions|- Gestionar les reclamacions per mitjà de la mediació en matèria de consum.<br>- Informar, orientar i assessorar les persones consumidores sobre llurs drets i deures i les formes d'exercir-los.<br>- Rebre i tramitar les queixes, reclamacions i denúncies de les persones consumidores.",POINT (1.9975058 41.42174)
,1841239,Oficina Municipal d'Informació al Consumidor de Vilassar de Mar,Oficina Municipal d'Informació al Consumidor de Vilassar de Mar,Comerç. Consum|Servei públic de Consum||,,,,,customer_service,,Carrer de Santa Eulàlia,,40,,,8340,Vilassar de Mar,82191,Maresme,+34-937540500,937540500,448813858,4594894615,2.386682175,41.504042939,omic219@vilassardemar.cat,http://www.vilassardemar.cat/directori/oficines-datencio/omic-oficina-municipal-dinformacio-al-consumidor,04/02/2024 07:01:28 AM,"Funcions|- Gestionar les denúncies i acomplir les tasques d'inspecció en matèria de consum.<br>- Gestionar les reclamacions per mitjà de la mediació en matèria de consum.<br>- Informar, orientar i assessorar les persones consumidores sobre llurs drets i deures i les formes d'exercir-los.<br>- Rebre i tramitar les queixes, reclamacions i denúncies de les persones consumidores.",POINT (2.3866823 41.504044)
,1841310,Ofideute (Tortosa),Ofideute (Tortosa),Comerç. Consum|Servei públic de Consum||,,,,,customer_service,,Carrer de Maria Rosa Molas,,41,,,43500,Tortosa,431554,Baix Ebre,+34-977247036,977247036,290573674,4520107891,0.517246800,40.805280400,,,04/02/2024 07:01:26 AM,,POINT (0.5172468 40.80528)
,1841174,Oficina Comarcal d'Informació al Consumidor de Les Garrigues,Oficina Comarcal d'Informació al Consumidor de Les Garrigues,Comerç. Consum|Servei públic de Consum||,,,,,customer_service,,Avinguda de Francesc Macià,,54,,,25400,"Borges Blanques, les",250582,Garrigues,+34-973142658,+34-973140106,322769232,4597899562,0.876160000,41.513129900,dinamitzacio@garrigues.cat,http://www.ccgarrigues.com,04/02/2024 07:01:30 AM,"Funcions|- Gestionar les reclamacions per mitjà de la mediació en matèria de consum.<br>- Informar, orientar i assessorar les persones consumidores sobre llurs drets i deures i les formes d'exercir-los.<br>- Rebre i tramitar les queixes, reclamacions i denúncies de les persones consumidores.",POINT (0.87616 41.51313)
,1841215,Oficina Municipal d'Informació al Consumidor de Ripollet,Oficina Municipal d'Informació al Consumidor de Ripollet,Comerç. Consum|Servei públic de Consum||,,,,,customer_service,,Carrer de Balmes,,2-4,,,8291,Ripollet,81803,Vallès Occidental,+34-935046007,+34-935809936,429342223,4594220772,2.153471100,41.496493300,omic@ripollet.cat,http://www.ripollet.cat,04/02/2024 07:01:29 AM,"Funcions|- Gestionar les reclamacions per mitjà de la mediació en matèria de consum.<br>- Informar, orientar i assessorar les persones consumidores sobre llurs drets i deures i les formes d'exercir-los.<br>- Rebre i tramitar les queixes, reclamacions i denúncies de les persones consumidores.",POINT (2.153471 41.496494)
,1841183,Oficina Municipal d'Informació al Consumidor de Barcelona,Oficina Municipal d'Informació al Consumidor de Barcelona,Comerç. Consum|Servei públic de Consum||,,,,,customer_service,,Ronda de Sant Pau,,43-45,,,8015,Barcelona,80193,Barcelonès,10,,430173869,4580955345,2.164966600,41.377089900,omic@bcn.cat,http://ajuntament.barcelona.cat/omic,04/02/2024 07:01:29 AM,"Funcions|- Gestionar les denúncies i acomplir les tasques d'inspecció en matèria de consum.<br>- Gestionar les reclamacions per mitjà de la mediació en matèria de consum.<br>- Informar, orientar i assessorar les persones consumidores sobre llurs drets i deures i les formes d'exercir-los.<br>- Iniciar procediments sancionadors de consum.<br>- Rebre i tramitar les queixes, reclamacions i denúncies de les persones consumidores.",POINT (2.1649666 41.37709)
,1841270,Agència Catalana del Consum,Agència Catalana del Consum,Comerç. Consum|Servei públic de Consum|Autonòmic|,,,,,customer_service,,Plaça de Pompeu Fabra,,1,,,17002,Girona,170792,Gironès,+34-872975000,872975000,485271265,4647689855,2.822207288,41.981071058,jsuros@gencat.cat,http://www.consum.cat,04/02/2024 07:01:27 AM,"Horari|Horari d'atenció al públic: de dilluns a divendres de 9 a 17h


|Funcions|- Gestionar les denúncies i acomplir les tasques d'inspecció en matèria de consum.<br>- Gestionar les reclamacions per mitjà de la mediació en matèria de consum.<br>- Informar, orientar i assessorar les persones consumidores sobre llurs drets i deures i les formes d'exercir-los.<br>- Iniciar procediments sancionadors de consum.<br>- Rebre i tramitar les queixes, reclamacions i denúncies de les persones consumidores.|Tipus informació|General de consum|Àmbit|Autonòmic",POINT (2.8222072 41.98107)
,1841273,Agència Catalana del Consum,Agència Catalana del Consum,Comerç. Consum|Servei públic de Consum|Autonòmic|,,,,,customer_service,,Plaça de Gerard Vergès,,1,,,43500,Tortosa,431554,Baix Ebre,+34-977441234,+34-977495528,291070332,4520881907,0.522870237,40.812373133,consumterresebre@gencat.cat,http://www.consum.cat,04/02/2024 07:01:27 AM,"Horari|Horari de registre i atenció al públic de dilluns a divendres: de 8.15h a 14h tot l'any.
Els dies 24 i 31 de desembre romandran tancats.
Important:
Per tal d'oferir una millor atenció presencial per fer consultes o presentar reclamacions/denúncies, recomanem demanar cita prèvia.
Abans, podeu adreçar-vos al 012 on us informaran dels vostres drets i, si escau, sereu derivats a l'Agència Catalana del Consum.


|Funcions|- Gestionar les denúncies i acomplir les tasques d'inspecció en matèria de consum.<br>- Gestionar les reclamacions per mitjà de la mediació en matèria de consum.<br>- Informar, orientar i assessorar les persones consumidores sobre llurs drets i deures i les formes d'exercir-los.<br>- Iniciar procediments sancionadors de consum.<br>- Rebre i tramitar les queixes, reclamacions i denúncies de les persones consumidores.|Tipus informació|General de consum|Àmbit|Autonòmic",POINT (0.52287024 40.812374)
,1841272,Agència Catalana del Consum,Agència Catalana del Consum,Comerç. Consum|Servei públic de Consum|Autonòmic|,,,,,customer_service,,Carrer de Pompeu Fabra,,1,,,43004,Tarragona,431482,Tarragonès,+34-977251717,+34-977920133,353298648,4552762012,1.252715763,41.112906788,,http://www.consum.cat,04/02/2024 07:01:27 AM,"Horari|Horari de registre i atenció al públic de dilluns a divendres de 8.15h a 14h tot l'any.
Els dies 24 i 31 de desembre romandran tancats.
Important:
Per tal d'oferir una millor atenció presencial per fer consultes o presentar reclamacions/denúncies, recomanem demanar cita prèvia.
Abans, podeu adreçar-vos al 012 on us informaran dels vostres drets i, si escau, sereu derivats a l'Agència Catalana del Consum.


|Funcions|- Gestionar les denúncies i acomplir les tasques d'inspecció en matèria de consum.<br>- Gestionar les reclamacions per mitjà de la mediació en matèria de consum.<br>- Informar, orientar i assessorar les persones consumidores sobre llurs drets i deures i les formes d'exercir-los.<br>- Iniciar procediments sancionadors de consum.<br>- Rebre i tramitar les queixes, reclamacions i denúncies de les persones consumidores.|Tipus informació|General de consum|Àmbit|Autonòmic",POINT (1.2527157 41.112907)
,1841271,Agència Catalana del Consum,Agència Catalana del Consum,Comerç. Consum|Servei públic de Consum|Autonòmic|,,,,,customer_service,,Avinguda del Segre,,7,,,25007,Lleida,251207,Segrià,+34-973728000,+34-973727778,302759411,4609953374,0.632600594,41.616933649,consumlleida@gencat.cat,http://www.consum.cat,04/02/2024 07:01:27 AM,"Horari|Horari d'atenció al públic: de 9 a 14h.
Els dies 24 i 31 de dromandran tancats.
Important:
Per tal d'oferir una millor atenció presencial per fer consultes o presentar reclamacions/denúncies, recomanem demanar cita prèvia.
Abans, podeu adreçar-vos al 012 on us informaran dels vostres drets i, si escau, sereu derivats a l'Agència Catalana del Consum.


|Funcions|- Gestionar les denúncies i acomplir les tasques d'inspecció en matèria de consum.<br>- Gestionar les reclamacions per mitjà de la mediació en matèria de consum.<br>- Informar, orientar i assessorar les persones consumidores sobre llurs drets i deures i les formes d'exercir-los.<br>- Iniciar procediments sancionadors de consum.<br>- Rebre i tramitar les queixes, reclamacions i denúncies de les persones consumidores.|Tipus informació|General de consum|Àmbit|Autonòmic",POINT (0.6326006 41.616932)
,1841161,Agència Catalana del Consum (Seu Central),Agència Catalana del Consum (Seu Central),Comerç. Consum|Servei públic de Consum|Autonòmic|,,,,,customer_service,,Carrer del Foc,,56,,,8038,Barcelona,80193,Barcelonès,+34-938574000,938574000,428031172,4578558937,2.139629735,41.355317517,,http://www.consum.cat,04/02/2024 07:01:32 AM,"Horari|Horari de registre i d'atenció al públic: de dilluns a divendres de 9 a 14h, tot l'any.
Els dies 24 i 31 de desembre romandran tancats.
Important:
Per tal d'oferir una millor atenció presencial per fer consultes o presentar queixes/reclamacions/denúncies recomanem que us adreceu al 012 on us informaran dels vostres drets.|Funcions|- Gestionar les denúncies i acomplir les tasques d'inspecció en matèria de consum.<br>- Gestionar les reclamacions per mitjà de la mediació en matèria de consum.<br>- Informar, orientar i assessorar les persones consumidores sobre llurs drets i deures i les formes d'exercir-los.<br>- Iniciar procediments sancionadors de consum.<br>- Rebre i tramitar les queixes, reclamacions i denúncies de les persones consumidores.|Tipus informació|General de consum|Àmbit|Autonòmic",POINT (2.1396298 41.355316)
,1841177,Oficina Comarcal d'Informació al Consumidor del Maresme,Oficina Comarcal d'Informació al Consumidor del Maresme,Comerç. Consum|Servei públic de Consum|Comarcal|,,,,,customer_service,,Plaça de Miquel Biada,,1,,,8301,Mataró,81213,Maresme,+34-937411618,+34-937572112,453691252,4598114169,2.444873105,41.533338254,consum@ccmaresme.cat,http://www.ccmaresme.cat,04/02/2024 07:01:30 AM,"Horari|Horari d'atenció al públic: de dilluns a divendres de 9 a 14h
|Funcions|- Gestionar les reclamacions per mitjà de la mediació en matèria de consum.<br>- Informar, orientar i assessorar les persones consumidores sobre llurs drets i deures i les formes d'exercir-los.<br>- Rebre i tramitar les queixes, reclamacions i denúncies de les persones consumidores.|Tipus informació|General de consum|Àmbit|Comarcal",POINT (2.444873 41.533337)
,1841173,Oficina Comarcal d'Informació al Consumidor de La Noguera,Oficina Comarcal d'Informació al Consumidor de La Noguera,Comerç. Consum|Servei públic de Consum|Comarcal|,,,,,customer_service,,Plaça de la Unió Catalanista,,1,,,25600,Balaguer,250404,Noguera,+34-973448933,+34-973445324,317974776,4628268791,0.809501000,41.785397700,consell@ccnoguera.cat,http://www.ccnoguera.cat,04/02/2024 07:01:30 AM,"Horari|Horari d'atenció al públic: dimarts i dijous de 9 a 14h|Funcions|- Gestionar les reclamacions per mitjà de la mediació en matèria de consum.<br>- Informar, orientar i assessorar les persones consumidores sobre llurs drets i deures i les formes d'exercir-los.<br>- Rebre i tramitar les queixes, reclamacions i denúncies de les persones consumidores.|Tipus informació|General de consum|Àmbit|Comarcal",POINT (0.809501 41.785397)
,1841344,Oficina Comarcal d'Informació al Consumidor del Pallars Sobirà,Oficina Comarcal d'Informació al Consumidor del Pallars Sobirà,Comerç. Consum|Servei públic de Consum|Comarcal|,,,,,customer_service,,Camí de la Cabanera ,,1,,,25560,Sort,252094,Pallars Sobirà,+34-973620107,+34-973620078,345977770,4696913611,1.128212970,42.409251175,apalau@pallarssobira.cat,http://www.pallarssobira.cat,04/02/2024 07:01:31 AM,"Horari|Horari d'atenció al públic: de dilluns a divendres de 10 a 14h.
S'aconsella demanar cita prèvia.|Funcions|- Gestionar les reclamacions per mitjà de la mediació en matèria de consum.<br>- Informar, orientar i assessorar les persones consumidores sobre llurs drets i deures i les formes d'exercir-los.<br>- Rebre i tramitar les queixes, reclamacions i denúncies de les persones consumidores.|Tipus informació|General de consum|Àmbit|Comarcal",POINT (1.1282129 42.409252)
,1841178,Oficina Comarcal d'Informació al Consumidor del Priorat,Oficina Comarcal d'Informació al Consumidor del Priorat,Comerç. Consum|Servei públic de Consum|Comarcal|,,,,,customer_service,,Plaça de la Quartera,,1,,,43730,Falset,430555,Priorat,+34-977830119,+34-977830465,317082402,4557309346,0.820276593,41.146492754,consum@priorat.cat,http://www.priorat.cat/consum,04/02/2024 07:01:30 AM,"Horari|Horari d'atenció al públic: de dilluns a divendres de 9 a 14h.
|Funcions|- Gestionar les reclamacions per mitjà de la mediació en matèria de consum.<br>- Informar, orientar i assessorar les persones consumidores sobre llurs drets i deures i les formes d'exercir-los.<br>- Rebre i tramitar les queixes, reclamacions i denúncies de les persones consumidores.|Tipus informació|General de consum|Àmbit|Comarcal",POINT (0.8202766 41.146492)
,1841168,Oficina Comarcal d'Informació al Consumidor de La Ribera d'Ebre,Oficina Comarcal d'Informació al Consumidor de La Ribera d'Ebre,Comerç. Consum|Servei públic de Consum|Comarcal|,,,,,customer_service,,Plaça de Sant Roc,,2,,,43740,Móra d'Ebre,430939,Ribera d'Ebre,+34-977401851,+34-977400400,302106155,4551515979,0.643818780,41.090835956,consell@riberaebre.org,http://www.riberaebre.org,04/02/2024 07:01:31 AM,"Horari|Horari d'atenció al públic: de dilluns a divendres de 8 a 15h.
S'aconsella demanar cita prèvia.|Funcions|- Gestionar les reclamacions per mitjà de la mediació en matèria de consum.<br>- Informar, orientar i assessorar les persones consumidores sobre llurs drets i deures i les formes d'exercir-los.<br>- Rebre i tramitar les queixes, reclamacions i denúncies de les persones consumidores.|Tipus informació|General de consum|Àmbit|Comarcal",POINT (0.6438188 41.090836)
,13251685,Oficina Comarcal d'Informació al Consumidor de La Segarra,Oficina Comarcal d'Informació al Consumidor de La Segarra,Comerç. Consum|Servei públic de Consum|Comarcal|,,,,,customer_service,,Passeig de Balmes,,3,,,25200,Cervera,250729,Segarra,+34-973531300,973531300,356425024,4614667742,1.275262482,41.670837927,consum@ccsegarra.cat,,04/02/2024 07:01:26 AM,"Horari|Horari d'atencó al públic: dimarts, dijous i divendres de 10 a 14h|Funcions|- Gestionar les reclamacions per mitjà de la mediació en matèria de consum.<br>- Informar, orientar i assessorar les persones consumidores sobre llurs drets i deures i les formes d'exercir-los.<br>- Rebre i tramitar les queixes, reclamacions i denúncies de les persones consumidores.|Tipus informació|General de consum|Àmbit|Comarcal",POINT (1.2752625 41.670837)
,1841305,Oficina Comarcal d'Informació al Consumidor de La Segarra,Oficina Comarcal d'Informació al Consumidor de La Segarra,Comerç. Consum|Servei públic de Consum|Comarcal|,,,,,customer_service,,Passeig de Balmes,,3,,,25200,Cervera,250729,Segarra,+34-973531300,+34-973532337,356425024,4614667742,1.275262482,41.670837927,consum@ccsegarra.cat,http://www.ccsegarra.cat,04/02/2024 07:01:26 AM,"Horari|Horari d'atenció al públic: dimarts, dijous i divendres de 10 a 14h|Funcions|- Gestionar les reclamacions per mitjà de la mediació en matèria de consum.<br>- Informar, orientar i assessorar les persones consumidores sobre llurs drets i deures i les formes d'exercir-los.<br>- Rebre i tramitar les queixes, reclamacions i denúncies de les persones consumidores.|Tipus informació|General de consum|Àmbit|Comarcal",POINT (1.2752625 41.670837)
,1841241,Oficina Comarcal d'Informació al Consumidor de L' Alt Camp,Oficina Comarcal d'Informació al Consumidor de L' Alt Camp,Comerç. Consum|Servei públic de Consum|Comarcal|,,,,,customer_service,,Carrer de Mossèn Martí,,3,,,43800,Valls,431613,Alt Camp,+34-977608560,+34-977613071,353431027,4572241855,1.249623534,41.288321804,consum@altcamp.cat,,04/02/2024 07:01:28 AM,"Horari|Horari d'atenció al públic: de dilluns a divendres de 8.30 a 14.30h
|Funcions|- Gestionar les denúncies i acomplir les tasques d'inspecció en matèria de consum.<br>- Gestionar les reclamacions per mitjà de la mediació en matèria de consum.<br>- Informar, orientar i assessorar les persones consumidores sobre llurs drets i deures i les formes d'exercir-los.<br>- Rebre i tramitar les queixes, reclamacions i denúncies de les persones consumidores.|Tipus informació|General de consum|Àmbit|Comarcal",POINT (1.2496235 41.288322)
,1841343,Oficina Comarcal d'Informació al Consumidor de La Terra Alta,Oficina Comarcal d'Informació al Consumidor de La Terra Alta,Comerç. Consum|Servei públic de Consum|Comarcal|,,,,,customer_service,,Carrer del Povet de la Plana ,,4,,,43780,Gandesa,430640,Terra Alta,+34-977420018,977420018,285095283,4547628172,0.442824630,41.051530995,consum@terra-alta.cat,,04/02/2024 07:01:31 AM,"Horari|Horari d'atenció al públic: de dilluns a divendres de 8 a 15h.
No cal cita prèvia.|Funcions|- Gestionar les reclamacions per mitjà de la mediació en matèria de consum.<br>- Informar, orientar i assessorar les persones consumidores sobre llurs drets i deures i les formes d'exercir-los.<br>- Rebre i tramitar les queixes, reclamacions i denúncies de les persones consumidores.|Tipus informació|General de consum|Àmbit|Comarcal",POINT (0.44282463 41.051533)
,1841180,Oficina Comarcal d'Informació al Consumidor de L'Anoia,Oficina Comarcal d'Informació al Consumidor de L'Anoia,Comerç. Consum|Servei públic de Consum|Comarcal|,,,,,customer_service,,Plaça de Sant Miquel,,5,,,8700,Igualada,81022,Anoia,+34-938051585,+34-938050611,384782696,4603847361,1.617892866,41.578011357,consum@anoia.cat,http://www.anoia.cat,04/02/2024 07:01:30 AM,"Horari|Horari d'atenció al públic: de 9 a 14h
|Funcions|- Gestionar les reclamacions per mitjà de la mediació en matèria de consum.<br>- Informar, orientar i assessorar les persones consumidores sobre llurs drets i deures i les formes d'exercir-los.<br>- Rebre i tramitar les queixes, reclamacions i denúncies de les persones consumidores.|Tipus informació|General de consum|Àmbit|Comarcal",POINT (1.6178929 41.57801)
,1841163,Oficina Comarcal d'Informació al Consumidor d'Osona,Oficina Comarcal d'Informació al Consumidor d'Osona,Comerç. Consum|Servei públic de Consum|Comarcal|,,,,,customer_service,,Carrer de Ramon d'Abadal i de Vinyals,,5,,,8500,Vic,82981,Osona,+34-938832212,+34-938834130,437505767,4641983263,2.246258600,41.927337000,ocic@ccosona.cat,http://www.ccosona.cat,04/02/2024 07:01:31 AM,"Horari|Horari d'atenció al públic: dilluns, dimecres i divendres de 9 a 14h.
Dimecres de 17 a 19h.
Amb cita prèvia.|Funcions|- Informar, orientar i assessorar les persones consumidores sobre llurs drets i deures i les formes d'exercir-los.<br>- Rebre i tramitar les queixes, reclamacions i denúncies de les persones consumidores.|Tipus informació|General de consum|Àmbit|Comarcal",POINT (2.2462585 41.927338)
,1841335,Oficina Comarcal d'Informació al Consumidor del Baix Penedès,Oficina Comarcal d'Informació al Consumidor del Baix Penedès,Comerç. Consum|Servei públic de Consum|Comarcal|,,,,,customer_service,,Plaça del Centre,,5,,,43700,"Vendrell, el",431634,Baix Penedès,+34-977157170,+34-977157181,377193149,4564447675,1.534870700,41.222100900,consum@baixpenedes.cat,http://www.ccbp.cat,04/02/2024 07:01:31 AM,"Horari|Horari d'atenció al públic: de dilluns a divendres de 9 a 14h, amb cita prèvia|Funcions|- Gestionar les reclamacions per mitjà de la mediació en matèria de consum.<br>- Informar, orientar i assessorar les persones consumidores sobre llurs drets i deures i les formes d'exercir-los.<br>- Rebre i tramitar les queixes, reclamacions i denúncies de les persones consumidores.|Tipus informació|General de consum|Àmbit|Comarcal",POINT (1.5348707 41.2221)
,1841171,Oficina Comarcal d'Informació al Consumidor del Solsonès,Oficina Comarcal d'Informació al Consumidor del Solsonès,Comerç. Consum|Servei públic de Consum|Comarcal|,,,,,customer_service,,Plaça del Consell Comarcal,,12,,,25280,Solsona,252075,Solsonès,+34-973482003,+34-973482514,377365209,4650347542,1.519338300,41.995595600,consum@elsolsones.cat,http://www.solsones.ddl.net,04/02/2024 07:01:30 AM,"Horari|Horari d'atenció al públic: de dilluns a divendres de 8.30 a 14.30h|Funcions|- Gestionar les reclamacions per mitjà de la mediació en matèria de consum.<br>- Informar, orientar i assessorar les persones consumidores sobre llurs drets i deures i les formes d'exercir-los.<br>- Rebre i tramitar les queixes, reclamacions i denúncies de les persones consumidores.|Tipus informació|General de consum|Àmbit|Comarcal",POINT (1.5193383 41.995594)
,1841334,Oficina Comarcal d'Informació al Consumidor de L'Alt Urgell,Oficina Comarcal d'Informació al Consumidor de L'Alt Urgell,Comerç. Consum|Servei públic de Consum|Comarcal|,,,,,customer_service,,Passeig de Joan Brudieu,,15,,,25700,"Seu d'Urgell, la",252038,Alt Urgell,+34-973353112,+34-973352788,373146059,4690435489,1.459679400,42.355845100,consum@alturgell.cat,,04/02/2024 07:01:31 AM,"Horari|Horari d'atenció al públic: de dilluns a divendres de 9 a 14h.
No cal cita prèvia.|Funcions|- Gestionar les reclamacions per mitjà de la mediació en matèria de consum.<br>- Informar, orientar i assessorar les persones consumidores sobre llurs drets i deures i les formes d'exercir-los.<br>- Rebre i tramitar les queixes, reclamacions i denúncies de les persones consumidores.|Tipus informació|General de consum|Àmbit|Comarcal",POINT (1.4596794 42.355846)
,1841347,Oficina Comarcal d'Informació al Consumidor de L'Urgell,Oficina Comarcal d'Informació al Consumidor de L'Urgell,Comerç. Consum|Servei públic de Consum|Comarcal|,,,,,customer_service,,Carrer d'Agoders,,16,,,25300,Tàrrega,252173,Urgell,+34-973500707,973500707,345144398,4612228212,1.140448900,41.646763200,consum@urgell.cat,http://www.urgell.cat,04/02/2024 07:01:31 AM,"Horari|Horari d'atenció al públic: d'11 a 14h|Funcions|- Gestionar les reclamacions per mitjà de la mediació en matèria de consum.<br>- Informar, orientar i assessorar les persones consumidores sobre llurs drets i deures i les formes d'exercir-los.<br>- Rebre i tramitar les queixes, reclamacions i denúncies de les persones consumidores.|Tipus informació|General de consum|Àmbit|Comarcal",POINT (1.1404489 41.646763)
,1841162,Oficina Comarcal d'Informació al Consumidor d'Aran,Oficina Comarcal d'Informació al Consumidor d'Aran,Comerç. Consum|Servei públic de Consum|Comarcal|,,,,,customer_service,,Passeig Dera Libertat,,16,,,25530,Vielha e Mijaran,252430,Val d'Aran,+34-973641801,+34-973641769,319470832,4730168825,0.795783300,42.702809400,mo.vilo@aran.org,http://www.conselharan.org,04/02/2024 07:01:31 AM,"Horari|Horari d'atenció al públic: de dilluns a divendres de 8 a 14h|Funcions|- Gestionar les reclamacions per mitjà de la mediació en matèria de consum.<br>- Informar, orientar i assessorar les persones consumidores sobre llurs drets i deures i les formes d'exercir-los.<br>- Rebre i tramitar les queixes, reclamacions i denúncies de les persones consumidores.|Tipus informació|General de consum|Àmbit|Comarcal",POINT (0.7957833 42.70281)
,1841340,Oficina Comarcal d'Informació al Consumidor de La Conca de Barberà,Oficina Comarcal d'Informació al Consumidor de La Conca de Barberà,Comerç. Consum|Servei públic de Consum|Comarcal|,,,,,customer_service,,Carrer de Sant Josep,,18,,,43400,Montblanc,430862,Conca de Barberà,+34-977861232,977861232,346368662,4582239299,1.162794954,41.377016589,consumconca@concadebarbera.cat,http://www.serviconca.org,04/02/2024 07:01:31 AM,"Horari|Horari d'atenció al públic: de dilluns a divendres de 9 a 14h|Funcions|- Gestionar les reclamacions per mitjà de la mediació en matèria de consum.<br>- Informar, orientar i assessorar les persones consumidores sobre llurs drets i deures i les formes d'exercir-los.<br>- Rebre i tramitar les queixes, reclamacions i denúncies de les persones consumidores.|Tipus informació|General de consum|Àmbit|Comarcal",POINT (1.162795 41.377018)
,1841167,Oficina Comarcal d'Informació al Consumidor del Pallars Jussà,Oficina Comarcal d'Informació al Consumidor del Pallars Jussà,Comerç. Consum|Servei públic de Consum|Comarcal|,,,,,customer_service,,Carrer de Soldevila,,18,,,25620,Tremp,252347,Pallars Jussà,+34-973650187,+34-973652831,326095319,4670371208,0.894710218,42.166168133,consum@pallarsjussa.cat,http://www.pallarsjussa.cat,04/02/2024 07:01:31 AM,"Horari|Horari d'atenció al públic: de dilluns a divendres de 9 a 14h, amb cita prèvia|Funcions|- Gestionar les reclamacions per mitjà de la mediació en matèria de consum.<br>- Informar, orientar i assessorar les persones consumidores sobre llurs drets i deures i les formes d'exercir-los.<br>- Rebre i tramitar les queixes, reclamacions i denúncies de les persones consumidores.|Tipus informació|General de consum|Àmbit|Comarcal",POINT (0.89471024 42.16617)
,1841336,Oficina Comarcal d'Informació al Consumidor de La Garrotxa,Oficina Comarcal d'Informació al Consumidor de La Garrotxa,Comerç. Consum|Servei públic de Consum|Comarcal|,,,,,customer_service,,Avinguda de l'Onze de Setembre,,22,,,17800,Olot,171143,Garrotxa,+34-972276044,+34-972271594,458156337,4670181723,2.493298226,42.182663591,consum@garrotxa.cat,,04/02/2024 07:01:31 AM,"Horari|Horari d'atenció al públic: de dilluns a divendres de 8 a 15h.
No cal cita prèvia.|Funcions|- Gestionar les denúncies i acomplir les tasques d'inspecció en matèria de consum.<br>- Gestionar les reclamacions per mitjà de la mediació en matèria de consum.<br>- Informar, orientar i assessorar les persones consumidores sobre llurs drets i deures i les formes d'exercir-los.<br>- Rebre i tramitar les queixes, reclamacions i denúncies de les persones consumidores.|Tipus informació|General de consum|Àmbit|Comarcal",POINT (2.4932983 42.182663)
,1841346,Oficina Comarcal d'Informació al Consumidor del Ripollès,Oficina Comarcal d'Informació al Consumidor del Ripollès,Comerç. Consum|Servei públic de Consum|Comarcal|,,,,,customer_service,,Carrer del Progrés,,22,,,17500,Ripoll,171479,Ripollès,+34-972703211,+34-972702654,433494865,4672048631,2.194472360,42.197768398,consum@ripolles.cat,http://www.ccripolles.cat,04/02/2024 07:01:31 AM,"Horari|Horari d'atenció al públic: dimarts d'8.30 a 14.30h i de 16 a 19h.
Divendres de 8.30 a 14h|Funcions|- Gestionar les reclamacions per mitjà de la mediació en matèria de consum.<br>- Informar, orientar i assessorar les persones consumidores sobre llurs drets i deures i les formes d'exercir-los.<br>- Rebre i tramitar les queixes, reclamacions i denúncies de les persones consumidores.|Tipus informació|General de consum|Àmbit|Comarcal",POINT (2.1944723 42.19777)
,1841175,Oficina Comarcal d'Informació al Consumidor del Bages,Oficina Comarcal d'Informació al Consumidor del Bages,Comerç. Consum|Servei públic de Consum|Comarcal|,,,,,customer_service,,Carrer de la Muralla de Sant Domènec,,24,,,8240,Manresa,81136,Bages,+34-936930353,936930353,402009944,4619876445,1.821871900,41.724656500,ocic@ccbages.cat,,04/02/2024 07:01:30 AM,"Horari|Horari d'atenció al públic: de dilluns a dijous de 9 a 14h. Dilluns tarda de 16 a 18.30h|Funcions|- Gestionar les reclamacions per mitjà de la mediació en matèria de consum.<br>- Informar, orientar i assessorar les persones consumidores sobre llurs drets i deures i les formes d'exercir-los.<br>- Rebre i tramitar les queixes, reclamacions i denúncies de les persones consumidores.|Tipus informació|General de consum|Àmbit|Comarcal",POINT (1.8218719 41.724655)
,1841279,Oficina Comarcal d'Informació al Consumidor del Vallès Oriental,Oficina Comarcal d'Informació al Consumidor del Vallès Oriental,Comerç. Consum|Servei públic de Consum|Comarcal|,,,,,customer_service,,Carrer de Miquel Ricomà,,46,,,8401,Granollers,80961,Vallès Oriental,+34-938600700,938600700,440527534,4606278733,2.286274325,41.606003635,consum@vallesoriental.cat,http://www.vallesoriental.cat,04/02/2024 07:01:27 AM,"Horari|Horari d'atenció al públic: de 9 a 14h|Funcions|- Gestionar les reclamacions per mitjà de la mediació en matèria de consum.<br>- Informar, orientar i assessorar les persones consumidores sobre llurs drets i deures i les formes d'exercir-los.<br>- Rebre i tramitar les queixes, reclamacions i denúncies de les persones consumidores.|Tipus informació|General de consum|Àmbit|Comarcal",POINT (2.2862744 41.606003)
,1841337,Oficina Comarcal d'Informació al Consumidor de L'Alt Empordà,Oficina Comarcal d'Informació al Consumidor de L'Alt Empordà,Comerç. Consum|Servei públic de Consum|Comarcal|,,,,,customer_service,,Carrer Nou,,48,,,17600,Figueres,170669,Alt Empordà,+34-972503088,972503088,497005869,4679179980,2.963695779,42.264817975,consum@altemporda.cat,,04/02/2024 07:01:31 AM,"Horari|Horari d'atenció al públic: dilluns, dimecres i dijous de 9 a 14h
|Funcions|- Gestionar les reclamacions per mitjà de la mediació en matèria de consum.<br>- Informar, orientar i assessorar les persones consumidores sobre llurs drets i deures i les formes d'exercir-los.<br>- Rebre i tramitar les queixes, reclamacions i denúncies de les persones consumidores.|Tipus informació|General de consum|Àmbit|Comarcal",POINT (2.9636958 42.264816)
,1841240,Oficina Comarcal d'Informació al Consumidor del Pla de L' Estany,Oficina Comarcal d'Informació al Consumidor del Pla de L' Estany,Comerç. Consum|Servei públic de Consum|Comarcal|,,,,,customer_service,,Carrer de Catalunya,,48,,,17820,Banyoles,170157,Pla de l'Estany,+34-972583258,+34-972575012,481759489,4663437828,2.779326000,42.122832000,consum@plaestany.cat,http://www.plaestany.cat,04/02/2024 07:01:28 AM,"Horari|Horari d'atenció al públic: de dilluns a divendres de 9 a 14h, amb cita prèvia|Funcions|- Gestionar les reclamacions per mitjà de la mediació en matèria de consum.<br>- Informar, orientar i assessorar les persones consumidores sobre llurs drets i deures i les formes d'exercir-los.<br>- Rebre i tramitar les queixes, reclamacions i denúncies de les persones consumidores.|Tipus informació|General de consum|Àmbit|Comarcal",POINT (2.779326 42.122833)
,1841165,Oficina Comarcal d'Informació al Consumidor de L'Alta Ribagorça,Oficina Comarcal d'Informació al Consumidor de L'Alta Ribagorça,Comerç. Consum|Servei públic de Consum|Comarcal|,,,,,customer_service,,Avinguda de Victoriano Muñoz,,48,,,25520,"Pont de Suert, el",251734,Alta Ribagorça,+34-973690353,+34-973690575,314081985,4697967138,0.740520000,42.411750000,consell@ccar.ddl.net,http://www.altaribagorca.cat,04/02/2024 07:01:31 AM,"Horari|Horari d'atenció al públic: de dilluns a divendres de 8 a 15h.
Dimarts de 16 a 18.30h.|Funcions|- Gestionar les denúncies i acomplir les tasques d'inspecció en matèria de consum.<br>- Gestionar les reclamacions per mitjà de la mediació en matèria de consum.<br>- Informar, orientar i assessorar les persones consumidores sobre llurs drets i deures i les formes d'exercir-los.<br>- Rebre i tramitar les queixes, reclamacions i denúncies de les persones consumidores.|Tipus informació|General de consum|Àmbit|Comarcal",POINT (0.74052 42.41175)
,1841339,Oficina Comarcal d'Informació al Consumidor del Berguedà,Oficina Comarcal d'Informació al Consumidor del Berguedà,Comerç. Consum|Servei públic de Consum|Comarcal|,,,,,customer_service,,Carrer de Barcelona,,49,,,8600,Berga,80229,Berguedà,+34-938213553,938213553,404664166,4661431763,1.847061893,42.099184426,gros@ccbergueda.cat,http://www.bergueda.cat,04/02/2024 07:01:31 AM,"Horari|Horari d'atenció al públic: de dilluns a divendres de 8 a 15h.|Funcions|- Gestionar les reclamacions per mitjà de la mediació en matèria de consum.<br>- Informar, orientar i assessorar les persones consumidores sobre llurs drets i deures i les formes d'exercir-los.<br>- Rebre i tramitar les queixes, reclamacions i denúncies de les persones consumidores.|Tipus informació|General de consum|Àmbit|Comarcal",POINT (1.8470619 42.099186)
,1841166,Oficina Comarcal d'Informació al Consumidor del Baix Ebre,Oficina Comarcal d'Informació al Consumidor del Baix Ebre,Comerç. Consum|Servei públic de Consum|Comarcal|,,,,,customer_service,,Carrer de Barcelona,,152,,,43500,Tortosa,431554,Baix Ebre,+34-977445308,+34-977445397,291250130,4518962882,0.525642000,40.795147400,consum@baixebre.cat,http://www.baixebre.org,04/02/2024 07:01:31 AM,"Horari|Horari d'atenció al públic: de dilluns a dijous de 9 a 14h|Funcions|- Gestionar les reclamacions per mitjà de la mediació en matèria de consum.<br>- Informar, orientar i assessorar les persones consumidores sobre llurs drets i deures i les formes d'exercir-los.<br>- Rebre i tramitar les queixes, reclamacions i denúncies de les persones consumidores.|Tipus informació|General de consum|Àmbit|Comarcal",POINT (0.525642 40.795147)
,1841345,Oficina Comarcal d'Informació al Consumidor del Pla d'Urgell,Oficina Comarcal d'Informació al Consumidor del Pla d'Urgell,Comerç. Consum|Servei públic de Consum|Comarcal|,,,,,customer_service,,Carrer de Prat de la Riba,,1 (Ed. Can,,,25230,Mollerussa,251370,Pla d'Urgell,+34-973711313,973711313,324599222,4611025686,0.894240000,41.631684300,sfelip@plaurgell.cat,http://www.plaurgell.cat,04/02/2024 07:01:31 AM,"Horari|Horari d'atenció al públic: de dilluns a divendres de 8 a 15h|Funcions|- Gestionar les reclamacions per mitjà de la mediació en matèria de consum.<br>- Informar, orientar i assessorar les persones consumidores sobre llurs drets i deures i les formes d'exercir-los.<br>- Rebre i tramitar les queixes, reclamacions i denúncies de les persones consumidores.|Tipus informació|General de consum|Àmbit|Comarcal",POINT (0.89424 41.631683)
,1841170,Oficina Comarcal d'Informació al Consumidor de L'Alt Penedès,Oficina Comarcal d'Informació al Consumidor de L'Alt Penedès,Comerç. Consum|Servei públic de Consum|Comarcal|,,,,,customer_service,,Carrer d'Hermenegild Clascar,,1-3,,,8720,Vilafranca del Penedès,83054,Alt Penedès,+34-938900000,938900000,390916789,4577992213,1.696129400,41.346042300,consum@ccapenedes.cat,,04/02/2024 07:01:30 AM,"Horari|Horari d'atenció al públic: de dilluns a divendres de 9 a 14h.
Dijous de 17 a 19h.
Amb cita prèvia.|Funcions|- Gestionar les reclamacions per mitjà de la mediació en matèria de consum.<br>- Informar, orientar i assessorar les persones consumidores sobre llurs drets i deures i les formes d'exercir-los.<br>- Rebre i tramitar les queixes, reclamacions i denúncies de les persones consumidores.|Tipus informació|General de consum|Àmbit|Comarcal",POINT (1.6961294 41.346043)
,1841176,Oficina Comarcal d'Informació al Consumidor del Gironès,Oficina Comarcal d'Informació al Consumidor del Gironès,Comerç. Consum|Servei públic de Consum|Comarcal|,,,,,customer_service,,Carrer de la Riera de Mus,,1-A,,,17003,Girona,170792,Gironès,+34-972213262,+34-972213573,484641266,4645626269,2.814656400,41.962473000,oficinadeconsum@girones.cat,http://www.girones.cat,04/02/2024 07:01:30 AM,"Horari|Horari d'atenció al públic: de dilluns a divendres de 8 a 15h, no cal cita prèvia|Funcions|- Gestionar les reclamacions per mitjà de la mediació en matèria de consum.<br>- Informar, orientar i assessorar les persones consumidores sobre llurs drets i deures i les formes d'exercir-los.<br>- Rebre i tramitar les queixes, reclamacions i denúncies de les persones consumidores.|Tipus informació|General de consum|Àmbit|Comarcal",POINT (2.8146565 41.962475)
,1841318,Oficina Comarcal d'Informació al Consumidor del Moianès,Oficina Comarcal d'Informació al Consumidor del Moianès,Comerç. Consum|Servei públic de Consum|Comarcal|,,,,,customer_service,,Carrer de les Joies,,11-13,,,8180,Moià,81385,Moianès,+34-938208000,938208000,425048283,4629321657,2.097630900,41.812225200,,,04/02/2024 07:01:26 AM,"Horari|Horari d'atenció al públic: dimarts i dijous de 9 a 14h. Dimecres de 16 a 19h|Funcions|- Gestionar les reclamacions per mitjà de la mediació en matèria de consum.<br>- Informar, orientar i assessorar les persones consumidores sobre llurs drets i deures i les formes d'exercir-los.<br>- Rebre i tramitar les queixes, reclamacions i denúncies de les persones consumidores.|Tipus informació|General de consum|Àmbit|Comarcal",POINT (2.097631 41.812225)
,1841338,Oficina Comarcal d'Informació al Consumidor del Baix Empordà,Oficina Comarcal d'Informació al Consumidor del Baix Empordà,Comerç. Consum|Servei públic de Consum|Comarcal|,,,,,customer_service,,Plaça de Joan Carreras i Dagas,,4-5,,,17100,"Bisbal d'Empordà, la",170221,Baix Empordà,+34-972642310,+34-972645575,503247795,4645100560,3.039190400,41.957881000,consum@baixemporda.cat,http://www.baixemporda.cat,04/02/2024 07:01:31 AM,"Horari|Horari d'atenció al públic: dilluns, dimecres i divendres de 9 a 14h.|Funcions|- Gestionar les reclamacions per mitjà de la mediació en matèria de consum.<br>- Informar, orientar i assessorar les persones consumidores sobre llurs drets i deures i les formes d'exercir-los.<br>- Rebre i tramitar les queixes, reclamacions i denúncies de les persones consumidores.|Tipus informació|General de consum|Àmbit|Comarcal",POINT (3.0391903 41.957882)
,1841164,Oficina Comarcal d'Informació al Consumidor del Baix Camp,Oficina Comarcal d'Informació al Consumidor del Baix Camp,Comerç. Consum|Servei públic de Consum|Comarcal|,,,,,customer_service,,Plaça de la Patacada,yes,,0,,43201,Reus,431233,Baix Camp,+34-977327100,977327100,340967503,4557684780,1.104644000,41.154906400,consum@baixcamp.cat,http://www.baixcamp.cat,04/02/2024 07:01:31 AM,"Horari|Horari d'atenció al públic
dilluns de 9 a 12 h.
dimecres i dijous de 9 a 13h.|Funcions|- Gestionar les denúncies i acomplir les tasques d'inspecció en matèria de consum.<br>- Gestionar les reclamacions per mitjà de la mediació en matèria de consum.<br>- Informar, orientar i assessorar les persones consumidores sobre llurs drets i deures i les formes d'exercir-los.<br>- Rebre i tramitar les queixes, reclamacions i denúncies de les persones consumidores.|Tipus informació|General de consum|Àmbit|Comarcal",POINT (1.104644 41.154907)
,1841341,Oficina Comarcal d'Informació al Consumidor del Montsià,Oficina Comarcal d'Informació al Consumidor del Montsià,Comerç. Consum|Servei públic de Consum|Comarcal|,,,,,customer_service,,Plaça de Lluís Companys,yes,,,,43870,Amposta,430141,Montsià,+34-977704371,977704371,295022072,4509235426,0.573499873,40.708545054,consum@montsia.cat,http://www.montsia.cat,04/02/2024 07:01:31 AM,"Horari|Horari d'atenció al públic: dilluns i dimecres de 9 a 14h|Funcions|- Gestionar les reclamacions per mitjà de la mediació en matèria de consum.<br>- Informar, orientar i assessorar les persones consumidores sobre llurs drets i deures i les formes d'exercir-los.<br>- Rebre i tramitar les queixes, reclamacions i denúncies de les persones consumidores.|Tipus informació|General de consum|Àmbit|Comarcal",POINT (0.57349986 40.708546)
,1841169,Oficina Comarcal d'Informació al Consumidor de La Selva,Oficina Comarcal d'Informació al Consumidor de La Selva,Comerç. Consum|Servei públic de Consum|Comarcal|,,,,,customer_service,,Carretera de Sils ,yes,,,,17430,Santa Coloma de Farners,171805,Selva,+34-972842161,972842161,473306543,4633754465,2.678411848,41.855245300,consum@selva.cat,http://www.selva.cat/consum/,04/02/2024 07:01:30 AM,"Horari|Horari d'atenció al públic: dimarts i dijous de 9 a 14h.
|Funcions|- Gestionar les denúncies i acomplir les tasques d'inspecció en matèria de consum.<br>- Gestionar les reclamacions per mitjà de la mediació en matèria de consum.<br>- Informar, orientar i assessorar les persones consumidores sobre llurs drets i deures i les formes d'exercir-los.<br>- Rebre i tramitar les queixes, reclamacions i denúncies de les persones consumidores.|Tipus informació|General de consum|Àmbit|Comarcal",POINT (2.678412 41.855244)
,1841222,Oficina Municipal d'Informació al Consumidor de Sant Cugat del Vallès,Oficina Municipal d'Informació al Consumidor de Sant Cugat del Vallès,Comerç. Consum|Servei públic de Consum|Municipal|,,,,,customer_service,,Plaça de la Vila,,1,,,8172,Sant Cugat del Vallès,82055,Vallès Occidental,+34-935657000,935657000,423618947,4591412719,2.085266160,41.470677976,omic@santcugat.cat,http://www.santcugat.cat,04/02/2024 07:01:29 AM,"Horari|Horari d'atenció al públic: de dilluns a divendres d' 11 a 14h.
|Funcions|- Gestionar les reclamacions per mitjà de la mediació en matèria de consum.<br>- Informar, orientar i assessorar les persones consumidores sobre llurs drets i deures i les formes d'exercir-los.<br>- Rebre i tramitar les queixes, reclamacions i denúncies de les persones consumidores.|Tipus informació|General de consum|Àmbit|Municipal",POINT (2.085266 41.470676)
,3495284,Oficina Municipal d'Informació al Consumidor de Sant Boi de Llobregat,Oficina Municipal d'Informació al Consumidor de Sant Boi de Llobregat,Comerç. Consum|Servei públic de Consum|Municipal|,,,,,customer_service,,Plaça de l'Ajuntament ,,1,,,8830,Sant Boi de Llobregat,82009,Baix Llobregat,+34-936548216,936548216,419963297,4577773615,2.043296016,41.347483162,isaborido@santboi.cat,http://www.santboi.cat,04/02/2024 07:01:26 AM,"Horari|Horari d'atenció al públic: de dilluns a divendres de 10 a 14h|Funcions|- Gestionar les reclamacions per mitjà de la mediació en matèria de consum.<br>- Informar, orientar i assessorar les persones consumidores sobre llurs drets i deures i les formes d'exercir-los.<br>- Rebre i tramitar les queixes, reclamacions i denúncies de les persones consumidores.|Tipus informació|General de consum|Àmbit|Municipal",POINT (2.043296 41.347485)
,1841253,Servei Municipal de Consum de Pineda de Mar,Servei Municipal de Consum de Pineda de Mar,Comerç. Consum|Servei públic de Consum|Municipal|,,,,,customer_service,,Plaça de Catalunya,,1,,,8397,Pineda de Mar,81635,Maresme,+34-937671560,937671560,474134338,4608466790,2.689483752,41.627508174,consum@pinedademar.org,http://www.pinedademar.org,04/02/2024 07:01:27 AM,"Horari|Horari d'atenció al públic: de dilluns a divendres de 8.30 a 14h, amb cita prèvia.|Funcions|- Gestionar les reclamacions per mitjà de la mediació en matèria de consum.<br>- Informar, orientar i assessorar les persones consumidores sobre llurs drets i deures i les formes d'exercir-los.<br>- Rebre i tramitar les queixes, reclamacions i denúncies de les persones consumidores.|Tipus informació|General de consum|Àmbit|Municipal",POINT (2.6894836 41.62751)
,1841317,Oficina Municipal d'Informació al Consumidor d'Abrera,Oficina Municipal d'Informació al Consumidor d'Abrera,Comerç. Consum|Servei públic de Consum|Municipal|,,,,,customer_service,,Plaça de la Constitució,,1,,,8630,Abrera,80018,Baix Llobregat,+34-937700102,937700102,408334554,4596630469,1.901457284,41.516066938,omic@ajuntamentabrera.cat,,04/02/2024 07:01:26 AM,"Horari|Horari d'atenció al públic: dimecres d'11 a 13h i de 16.30 a 18.30h|Funcions|- Gestionar les reclamacions per mitjà de la mediació en matèria de consum.<br>- Informar, orientar i assessorar les persones consumidores sobre llurs drets i deures i les formes d'exercir-los.<br>- Rebre i tramitar les queixes, reclamacions i denúncies de les persones consumidores.|Tipus informació|General de consum|Àmbit|Municipal",POINT (1.9014573 41.516068)
,3495295,Punt Municipal d'Informació de Consum de L'Ajuntament de Manresa,Punt Municipal d'Informació de Consum de L'Ajuntament de Manresa,Comerç. Consum|Servei públic de Consum|Municipal|,,,,,customer_service,,Plaça Major ,,1,,,8241,Manresa,81136,Bages,+34-938782300,938782300,402431929,4619701292,1.826973063,41.723131113,ajt@ajmanresa.cat,http://www.manresa.cat,04/02/2024 07:01:26 AM,"Horari|Horari d'atenció al públic: dimecres de 9 a 12h|Funcions|- Informar, orientar i assessorar les persones consumidores sobre llurs drets i deures i les formes d'exercir-los.|Tipus informació|General de consum|Àmbit|Municipal",POINT (1.8269731 41.72313)
,1841231,Oficina Municipal d'Informació al Consumidor de Tarragona,Oficina Municipal d'Informació al Consumidor de Tarragona,Comerç. Consum|Servei públic de Consum|Municipal|,,,,,customer_service,,Carrer de la Font,,1,,,43003,Tarragona,431482,Tarragonès,+34-977296119,977296119,353434937,4553265819,1.254218100,41.117467600,omic@tarragona.cat,,04/02/2024 07:01:28 AM,"Horari|Horari d'atenció al públic: de dilluns a divendres de 10 a 13h.|Funcions|- Gestionar les reclamacions per mitjà de la mediació en matèria de consum.<br>- Informar, orientar i assessorar les persones consumidores sobre llurs drets i deures i les formes d'exercir-los.<br>- Rebre i tramitar les queixes, reclamacions i denúncies de les persones consumidores.|Tipus informació|General de consum|Àmbit|Municipal",POINT (1.2542181 41.117466)
,1841207,Oficina Municipal d'Informació al Consumidor de Mollet del Vallès,Oficina Municipal d'Informació al Consumidor de Mollet del Vallès,Comerç. Consum|Servei públic de Consum|Municipal|,,,,,customer_service,,Plaça Major (Casa de la Vila),,1,,,8100,Mollet del Vallès,81249,Vallès Oriental,+34-935719500,+34-935719504,434127445,4598518239,2.210325600,41.535606400,omic@molletvalles.cat,http://www.molletvalles.cat,04/02/2024 07:01:29 AM,"Horari|Horari d'atenció al públic: de dilluns a divendres de 10 a 13h.|Funcions|- Gestionar les denúncies i acomplir les tasques d'inspecció en matèria de consum.<br>- Gestionar les reclamacions per mitjà de la mediació en matèria de consum.<br>- Informar, orientar i assessorar les persones consumidores sobre llurs drets i deures i les formes d'exercir-los.<br>- Rebre i tramitar les queixes, reclamacions i denúncies de les persones consumidores.|Tipus informació|General de consum|Àmbit|Municipal",POINT (2.2103257 41.535606)
,1841209,Oficina Municipal d'Informació al Consumidor de Montmeló,Oficina Municipal d'Informació al Consumidor de Montmeló,Comerç. Consum|Servei públic de Consum|Municipal|,,,,,customer_service,,Plaça de la Vila,,1,,,8160,Montmeló,81350,Vallès Oriental,+34-935720000,+34-935720420,437301901,4600257529,2.248196040,41.551526513,omic@montmelo.cat,http://www.montmelo.cat,04/02/2024 07:01:29 AM,"Horari|Horari d'atenció al públic: dimarts de 9 a 12h i de 16 a 19h|Funcions|- Informar, orientar i assessorar les persones consumidores sobre llurs drets i deures i les formes d'exercir-los.<br>- Rebre i tramitar les queixes, reclamacions i denúncies de les persones consumidores.|Tipus informació|General de consum|Àmbit|Municipal",POINT (2.2481961 41.551525)
,1841200,Oficina Municipal d'Informació al Consumidor de La Llagosta,Oficina Municipal d'Informació al Consumidor de La Llagosta,Comerç. Consum|Servei públic de Consum|Municipal|,,,,,customer_service,,Plaça d'Antoni Baqué,,1,,,8120,"Llagosta, la",81056,Vallès Oriental,+34-935603911,+34-935741142,432636013,4595984814,2.192731800,41.512664900,llgt.omic@llagosta.cat,http://www.llagosta.cat,04/02/2024 07:01:29 AM,"Horari|Horari d'atenció al públic: dilluns i dimecres de 9.30 a 13.30h i dijous de 16.30 a 18.30h|Funcions|- Gestionar les reclamacions per mitjà de la mediació en matèria de consum.<br>- Informar, orientar i assessorar les persones consumidores sobre llurs drets i deures i les formes d'exercir-los.<br>- Rebre i tramitar les queixes, reclamacions i denúncies de les persones consumidores.|Tipus informació|General de consum|Àmbit|Municipal",POINT (2.1927319 41.512665)
,1841220,Oficina Municipal d'Informació al Consumidor de Sant Andreu de La Barca,Oficina Municipal d'Informació al Consumidor de Sant Andreu de La Barca,Comerç. Consum|Servei públic de Consum|Municipal|,,,,,customer_service,,Carrer de Barcelona,,1,,,8740,Sant Andreu de la Barca,81960,Baix Llobregat,+34-936356407,+34-936829237,414181343,4589125387,1.972583817,41.449123873,omic@sabarca.cat,,04/02/2024 07:01:29 AM,"Horari|Horari d'atenció al públci: dijous d'11 a 14h i de 16 a 18h. Darrer dimecres de mes de 16 a 18h.|Funcions|- Gestionar les reclamacions per mitjà de la mediació en matèria de consum.<br>- Informar, orientar i assessorar les persones consumidores sobre llurs drets i deures i les formes d'exercir-los.<br>- Rebre i tramitar les queixes, reclamacions i denúncies de les persones consumidores.|Tipus informació|General de consum|Àmbit|Municipal",POINT (1.9725838 41.449123)
,1841223,Oficina Municipal d'Informació al Consumidor de Sant Feliu de Llobregat,Oficina Municipal d'Informació al Consumidor de Sant Feliu de Llobregat,Comerç. Consum|Servei públic de Consum|Municipal|,,,,,customer_service,,Plaça de Lluis Companys (Can Ricart),,1,,,8980,Sant Feliu de Llobregat,82114,Baix Llobregat,+34-936858002,+34-936858010,420177120,4581538323,2.045356100,41.381410900,omic@santfeliu.cat,https://www.santfeliu.cat/go.faces?xmid=23240&caseid=sf:9870,04/02/2024 07:01:28 AM,"Horari|Horari d'atenció al públic: dimarts i dijous de 16 a 20h.
Es pot demanar cita prèvia a tramés del web municipal.
|Funcions|- Gestionar les reclamacions per mitjà de la mediació en matèria de consum.<br>- Informar, orientar i assessorar les persones consumidores sobre llurs drets i deures i les formes d'exercir-los.<br>- Rebre i tramitar les queixes, reclamacions i denúncies de les persones consumidores.|Tipus informació|General de consum|Àmbit|Municipal",POINT (2.045356 41.381413)
,1841214,Oficina Municipal d'Informació al Consumidor de Palau-Solità i Plegamans,Oficina Municipal d'Informació al Consumidor de Palau-Solità i Plegamans,Comerç. Consum|Servei públic de Consum|Municipal|,,,,,customer_service,,Plaça de la Vila,,1,,,8184,Palau-solità i Plegamans,81568,Vallès Occidental,+34-938648056,+34-938649259,431520508,4604314653,2.178415887,41.587592560,omic@palauplegamans.cat,http://www.palauplegamans.cat/files/doc8457/50504-001-v4-formulari-de-consum-ple.pdf,04/02/2024 07:01:29 AM,"Horari|Horari d'atenció al públic: Cal demanar cita prèvia|Funcions|- Gestionar les reclamacions per mitjà de la mediació en matèria de consum.<br>- Informar, orientar i assessorar les persones consumidores sobre llurs drets i deures i les formes d'exercir-los.<br>- Rebre i tramitar les queixes, reclamacions i denúncies de les persones consumidores.|Tipus informació|General de consum|Àmbit|Municipal",POINT (2.1784158 41.587593)
,1841235,Oficina Municipal d'Informació al Consumidor de Valls,Oficina Municipal d'Informació al Consumidor de Valls,Comerç. Consum|Servei públic de Consum|Municipal|,,,,,customer_service,,Plaça del Blat,,1,,,43800,Valls,431613,Alt Camp,+34-977636010,+34-977612872,353260079,4571794982,1.247690608,41.284267298,mestilles@valls.cat,http://www.valls.cat,04/02/2024 07:01:28 AM,"Horari|Horari d'atenció al públic:
De dilluns a divendres de 9 a 14h i dimarts i dijous de 17 a 19.30h.|Funcions|- Gestionar les reclamacions per mitjà de la mediació en matèria de consum.<br>- Informar, orientar i assessorar les persones consumidores sobre llurs drets i deures i les formes d'exercir-los.<br>- Rebre i tramitar les queixes, reclamacions i denúncies de les persones consumidores.|Tipus informació|General de consum|Àmbit|Municipal",POINT (1.2476906 41.284267)
,1841247,Oficina Municipal d'Informació al Consumidor de La Garriga,Oficina Municipal d'Informació al Consumidor de La Garriga,Comerç. Consum|Servei públic de Consum|Municipal|,,,,,customer_service,,Plaça de l'Església,,2,,,8530,"Garriga, la",80885,Vallès Oriental,+34-930006246,930006246,440566039,4615055525,2.285864000,41.685054900,oac@ajlagarriga.cat,http://www.lagarriga.cat,04/02/2024 07:01:28 AM,"Horari|Horari d'atenció al públic: de dilluns a divendres de 9 a 13h|Funcions|- Gestionar les reclamacions per mitjà de la mediació en matèria de consum.<br>- Informar, orientar i assessorar les persones consumidores sobre llurs drets i deures i les formes d'exercir-los.<br>- Rebre i tramitar les queixes, reclamacions i denúncies de les persones consumidores.|Tipus informació|General de consum|Àmbit|Municipal",POINT (2.285864 41.685055)
,1841244,Oficina Municipal d'Informació al Consumidor de Montornès del Vallès,Oficina Municipal d'Informació al Consumidor de Montornès del Vallès,Comerç. Consum|Servei públic de Consum|Municipal|,,,,,customer_service,,Avinguda de la Llibertat,,2,,,8170,Montornès del Vallès,81363,Vallès Oriental,+34-935721170,935721170,438888543,4599566459,2.267290000,41.545425100,omic@montornes.cat,http://www.montornes.cat,04/02/2024 07:01:28 AM,"Horari|Horari d'atenció al públic: dijous de forma alterna cada 15 dies, matí de 9.30 a 14.30, tarda15 a 19h|Funcions|- Gestionar les reclamacions per mitjà de la mediació en matèria de consum.<br>- Informar, orientar i assessorar les persones consumidores sobre llurs drets i deures i les formes d'exercir-los.<br>- Rebre i tramitar les queixes, reclamacions i denúncies de les persones consumidores.|Tipus informació|General de consum|Àmbit|Municipal",POINT (2.26729 41.545425)
,1841236,Oficina Municipal d'Informació al Consumidor de Viladecans,Oficina Municipal d'Informació al Consumidor de Viladecans,Comerç. Consum|Servei públic de Consum|Municipal|,,,,,customer_service,,Carrer d'Àngel Guimerà,,2,,,8840,Viladecans,83015,Baix Llobregat,+34-936351900,936351900,417999845,4574317481,2.020296007,41.316158364,omic@viladecans.cat,http://www.viladecans.cat,04/02/2024 07:01:28 AM,"Horari|Horari d'atenció al públic: de dilluns a divendres de 9 a 14h i dimarts de 16 a 18h.
|Funcions|- Gestionar les denúncies i acomplir les tasques d'inspecció en matèria de consum.<br>- Gestionar les reclamacions per mitjà de la mediació en matèria de consum.<br>- Informar, orientar i assessorar les persones consumidores sobre llurs drets i deures i les formes d'exercir-los.<br>- Iniciar procediments sancionadors de consum.<br>- Rebre i tramitar les queixes, reclamacions i denúncies de les persones consumidores.|Tipus informació|General de consum|Àmbit|Municipal",POINT (2.020296 41.31616)
,1841189,Oficina Municipal d'Informació al Consumidor de Castelldefels,Oficina Municipal d'Informació al Consumidor de Castelldefels,Comerç. Consum|Servei públic de Consum|Municipal|,,,,,customer_service,,Plaça de Joan XXIII ,,2,,,8860,Castelldefels,80569,Baix Llobregat,+34-936651150,936651150,414603303,4570996330,1.980187689,41.285894439,omic@castelldefels.org,http://www.castelldefels.org/omic,04/02/2024 07:01:29 AM,"Horari|Horari d'atenció al públic: 
- dilluns: de 10 a 14h
- dimarts: d'11 a 13h
- dimecres i dijous : de 10 a 14h
Amb cita prèvia|Funcions|- Gestionar les denúncies i acomplir les tasques d'inspecció en matèria de consum.<br>- Gestionar les reclamacions per mitjà de la mediació en matèria de consum.<br>- Informar, orientar i assessorar les persones consumidores sobre llurs drets i deures i les formes d'exercir-los.<br>- Iniciar procediments sancionadors de consum.<br>- Rebre i tramitar les queixes, reclamacions i denúncies de les persones consumidores.|Tipus informació|General de consum|Àmbit|Municipal",POINT (1.9801877 41.285896)
,1841212,Oficina Municipal d'Informació al Consumidor de Premià de Dalt,Oficina Municipal d'Informació al Consumidor de Premià de Dalt,Comerç. Consum|Servei públic de Consum|Municipal|,,,,,customer_service,,Plaça de la Vila ,,2,,,8338,Premià de Dalt,82303,Maresme,+34-936931590,936931590,445094925,4595297147,2.342087547,41.507422240,prmd.ocupacio@premiadedalt.cat,http://www.premiadedalt.cat,04/02/2024 07:01:29 AM,"Horari|Horari d'atenció al públic: dimarts i dimecres alterns de 17 a 20h|Funcions|- Gestionar les reclamacions per mitjà de la mediació en matèria de consum.<br>- Informar, orientar i assessorar les persones consumidores sobre llurs drets i deures i les formes d'exercir-los.<br>- Rebre i tramitar les queixes, reclamacions i denúncies de les persones consumidores.|Tipus informació|General de consum|Àmbit|Municipal",POINT (2.3420875 41.507423)
,1841243,Oficina Municipal d'Informació al Consumidor de Les Franqueses del Vallès,Oficina Municipal d'Informació al Consumidor de Les Franqueses del Vallès,Comerç. Consum|Servei públic de Consum|Municipal|,,,,,customer_service,,Carrer de Ribes,,2,,,8520,"Franqueses del Vallès, les",80863,Vallès Oriental,+34-938467676,938467676,441468219,4609637779,2.297234200,41.636326700,omic@lesfranqueses.cat,http://www.lesfranqueses.cat,04/02/2024 07:01:28 AM,"Horari|Horari d'atenció al públic:
Dimarts i dimecres de 10 a 13h|Funcions|- Informar, orientar i assessorar les persones consumidores sobre llurs drets i deures i les formes d'exercir-los.<br>- Rebre i tramitar les queixes, reclamacions i denúncies de les persones consumidores.|Tipus informació|General de consum|Àmbit|Municipal",POINT (2.2972343 41.636326)
,1841237,Oficina Municipal d'Informació al Consumidor de Vilafranca del Penedès,Oficina Municipal d'Informació al Consumidor de Vilafranca del Penedès,Comerç. Consum|Servei públic de Consum|Municipal|,,,,,customer_service,,Carrer de Santa Maria ,,2,,,8720,Vilafranca del Penedès,83054,Alt Penedès,+34-938920358,938920358,391071701,4578057800,1.697968830,41.346653900,omic@vilafranca.org,https://www.vilafranca.cat/jsp/tramits/detall.jsp?id=2392&idtema=0,04/02/2024 07:01:28 AM,"Horari|Horari d'atenció al públic: de dilluns a divendres de 9 a 14h.|Funcions|- Gestionar les reclamacions per mitjà de la mediació en matèria de consum.<br>- Informar, orientar i assessorar les persones consumidores sobre llurs drets i deures i les formes d'exercir-los.<br>- Rebre i tramitar les queixes, reclamacions i denúncies de les persones consumidores.|Tipus informació|General de consum|Àmbit|Municipal",POINT (1.6979688 41.346653)
,1841211,Oficina Municipal d'Informació al Consumidor de Palamós,Oficina Municipal d'Informació al Consumidor de Palamós,Comerç. Consum|Servei públic de Consum|Municipal|,,,,,customer_service,,Passeig del Mar ,,2,,,17230,Palamós,171181,Baix Empordà,+34-972600500,972600500,510570312,4632875630,3.127330447,41.847709356,omic@palamos.cat,,04/02/2024 07:01:29 AM,"Horari|Horari d'atenció al públic: dilluns de 10 a 14.30h|Funcions|- Gestionar les reclamacions per mitjà de la mediació en matèria de consum.<br>- Informar, orientar i assessorar les persones consumidores sobre llurs drets i deures i les formes d'exercir-los.<br>- Rebre i tramitar les queixes, reclamacions i denúncies de les persones consumidores.|Tipus informació|General de consum|Àmbit|Municipal",POINT (3.1273305 41.84771)
,1841203,Oficina Municipal d'Informació al Consumidor de Lleida,Oficina Municipal d'Informació al Consumidor de Lleida,Comerç. Consum|Servei públic de Consum|Municipal|,,,,,customer_service,,Avinguda de Tortosa,,2,,,25005,Lleida,251207,Segrià,+34-973700424,973700424,303104006,4610176159,0.636660000,41.619023700,omic.lleida@paeria.cat,http://www.paeria.es,04/02/2024 07:01:29 AM,"Horari|Horari d'atenció al públic: de dilluns a divendres de 9 a 14h.|Funcions|- Gestionar les reclamacions per mitjà de la mediació en matèria de consum.<br>- Informar, orientar i assessorar les persones consumidores sobre llurs drets i deures i les formes d'exercir-los.<br>- Rebre i tramitar les queixes, reclamacions i denúncies de les persones consumidores.|Tipus informació|General de consum|Àmbit|Municipal",POINT (0.63666 41.619022)
,1841233,Oficina Municipal d'Informació al Consumidor de Tordera,Oficina Municipal d'Informació al Consumidor de Tordera,Comerç. Consum|Servei públic de Consum|Municipal|,,,,,customer_service,,Plaça de l'Esglèsia,,2,,,8490,Tordera,82845,Maresme,+34-937643717,+34-937643853,476593233,4616703863,2.718679567,41.701776150,tordera@tordera.cat,http://www.tordera.cat,04/02/2024 07:01:28 AM,"Horari|Horari d'atenció al públic: dilluns i dimecres de 10 a 14h.
Dilluns de 16.30 a 18.30h|Funcions|- Informar, orientar i assessorar les persones consumidores sobre llurs drets i deures i les formes d'exercir-los.<br>- Rebre i tramitar les queixes, reclamacions i denúncies de les persones consumidores.|Tipus informació|General de consum|Àmbit|Municipal",POINT (2.7186797 41.701775)
,1841198,Oficina Municipal d'Informació al Consumidor de Granollers,Oficina Municipal d'Informació al Consumidor de Granollers,Comerç. Consum|Servei públic de Consum|Municipal|,,,,,customer_service,,Carrer del Portalet,,4,,,8401,Granollers,80961,Vallès Oriental,+34-938426635,938426635,440635840,4606472970,2.287554756,41.607761109,omic@granollers.cat,http://www.granollers.cat/salut-i-consum/oficina-municipal-dinformacio-al-consumidor,04/02/2024 07:01:29 AM,"Horari|Horari d'atenció al públic: de dilluns a dijous de 9.30 a 14h.
Aquesta oficina funciona únicament amb cita prèvia, que es podrà demanar trucant al telèfon de l'OMIC o bé enviant un correu electrònic a l'adreça omic@ajuntament.granollers.cat
Aquesta OMIC restarà tancada per vacances del 15 de juliol al 15 de'agost, ambdós inclosos|Funcions|- Gestionar les denúncies i acomplir les tasques d'inspecció en matèria de consum.<br>- Gestionar les reclamacions per mitjà de la mediació en matèria de consum.<br>- Informar, orientar i assessorar les persones consumidores sobre llurs drets i deures i les formes d'exercir-los.<br>- Iniciar procediments sancionadors de consum.<br>- Rebre i tramitar les queixes, reclamacions i denúncies de les persones consumidores.|Tipus informació|General de consum|Àmbit|Municipal",POINT (2.2875547 41.60776)
,1841218,Oficina Municipal d'Informació al Consumidor de Salou,Oficina Municipal d'Informació al Consumidor de Salou,Comerç. Consum|Servei públic de Consum|Municipal|,,,,,customer_service,,Passeig Trenta d'Octubre,,4,,,43840,Salou,439057,Tarragonès,+34-977309218,+34-977309220,343368142,4549534834,1.135318802,41.081997396,omic@salou.cat,http://www.salou.cat,04/02/2024 07:01:29 AM,"Horari|Horari d'atenció al públic:
Cal demanar cita prèvia.
|Funcions|- Gestionar les reclamacions per mitjà de la mediació en matèria de consum.<br>- Informar, orientar i assessorar les persones consumidores sobre llurs drets i deures i les formes d'exercir-los.<br>- Rebre i tramitar les queixes, reclamacions i denúncies de les persones consumidores.|Tipus informació|General de consum|Àmbit|Municipal",POINT (1.1353188 41.081997)
,1841230,Oficina Municipal d'Informació al Consumidor de Santa Perpètua de Mogoda,Oficina Municipal d'Informació al Consumidor de Santa Perpètua de Mogoda,Comerç. Consum|Servei públic de Consum|Municipal|,,,,,customer_service,,Plaça de la Vila,,5,,,8130,Santa Perpètua de Mogoda,82606,Vallès Occidental,+34-935743234,935743234,431883527,4598420560,2.183439361,41.534538800,omic@staperpetua.cat,http://www.staperpetua.cat/menu-principal/serveis/ciutadania-i-serveis-a-les-persones/consum,04/02/2024 07:01:28 AM,"Horari|Horari d'atenció al públic: de dilluns a divendres de 9.30 a 13.30h|Funcions|- Gestionar les denúncies i acomplir les tasques d'inspecció en matèria de consum.<br>- Gestionar les reclamacions per mitjà de la mediació en matèria de consum.<br>- Informar, orientar i assessorar les persones consumidores sobre llurs drets i deures i les formes d'exercir-los.<br>- Rebre i tramitar les queixes, reclamacions i denúncies de les persones consumidores.|Tipus informació|General de consum|Àmbit|Municipal",POINT (2.1834393 41.53454)
,1841208,Oficina Municipal d'Informació al Consumidor de Montcada i Reixac,Oficina Municipal d'Informació al Consumidor de Montcada i Reixac,Comerç. Consum|Servei públic de Consum|Municipal|,,,,,customer_service,,Avinguda de la Unitat,,6,,,8110,Montcada i Reixac,81252,Vallès Occidental,+34-678031766,678031766,432152836,4592311579,2.187355774,41.479540928,omic@montcada.org,http://www.montcada.cat,04/02/2024 07:01:29 AM,"Horari|Horari d'atenció al públic: de dilluns a divendres de 9 a 14h|Funcions|- Gestionar les reclamacions per mitjà de la mediació en matèria de consum.<br>- Informar, orientar i assessorar les persones consumidores sobre llurs drets i deures i les formes d'exercir-los.<br>- Rebre i tramitar les queixes, reclamacions i denúncies de les persones consumidores.|Tipus informació|General de consum|Àmbit|Municipal",POINT (2.1873558 41.47954)
,1841221,Servei Municipal de Consum de Sant Celoni,Servei Municipal de Consum de Sant Celoni,Comerç. Consum|Servei públic de Consum|Municipal|,,,,,customer_service,,Plaça de Josep Alfaràs,,6,,,8470,Sant Celoni,82021,Vallès Oriental,+34-938641212,938641212,457959881,4615642641,2.494811020,41.691451548,salut.comunitaria@santceloni.cat,http://www.santceloni.cat,04/02/2024 07:01:29 AM,"Horari|Horari d'atenció al públic: dilluns i divendres de 9 a 14h.
Cal demanar cita prèvia.|Funcions|- Gestionar les reclamacions per mitjà de la mediació en matèria de consum.<br>- Informar, orientar i assessorar les persones consumidores sobre llurs drets i deures i les formes d'exercir-los.<br>- Rebre i tramitar les queixes, reclamacions i denúncies de les persones consumidores.|Tipus informació|General de consum|Àmbit|Municipal",POINT (2.494811 41.691452)
,1841302,Oficina Municipal d'Informació al Consumidor d'Igualada,Oficina Municipal d'Informació al Consumidor d'Igualada,Comerç. Consum|Servei públic de Consum|Municipal|,,,,,customer_service,,Carrer de Sant Martí de Tous,,6,,,8700,Igualada,81022,Anoia,+34-938031950(,938031950(,384794351,4604930445,1.617824636,41.587765883,consum@anoia.cat,http://www.igualada.net,04/02/2024 07:01:27 AM,"Horari|Horari d'atenció al públic: dilluns, dimecres i dijous de 9 a 12h. Divendres de 9 a 11h.
|Funcions|- Gestionar les reclamacions per mitjà de la mediació en matèria de consum.<br>- Informar, orientar i assessorar les persones consumidores sobre llurs drets i deures i les formes d'exercir-los.<br>- Rebre i tramitar les queixes, reclamacions i denúncies de les persones consumidores.|Tipus informació|General de consum|Àmbit|Municipal",POINT (1.6178247 41.587765)
,1841269,Oficina Municipal d'Informació al Consumidor de Canovelles,Oficina Municipal d'Informació al Consumidor de Canovelles,Comerç. Consum|Servei públic de Consum|Municipal|,,,,,customer_service,,Carrer de Gregorio Marañon,,7,,,8420,Canovelles,80410,Vallès Oriental,+34-938463990,938463990,440375772,4608524002,2.284229620,41.626214481,omic@canovelles.cat,http://www.canovelles.cat,04/02/2024 07:01:27 AM,"Horari|- Horari d'atenció presencial: els dijous amb hores concertades.
- Horari de consultes: de dilluns a divendres de 10 a 13h|Funcions|- Gestionar les reclamacions per mitjà de la mediació en matèria de consum.<br>- Informar, orientar i assessorar les persones consumidores sobre llurs drets i deures i les formes d'exercir-los.<br>- Rebre i tramitar les queixes, reclamacions i denúncies de les persones consumidores.|Tipus informació|General de consum|Àmbit|Municipal",POINT (2.2842295 41.626213)
,1841186,Oficina Municipal d'Informació al Consumidor de Caldes de Montbui,Oficina Municipal d'Informació al Consumidor de Caldes de Montbui,Comerç. Consum|Servei públic de Consum|Municipal|,,,,,customer_service,,Carrer de Font i Boet,,7,,,8140,Caldes de Montbui,80333,Vallès Oriental,+34-938654530,938654530,430303940,4609243531,2.163248111,41.631878392,info@omiccaldesdemontbui.cat,http://www.calella.cat/adreces-i-telefons/oficina-municipal-d-informacio-al-consumidor,04/02/2024 07:01:29 AM,"Horari|Horari d'atenció al públic: 
- dimarts i dimecres de 9 a 14h i de 17 a 19h
- dijous de 9 a 14h|Funcions|- Gestionar les reclamacions per mitjà de la mediació en matèria de consum.<br>- Informar, orientar i assessorar les persones consumidores sobre llurs drets i deures i les formes d'exercir-los.<br>- Rebre i tramitar les queixes, reclamacions i denúncies de les persones consumidores.|Tipus informació|General de consum|Àmbit|Municipal",POINT (2.163248 41.631878)
,1841278,Oficina Municipal d'Informació al Consumidor de Manlleu,Oficina Municipal d'Informació al Consumidor de Manlleu,Comerç. Consum|Servei públic de Consum|Municipal|,,,,,customer_service,,Carrer d'Enric Delaris,,7,,,8560,Manlleu,81120,Osona,+34-938510848,+34-938506452,440629149,4650045254,2.283113224,42.000184544,omic@manlleu.cat,http://www.manlleu.cat,04/02/2024 07:01:27 AM,"Horari|Horari d'atenció al públic: dimarts d'11.30 a 13.30h|Funcions|- Gestionar les reclamacions per mitjà de la mediació en matèria de consum.<br>- Informar, orientar i assessorar les persones consumidores sobre llurs drets i deures i les formes d'exercir-los.<br>- Rebre i tramitar les queixes, reclamacions i denúncies de les persones consumidores.|Tipus informació|General de consum|Àmbit|Municipal",POINT (2.2831132 42.000183)
,1841224,Oficina Municipal d'Informació al Consumidor de Sant Joan Despí,Oficina Municipal d'Informació al Consumidor de Sant Joan Despí,Comerç. Consum|Servei públic de Consum|Municipal|,,,,,customer_service,,Carrer de John F. Kennedy,,8,,,8970,Sant Joan Despí,82172,Baix Llobregat,+34-934808050,934808050,422606390,4579971179,2.074605400,41.367533800,omic@sjdespi.net,http://sjdespi.net/wca/la-ciutat-temes/sanitat-i-consum/omic,04/02/2024 07:01:28 AM,"Horari|Horari d'atenció al públic: dimarts i divendres de 10 a 13.30h|Funcions|- Gestionar les denúncies i acomplir les tasques d'inspecció en matèria de consum.<br>- Gestionar les reclamacions per mitjà de la mediació en matèria de consum.<br>- Informar, orientar i assessorar les persones consumidores sobre llurs drets i deures i les formes d'exercir-los.<br>- Iniciar procediments sancionadors de consum.<br>- Rebre i tramitar les queixes, reclamacions i denúncies de les persones consumidores.|Tipus informació|General de consum|Àmbit|Municipal",POINT (2.0746055 41.367535)
,11426202,Oficina Municipal d'Informació al Consumidor de Palafolls,Oficina Municipal d'Informació al Consumidor de Palafolls,Comerç. Consum|Servei públic de Consum|Municipal|,,,,,customer_service,,Plaça Major,,8,,,8389,Palafolls,81555,Maresme,+34-937620043,937620043,479126463,4612847736,2.749260446,41.667114211,plf.omic@palafolls.cat,http://www.palafolls.cat,04/02/2024 07:01:26 AM,"Horari|Horari d'atenció al públic: de 9 a 13h|Funcions|- Gestionar les reclamacions per mitjà de la mediació en matèria de consum.<br>- Informar, orientar i assessorar les persones consumidores sobre llurs drets i deures i les formes d'exercir-los.<br>- Rebre i tramitar les queixes, reclamacions i denúncies de les persones consumidores.|Tipus informació|General de consum|Àmbit|Municipal",POINT (2.7492604 41.667114)
,1841311,Oficina Municipal d'Informació al Consumidor de Sant Esteve Sesrovires,Oficina Municipal d'Informació al Consumidor de Sant Esteve Sesrovires,Comerç. Consum|Servei públic de Consum|Municipal|,,,,,customer_service,,Carrer Major,,8,,,8635,Sant Esteve Sesrovires,82080,Baix Llobregat,+34-937713017,937713017,406041189,4594124052,1.874369070,41.493229096,ses.consum@sesrovires.cat,http://www.sesrovires.cat,04/02/2024 07:01:26 AM,"Horari|Horari d'atenció al públic: de dilluns a divendres de 8.30 a 14h. Dijous de 16.30 a 18.30h
Horari d'estiu: només matí|Funcions|- Informar, orientar i assessorar les persones consumidores sobre llurs drets i deures i les formes d'exercir-los.<br>- Rebre i tramitar les queixes, reclamacions i denúncies de les persones consumidores.|Tipus informació|General de consum|Àmbit|Municipal",POINT (1.874369 41.49323)
,1841280,Oficina Municipal d'Informació al Consumidor d'Esparreguera,Oficina Municipal d'Informació al Consumidor d'Esparreguera,Comerç. Consum|Servei públic de Consum|Municipal|,,,,,customer_service,,Via del Mil·lenari,,8,,,8292,Esparreguera,80765,Baix Llobregat,+34-937771801,+34-937775904,405862057,4599357207,1.871404954,41.540336186,consum@esparreguera.cat,http://www.esparreguera.cat/consum,04/02/2024 07:01:27 AM,"Horari|Horari d'atenció al públci: dilluns i dimecres de 9 a 13h|Funcions|- Gestionar les reclamacions per mitjà de la mediació en matèria de consum.<br>- Informar, orientar i assessorar les persones consumidores sobre llurs drets i deures i les formes d'exercir-los.<br>- Rebre i tramitar les queixes, reclamacions i denúncies de les persones consumidores.|Tipus informació|General de consum|Àmbit|Municipal",POINT (1.871405 41.540337)
,1841238,Oficina Municipal d'Informació al Consumidor de Vilanova i La Geltrú,Oficina Municipal d'Informació al Consumidor de Vilanova i La Geltrú,Comerç. Consum|Servei públic de Consum|Municipal|,,,,,customer_service,,Plaça de la Vila,,10,,,8800,Vilanova i la Geltrú,83073,Garraf,+34-938935555,938935555,393195207,4564406407,1.725739543,41.223999866,omic@vilanova.cat,http://www.vilanova.cat,04/02/2024 07:01:28 AM,"Horari|Horari d'atenció al públic: de dilluns a divendres de 9.30 a 14h.|Funcions|- Gestionar les denúncies i acomplir les tasques d'inspecció en matèria de consum.<br>- Gestionar les reclamacions per mitjà de la mediació en matèria de consum.<br>- Informar, orientar i assessorar les persones consumidores sobre llurs drets i deures i les formes d'exercir-los.<br>- Rebre i tramitar les queixes, reclamacions i denúncies de les persones consumidores.|Tipus informació|General de consum|Àmbit|Municipal",POINT (1.7257396 41.224)
,1841277,Oficina Municipal d'Informació al Consumidor de Castellbisbal,Oficina Municipal d'Informació al Consumidor de Castellbisbal,Comerç. Consum|Servei públic de Consum|Municipal|,,,,,customer_service,,Carrer Major,,11,,,8755,Castellbisbal,80543,Vallès Occidental,+34-937720055,937720055,414878006,4592028526,1.980513494,41.475343972,consum@castellbisbal.cat,http://www.castellbisbal.cat,04/02/2024 07:01:27 AM,"Horari|Horari d'atenció al públic: dijous de 8 a 14.30h|Funcions|- Gestionar les reclamacions per mitjà de la mediació en matèria de consum.<br>- Informar, orientar i assessorar les persones consumidores sobre llurs drets i deures i les formes d'exercir-los.<br>- Rebre i tramitar les queixes, reclamacions i denúncies de les persones consumidores.|Tipus informació|General de consum|Àmbit|Municipal",POINT (1.9805135 41.475346)
,1841219,Oficina Municipal d'Informació al Consumidor de Sant Adrià de Besòs,Oficina Municipal d'Informació al Consumidor de Sant Adrià de Besòs,Comerç. Consum|Servei públic de Consum|Municipal|,,,,,customer_service,,Plaça de la Vila,,12,,,8930,Sant Adrià de Besòs,81944,Barcelonès,+34-933812004,933812004,434661590,4586797449,2.217998568,41.430085262,omic@sant-adria.net,http://www.sant-adria.net,04/02/2024 07:01:29 AM,"Horari|Horari d'atenció al públic: de dilluns a divendres de 9 a 14h.|Funcions|- Gestionar les reclamacions per mitjà de la mediació en matèria de consum.<br>- Informar, orientar i assessorar les persones consumidores sobre llurs drets i deures i les formes d'exercir-los.<br>- Rebre i tramitar les queixes, reclamacions i denúncies de les persones consumidores.|Tipus informació|General de consum|Àmbit|Municipal",POINT (2.2179985 41.430084)
,1841228,Oficina Municipal d'Informació al Consumidor de Sitges,Oficina Municipal d'Informació al Consumidor de Sitges,Comerç. Consum|Servei públic de Consum|Municipal|,,,,,customer_service,,Carrer Nou,,12,,,8870,Sitges,82704,Garraf,+34-938114804,+34-938114824,400350425,4565559489,1.810900200,41.235297400,omic@sitges.cat,http://www.sitges.cat,04/02/2024 07:01:28 AM,"Horari|Horari d'atenció al públic: de dilluns a divendres de 8.30 a 14.30h
|Funcions|- Gestionar les reclamacions per mitjà de la mediació en matèria de consum.<br>- Informar, orientar i assessorar les persones consumidores sobre llurs drets i deures i les formes d'exercir-los.<br>- Rebre i tramitar les queixes, reclamacions i denúncies de les persones consumidores.|Tipus informació|General de consum|Àmbit|Municipal",POINT (1.8109002 41.2353)
,1841192,Oficina Municipal d'Informació al Consumidor de Cubelles,Oficina Municipal d'Informació al Consumidor de Cubelles,Comerç. Consum|Servei públic de Consum|Municipal|,,,,,customer_service,,Passeig de Narcís Bardají,,12,,,8880,Cubelles,80749,Garraf,+34-938951125,+34-938956316,388751891,4562674830,1.673056056,41.207807423,consum@cubelles.org,http://www.cubelles.cat,04/02/2024 07:01:29 AM,"Horari|Horari d'atenció al públic: dilluns, dimecres i divendres de 10 a 13h.|Funcions|- Gestionar les reclamacions per mitjà de la mediació en matèria de consum.<br>- Informar, orientar i assessorar les persones consumidores sobre llurs drets i deures i les formes d'exercir-los.<br>- Rebre i tramitar les queixes, reclamacions i denúncies de les persones consumidores.|Tipus informació|General de consum|Àmbit|Municipal",POINT (1.673056 41.207806)
,1841194,Oficina Municipal d'Informació al Consumidor de El Prat de Llobregat,Oficina Municipal d'Informació al Consumidor de El Prat de Llobregat,Comerç. Consum|Servei públic de Consum|Municipal|,,,,,customer_service,,Carrer Major,,23,0,,8820,"Prat de Llobregat, el",81691,Baix Llobregat,+34-933790050,933790050,424073872,4575599882,2.092696700,41.328303200,omic@elprat.cat,http://www.elprat.cat,04/02/2024 07:01:29 AM,"Horari|Horari d'atenció al públic: 
- Presencial: de 9 a 13.30h
|Funcions|- Gestionar les denúncies i acomplir les tasques d'inspecció en matèria de consum.<br>- Gestionar les reclamacions per mitjà de la mediació en matèria de consum.<br>- Informar, orientar i assessorar les persones consumidores sobre llurs drets i deures i les formes d'exercir-los.<br>- Rebre i tramitar les queixes, reclamacions i denúncies de les persones consumidores.|Tipus informació|General de consum|Àmbit|Municipal",POINT (2.0926967 41.328304)
,1841242,Oficina Municipal d'Informació al Consumidor de Cardedeu,Oficina Municipal d'Informació al Consumidor de Cardedeu,Comerç. Consum|Servei públic de Consum|Municipal|,,,,,customer_service,,Carrer de Josep Vilaseca,,23,,,8440,Cardedeu,80462,Vallès Oriental,+34-938444302,+34-938711477,446140469,4609774059,2.353316031,41.637883384,omic@cardedeu.cat,http://www.cardedeu.cat/temes/desenvolupament-local/consum/,04/02/2024 07:01:28 AM,"Horari|Horari d'atenció al públic: dilluns de 10 a 14h - dijous de 16 a 19h|Funcions|- Gestionar les reclamacions per mitjà de la mediació en matèria de consum.<br>- Informar, orientar i assessorar les persones consumidores sobre llurs drets i deures i les formes d'exercir-los.<br>- Rebre i tramitar les queixes, reclamacions i denúncies de les persones consumidores.|Tipus informació|General de consum|Àmbit|Municipal",POINT (2.353316 41.637882)
,1841249,Oficina Municipal d'Informació al Consumidor de Llinars del Vallès,Oficina Municipal d'Informació al Consumidor de Llinars del Vallès,Comerç. Consum|Servei públic de Consum|Municipal|,,,,,customer_service,,Avinguda de Mas Bagà,,24,,,8450,Llinars del Vallès,81069,Vallès Oriental,+34-938413842,938413842,450454769,4609997449,2.405095929,41.640175144,llorente@llinarsdelvalles.cat,http://www.llinarsdelvalles.cat,04/02/2024 07:01:28 AM,"Horari|Horari d'atenció al públic: de 8 a 14.30h|Funcions|- Gestionar les reclamacions per mitjà de la mediació en matèria de consum.<br>- Informar, orientar i assessorar les persones consumidores sobre llurs drets i deures i les formes d'exercir-los.<br>- Rebre i tramitar les queixes, reclamacions i denúncies de les persones consumidores.|Tipus informació|General de consum|Àmbit|Municipal",POINT (2.4050958 41.640175)
,1841201,Ajuntament de La Roca del Vallès,Ajuntament de La Roca del Vallès,Comerç. Consum|Servei públic de Consum|Municipal|,,,,,customer_service,,Avinguda de Catalunya,,24,,,8430,"Roca del Vallès, la",81810,Vallès Oriental,+34-938422016,+34-938421443,443804818,4604193606,2.325797600,41.587461000,laroca@laroca.cat,http://www.laroca.cat,04/02/2024 07:01:29 AM,"Horari|Horari d'atenció al públic: de dilluns a divendres de 9 a 14h. Dilluns i dijous de 16.30 a 18.30h.|Funcions|- Informar, orientar i assessorar les persones consumidores sobre llurs drets i deures i les formes d'exercir-los.<br>- Rebre i tramitar les queixes, reclamacions i denúncies de les persones consumidores.|Tipus informació|General de consum|Àmbit|Municipal",POINT (2.3257976 41.58746)
,21168002,Oficina Municipal d'Informació al Consumidor de Pallejà,Oficina Municipal d'Informació al Consumidor de Pallejà,Comerç. Consum|Servei públic de Consum|Municipal|,,,,,customer_service,,Avinguda de Prat de la Riba,,27,,,8780,Pallejà,81574,Baix Llobregat,,,416227867,4586061091,1.997505805,41.421742487,adel.palleja@palleja.cat,,04/02/2024 07:01:26 AM,"Horari|Horari d'atenció al públic: dilluns de 10 a 14 h i dimarts de 10 a 14h i de 16 a 19h|Funcions|- Gestionar les reclamacions per mitjà de la mediació en matèria de consum.<br>- Informar, orientar i assessorar les persones consumidores sobre llurs drets i deures i les formes d'exercir-los.<br>- Rebre i tramitar les queixes, reclamacions i denúncies de les persones consumidores.|Tipus informació|General de consum|Àmbit|Municipal",POINT (1.9975058 41.42174)
,21168001,Oficina Municipal d'Informacióal Consumidor de Pallejà,Oficina Municipal d'Informacióal Consumidor de Pallejà,Comerç. Consum|Servei públic de Consum|Municipal|,,,,,customer_service,,Avinguda de Prat de la Riba,,27,,,8780,Pallejà,81574,Baix Llobregat,,,416227867,4586061091,1.997505805,41.421742487,adel.palleja@palleja.cat,,04/02/2024 07:01:26 AM,"Horari|Horari d'atenció al públic: dilluns de 10 a 14h i dimarts de 10 a 14h i de 16 a 19h|Funcions|- Gestionar les reclamacions per mitjà de la mediació en matèria de consum.<br>- Informar, orientar i assessorar les persones consumidores sobre llurs drets i deures i les formes d'exercir-los.<br>- Rebre i tramitar les queixes, reclamacions i denúncies de les persones consumidores.|Tipus informació|General de consum|Àmbit|Municipal",POINT (1.9975058 41.42174)
,1841184,Oficina Municipal d'Informació al Consumidor de Blanes,Oficina Municipal d'Informació al Consumidor de Blanes,Comerç. Consum|Servei públic de Consum|Municipal|,,,,,customer_service,,Passeig de Dintre,,29,,,17300,Blanes,170237,Selva,+34-972379399,+34-972350677,482700144,4613614132,2.792166135,41.674102867,omic@blanes.cat,http://www.blanes.cat,04/02/2024 07:01:29 AM,"Horari|Horari d'atenció al públic: de dilluns a divendres de 9 a 14h, amb cita prèvia|Funcions|- Gestionar les reclamacions per mitjà de la mediació en matèria de consum.<br>- Informar, orientar i assessorar les persones consumidores sobre llurs drets i deures i les formes d'exercir-los.<br>- Rebre i tramitar les queixes, reclamacions i denúncies de les persones consumidores.|Tipus informació|- General de consum
- Altra informació: tràmit de mediació.
- Tasques inspecció: només referent a fulls reclamació i cartells informatius.
- Procediment sancionador: només referent a fulls de reclamació i cartells informatius.|Àmbit|Municipal",POINT (2.7921662 41.674103)
,25839113,Oficina Municipal d'Informació al Consumidor de Malgrat,Oficina Municipal d'Informació al Consumidor de Malgrat,Comerç. Consum|Servei públic de Consum|Municipal|,,,,,customer_service,,Carrer del Carme,,30,,,8380,Malgrat de Mar,81108,Maresme,+34-937653300,937653300,478442606,4610475146,2.741131400,41.645725800,consum@ajmalgrat.cat,http://www.ajmalgrat.cat,04/02/2024 07:01:26 AM,Horari|Horari d'atenció al públic: divendres de 9 a 13h|Funcions|- Gestionar les reclamacions per mitjà de la mediació en matèria de consum.|Tipus informació|General de consum|Àmbit|Municipal,POINT (2.7411313 41.645725)
,1841199,Oficina Municipal d'Informació al Consumidor de L'Hospitalet de Llobregat,Oficina Municipal d'Informació al Consumidor de L'Hospitalet de Llobregat,Comerç. Consum|Servei públic de Consum|Municipal|,,,,,customer_service,,Carrer de la Riera de la Creu,,32,,,8901,"Hospitalet de Llobregat, l'",81017,Barcelonès,+34-934026030,+34-934026031,424772092,4579249359,2.100587100,41.361238000,omic@l-h.cat,http://www.l-h.cat,04/02/2024 07:01:29 AM,"Horari|Horari d'atenció al públic: de dilluns a divendres de 9 a 13.30h i dijous de 16 a 19h, amb visita concertada.|Funcions|- Gestionar les reclamacions per mitjà de la mediació en matèria de consum.<br>- Informar, orientar i assessorar les persones consumidores sobre llurs drets i deures i les formes d'exercir-los.<br>- Rebre i tramitar les queixes, reclamacions i denúncies de les persones consumidores.|Tipus informació|General de consum|Àmbit|Municipal",POINT (2.1005871 41.361237)
,1841316,Oficina Municipal d'Informació al Consumidor de Cambrils,Oficina Municipal d'Informació al Consumidor de Cambrils,Comerç. Consum|Servei públic de Consum|Municipal|,,,,,customer_service,,Carrer de Roger de Llúria,,33,,,43850,Cambrils,430385,Baix Camp,+34-977368217,+34-977794572,337191894,4548018332,1.062231956,41.067131316,omic@cambrils.cat,http://www.cambrils.org,04/02/2024 07:01:26 AM,"Horari|Horari d'atenció al públic: divendres de 9 a 14h (juliol i agost tancat)|Funcions|- Gestionar les reclamacions per mitjà de la mediació en matèria de consum.<br>- Informar, orientar i assessorar les persones consumidores sobre llurs drets i deures i les formes d'exercir-los.<br>- Rebre i tramitar les queixes, reclamacions i denúncies de les persones consumidores.|Tipus informació|General de consum|Àmbit|Municipal",POINT (1.0622319 41.06713)
,1841204,Oficina Municipal d'Informació al Consumidor de Lloret de Mar,Oficina Municipal d'Informació al Consumidor de Lloret de Mar,Comerç. Consum|Servei públic de Consum|Municipal|,,,,,customer_service,,Carrer de Sant Pere,,36,,,17310,Lloret de Mar,170950,Selva,+34-972372184,972372184,487206904,4616548818,2.846245486,41.700621108,omic@lloret.cat,http://www.lloret.cat,04/02/2024 07:01:29 AM,"Horari|Horari d'atenció al públic: de 10 a 14h.
Presencialment només amb cita prèvia

 

|Funcions|- Gestionar les reclamacions per mitjà de la mediació en matèria de consum.<br>- Informar, orientar i assessorar les persones consumidores sobre llurs drets i deures i les formes d'exercir-los.<br>- Rebre i tramitar les queixes, reclamacions i denúncies de les persones consumidores.|Tipus informació|General de consum|Àmbit|Municipal",POINT (2.8462455 41.700623)
,1841213,Servei de Consum de Premià de Mar,Servei de Consum de Premià de Mar,Comerç. Consum|Servei públic de Consum|Municipal|,,,,,customer_service,,Carrer del Nord,,60,,,8330,Premià de Mar,81727,Maresme,+34-937417400,+34-937417425,446432559,4593552983,2.358270176,41.491803319,omic@premiademar.cat,http://www.premiademar.cat,04/02/2024 07:01:29 AM,"Horari|Horari d'atenció al públic: hores concertades|Funcions|- Gestionar les reclamacions per mitjà de la mediació en matèria de consum.<br>- Informar, orientar i assessorar les persones consumidores sobre llurs drets i deures i les formes d'exercir-los.<br>- Rebre i tramitar les queixes, reclamacions i denúncies de les persones consumidores.|Tipus informació|General de consum|Àmbit|Municipal",POINT (2.3582702 41.491802)
,1841205,Oficina Municipal d'Informació al Consumidor de Martorell,Oficina Municipal d'Informació al Consumidor de Martorell,Comerç. Consum|Servei públic de Consum|Municipal|,,,,,customer_service,,Carrer del Mur,,61,,,8760,Martorell,81141,Baix Llobregat,+34-937753752,+34-937741705,410759349,4591923582,1.931208869,41.473951114,omic@martorell.cat,http://www.martorell.cat,04/02/2024 07:01:29 AM,"Horari|Horari d'atenció al públic: dilluns, dimecres i divendres de 9.30 a 13.30 h, amb cita prèvia.|Funcions|- Gestionar les denúncies i acomplir les tasques d'inspecció en matèria de consum.<br>- Gestionar les reclamacions per mitjà de la mediació en matèria de consum.<br>- Informar, orientar i assessorar les persones consumidores sobre llurs drets i deures i les formes d'exercir-los.<br>- Rebre i tramitar les queixes, reclamacions i denúncies de les persones consumidores.|Tipus informació|General de consum|Àmbit|Municipal",POINT (1.9312088 41.47395)
,1841248,Oficina Municipal d'Informació al Consumidor de Lliçà d'Amunt,Oficina Municipal d'Informació al Consumidor de Lliçà d'Amunt,Comerç. Consum|Servei públic de Consum|Municipal|,,,,,customer_service,,Carrer d'Anselm Clavé,,73,,,8186,Lliçà d'Amunt,81075,Vallès Oriental,+34-938415225,+34-938414175,436616639,4606593617,2.239310439,41.608538690,omic@llicamunt.cat,http://www.llicamunt.cat,04/02/2024 07:01:28 AM,"Horari|Horari d'atenció al públic: dilluns de 16 a 18.30h i divendres de 9 a 11h|Funcions|- Gestionar les reclamacions per mitjà de la mediació en matèria de consum.<br>- Informar, orientar i assessorar les persones consumidores sobre llurs drets i deures i les formes d'exercir-los.<br>- Rebre i tramitar les queixes, reclamacions i denúncies de les persones consumidores.|Tipus informació|General de consum|Àmbit|Municipal",POINT (2.2393105 41.60854)
,1841306,Ofideute (Barcelona),Ofideute (Barcelona),Comerç. Consum|Servei públic de Consum|Municipal|,,,,,customer_service,,Carrer de la Diputació,,92,,,8015,Barcelona,80193,Barcelonès,+34-935538829,935538829,429310198,4581384994,2.154589130,41.380884193,ofideute@gencat.cat,,04/02/2024 07:01:26 AM,"Horari|Horari d'atenció al públic: de dilluns a divendres de 9 a 14h|Funcions|- Gestionar les reclamacions per mitjà de la mediació en matèria de consum.<br>- Informar, orientar i assessorar les persones consumidores sobre llurs drets i deures i les formes d'exercir-los.|Tipus informació|General de consum|Àmbit|Municipal",POINT (2.1545892 41.380886)
,1841275,Oficina Municipal d'Informació al Consumidor de Teià,Oficina Municipal d'Informació al Consumidor de Teià,Comerç. Consum|Servei públic de Consum|Municipal|,,,,,customer_service,,Passeig de la Riera,,94,,,8329,Teià,82819,Maresme,+34-935551234,935551234,443355270,4594363361,2.321330948,41.498890670,omic@teia.cat,,04/02/2024 07:01:27 AM,"Horari|Horari d'atenció al públic: dijous de 17 a 20h. Cal cita prèvia|Funcions|- Gestionar les denúncies i acomplir les tasques d'inspecció en matèria de consum.<br>- Gestionar les reclamacions per mitjà de la mediació en matèria de consum.<br>- Informar, orientar i assessorar les persones consumidores sobre llurs drets i deures i les formes d'exercir-los.<br>- Rebre i tramitar les queixes, reclamacions i denúncies de les persones consumidores.|Tipus informació|General de consum|Àmbit|Municipal",POINT (2.321331 41.49889)
,1841232,Servei de Consum i Junta Arbitral de Consum de Terrassa,Servei de Consum i Junta Arbitral de Consum de Terrassa,Comerç. Consum|Servei públic de Consum|Municipal|,,,,,customer_service,,Carretera de Martorell,,95,,,8224,Terrassa,82798,Vallès Occidental,+34-937397429,937397429,416942874,4600970623,2.004006373,41.556093613,consum@terrassa.cat,http://www.terrassa.cat/consum,04/02/2024 07:01:28 AM,"Horari|Horari d'atenció al públic: de dilluns a divendres de 9 a 14h i dimecres de 15.30 a 18.30h|Funcions|- Gestionar les denúncies i acomplir les tasques d'inspecció en matèria de consum.<br>- Gestionar les reclamacions per mitjà de la mediació en matèria de consum.<br>- Informar, orientar i assessorar les persones consumidores sobre llurs drets i deures i les formes d'exercir-los.<br>- Iniciar procediments sancionadors de consum.<br>- Rebre i tramitar les queixes, reclamacions i denúncies de les persones consumidores.|Tipus informació|General de consum|Àmbit|Municipal",POINT (2.0040064 41.556095)
,1841206,Oficina Municipal d'Informació al Consumidor de Mataró,Oficina Municipal d'Informació al Consumidor de Mataró,Comerç. Consum|Servei públic de Consum|Municipal|,,,,,customer_service,,Avinguda de Josep Puig i Cadafalch,,101,,,8303,Mataró,81213,Maresme,+34-937582321,+34-937582320,452345605,4598862717,2.428683569,41.540001390,omic@ajmataro.cat,https://www.mataro.cat/ca/temes/consum,04/02/2024 07:01:29 AM,"Horari|Horari d'atenció al públic: de dilluns a dijous de 9 a 14h|Funcions|- Gestionar les reclamacions per mitjà de la mediació en matèria de consum.<br>- Informar, orientar i assessorar les persones consumidores sobre llurs drets i deures i les formes d'exercir-los.<br>- Rebre i tramitar les queixes, reclamacions i denúncies de les persones consumidores.|Tipus informació|General de consum|Àmbit|Municipal",POINT (2.4286835 41.54)
,1841227,Oficina Municipal d'Informació al Consumidor de Sant Vicenç Dels Horts,Oficina Municipal d'Informació al Consumidor de Sant Vicenç Dels Horts,Comerç. Consum|Servei públic de Consum|Municipal|,,,,,customer_service,,Carrer de Jacint Verdaguer,,105,,,8620,Sant Vicenç dels Horts,82634,Baix Llobregat,+34-900111656,+34-933969833,417082543,4583223968,2.008120905,41.396279324,omic@svh.cat,http://www.svh.cat,04/02/2024 07:01:28 AM,"Horari|Horari d'atenció al públic: de dilluns a divendres de 9.00 a 14.00h.|Funcions|- Gestionar les reclamacions per mitjà de la mediació en matèria de consum.<br>- Informar, orientar i assessorar les persones consumidores sobre llurs drets i deures i les formes d'exercir-los.<br>- Rebre i tramitar les queixes, reclamacions i denúncies de les persones consumidores.|Tipus informació|General de consum|Àmbit|Municipal",POINT (2.008121 41.39628)
,1841226,Servei d'Atenció al Consum de Sant Pere de Ribes,Servei d'Atenció al Consum de Sant Pere de Ribes,Comerç. Consum|Servei públic de Consum|Municipal|,,,,,customer_service,,Carrer Major,,110,,,8810,Sant Pere de Ribes,82310,Garraf,+34-938967300,+34-938967301,396653654,4568392826,1.766317003,41.260349795,consum@santperederibes.cat,http://www.santperederibes.cat,04/02/2024 07:01:28 AM,"Horari|Horari d'atenció al públic:
- Nucli Ribes: de dilluns a divendres de 8.30 a 14h. Dilluns i dimecres de 16 a 19h. Atenció directa tècnica: dimarts de 10 a 14h.
- Nucli les Roquetes: de dilluns a divendres de 8.30 a 14h, dimarts i dijous de 16 a 19h. Atenció directa tècnica: dimecres de 10 a 14h.|Funcions|- Gestionar les reclamacions per mitjà de la mediació en matèria de consum.<br>- Informar, orientar i assessorar les persones consumidores sobre llurs drets i deures i les formes d'exercir-los.<br>- Rebre i tramitar les queixes, reclamacions i denúncies de les persones consumidores.|Tipus informació|General de consum|Àmbit|Municipal",POINT (1.766317 41.26035)
,1841217,Oficina Municipal d'Informació al Consumidor de Sabadell,Oficina Municipal d'Informació al Consumidor de Sabadell,Comerç. Consum|Servei públic de Consum|Municipal|,,,,,customer_service,,Carrer Tres Creus,,202,,,8202,Sabadell,81878,Vallès Occidental,+34-937453168,937453168,426340566,4599759032,2.116835238,41.546102520,omic@ajsabadell.cat,http://www.sabadell.cat/consum,04/02/2024 07:01:29 AM,"Horari|Horari d'atenció al públic: de 9 a 14h. |Funcions|- Gestionar les denúncies i acomplir les tasques d'inspecció en matèria de consum.<br>- Gestionar les reclamacions per mitjà de la mediació en matèria de consum.<br>- Informar, orientar i assessorar les persones consumidores sobre llurs drets i deures i les formes d'exercir-los.<br>- Iniciar procediments sancionadors de consum.<br>- Rebre i tramitar les queixes, reclamacions i denúncies de les persones consumidores.|Tipus informació|General de consum|Àmbit|Municipal",POINT (2.1168354 41.5461)
,1841182,Oficina Municipal d'Informació al Consumidor de Barberà del Vallès,Oficina Municipal d'Informació al Consumidor de Barberà del Vallès,Comerç. Consum|Servei públic de Consum|Municipal|,,,,,customer_service,,Passeig del Doctor Moragas,,224,,,8210,Barberà del Vallès,82520,Vallès Occidental,+34-937297171,937297171,426940780,4596351494,2.124444828,41.515468077,omic@bdv.cat,http://www.bdv.cat,04/02/2024 07:01:29 AM,"Horari|Horari d'atenció al públic: de dilluns a divendres d'11 a 12h
|Funcions|- Gestionar les reclamacions per mitjà de la mediació en matèria de consum.<br>- Informar, orientar i assessorar les persones consumidores sobre llurs drets i deures i les formes d'exercir-los.<br>- Rebre i tramitar les queixes, reclamacions i denúncies de les persones consumidores.|Tipus informació|- General de consum
- Altra: procediments que no són de consum (orientació jurídica).|Àmbit|Municipal",POINT (2.1244447 41.51547)
,1841288,Oficina Municipal d'Informació al Consumidor de Vallirana,Oficina Municipal d'Informació al Consumidor de Vallirana,Comerç. Consum|Servei públic de Consum|Municipal|,,,,,customer_service,,Carrer Major,,329,,,8759,Vallirana,82956,Baix Llobregat,+34-936832262,936832262,410673434,4582375896,1.931590970,41.387955171,consum@vallirana.cat,http://www.vallirana.cat/ca/consum,04/02/2024 07:01:27 AM,"Horari|Horari d'atenció al públic: dimarts de 9.30 a 14.30h i dijous de 9.30 a 14.30h i de 16.30 a 18.30h.
Cal demanar cita prèvia.|Funcions|- Gestionar les reclamacions per mitjà de la mediació en matèria de consum.<br>- Informar, orientar i assessorar les persones consumidores sobre llurs drets i deures i les formes d'exercir-los.<br>- Rebre i tramitar les queixes, reclamacions i denúncies de les persones consumidores.|Tipus informació|General de consum|Àmbit|Municipal",POINT (1.9315909 41.387955)
,1841185,Oficina Municipal d'Informació al Consumidor de Calella,Oficina Municipal d'Informació al Consumidor de Calella,Comerç. Consum|Servei públic de Consum|Municipal|,,,,,customer_service,,Carrer de Sant Jaume (Fàbrica Llobet),,339,,,8370,Calella,80351,Maresme,+34-937665164,937665164,471744902,4607431317,2.660848000,41.618100500,aj035.consum@calella.cat,http://www.calella.cat/adreces-i-telefons/oficina-municipal-d-informacio-al-consumidor,04/02/2024 07:01:29 AM,"Horari|Horari d'atenció al públic: dimecres de 10 a 14h. Cal cita prèvia|Funcions|- Gestionar les denúncies i acomplir les tasques d'inspecció en matèria de consum.<br>- Gestionar les reclamacions per mitjà de la mediació en matèria de consum.<br>- Informar, orientar i assessorar les persones consumidores sobre llurs drets i deures i les formes d'exercir-los.<br>- Rebre i tramitar les queixes, reclamacions i denúncies de les persones consumidores.|Tipus informació|General de consum|Àmbit|Municipal",POINT (2.660848 41.6181)
,1841216,Oficina Municipal d'Informació al Consumidor de Rubí,Oficina Municipal d'Informació al Consumidor de Rubí,Comerç. Consum|Servei públic de Consum|Municipal|,,,,,customer_service,,Carrer de Narcís Menard,,13-17,,,8191,Rubí,81846,Vallès Occidental,+34-935887032,935887032,419111915,4593983415,2.030952600,41.493388300,omic@ajrubi.cat,http://www.rubi.cat,04/02/2024 07:01:29 AM,"Horari|Horari d'atenció al públic: de dilluns a dijous de 9 a 14h i dimecres de 16 a 18.30h.|Funcions|- Gestionar les reclamacions per mitjà de la mediació en matèria de consum.<br>- Informar, orientar i assessorar les persones consumidores sobre llurs drets i deures i les formes d'exercir-los.<br>- Rebre i tramitar les queixes, reclamacions i denúncies de les persones consumidores.|Tipus informació|General de consum|Àmbit|Municipal",POINT (2.0309527 41.49339)
,2763040,Oficina Municipal d'Informació al Consumidor de Cervelló,Oficina Municipal d'Informació al Consumidor de Cervelló,Comerç. Consum|Servei públic de Consum|Municipal|,,,,,customer_service,,Carrer Major,,146-148,,,8758,Cervelló,80689,Baix Llobregat,+34-936600070,936600070,412968594,4583263906,1.958910700,41.396204300,crvl.omic@cervello.cat,,04/02/2024 07:01:26 AM,"Horari|Horari d'atenció al públic: dilluns, dimarts, dimecres i divendres de 10 a 12h, i dijous de 17 a 19h|Funcions|- Gestionar les reclamacions per mitjà de la mediació en matèria de consum.<br>- Informar, orientar i assessorar les persones consumidores sobre llurs drets i deures i les formes d'exercir-los.<br>- Rebre i tramitar les queixes, reclamacions i denúncies de les persones consumidores.|Tipus informació|General de consum|Àmbit|Municipal",POINT (1.9589107 41.396206)
,1841274,Servei de Comerç i Atenció al Consumidor (Scac) de Parets del Vallès,Servei de Comerç i Atenció al Consumidor (Scac) de Parets del Vallès,Comerç. Consum|Servei públic de Consum|Municipal|,,,,,customer_service,,Carrer Major,,2-4,,,8150,Parets del Vallès,81593,Vallès Oriental,+34-935738888,+34-935738889,436122032,4602663106,2.233793700,41.573099100,consum@parets.cat,http://www.parets.cat,04/02/2024 07:01:27 AM,"Horari|Horari d'atenció al públic: de dilluns a divendres de 9 a 14h, hores concertades.|Funcions|- Gestionar les reclamacions per mitjà de la mediació en matèria de consum.<br>- Informar, orientar i assessorar les persones consumidores sobre llurs drets i deures i les formes d'exercir-los.<br>- Rebre i tramitar les queixes, reclamacions i denúncies de les persones consumidores.|Tipus informació|General de consum|Àmbit|Municipal",POINT (2.2337937 41.573097)
,1841197,Oficina Municipal d'Informació al Consumidor de Girona,Oficina Municipal d'Informació al Consumidor de Girona,Comerç. Consum|Servei públic de Consum|Municipal|,,,,,customer_service,,Carrer dels Ciutadans,,2-4,,,17004,Girona,170792,Gironès,+34-972419025,+34-972010233,485493831,4647937085,2.824887800,41.983301900,omic@ajgirona.cat,http://www2.girona.cat/ca/omic,04/02/2024 07:01:29 AM,"Horari|Horari d'atenció al públic: de dilluns a divendres de 9 a 13h, amb cita prèvia|Funcions|- Gestionar les reclamacions per mitjà de la mediació en matèria de consum.<br>- Informar, orientar i assessorar les persones consumidores sobre llurs drets i deures i les formes d'exercir-los.<br>- Rebre i tramitar les queixes, reclamacions i denúncies de les persones consumidores.|Tipus informació|General de consum|Àmbit|Municipal",POINT (2.8248878 41.983303)
,25611819,Oficina Municipal d'Informació al Consumidor de Sant Andreu de Llavaneres (3 Viles),Oficina Municipal d'Informació al Consumidor de Sant Andreu de Llavaneres (3 Viles),Comerç. Consum|Servei públic de Consum|Municipal|,,,,,customer_service,,Passeig de la Mare de Déu de Montserrat,,27-33,,,8392,Sant Andreu de Llavaneres,81976,Maresme,+34-937023645,937023645,457003097,4602612897,2.484250300,41.574043100,promocio@ajllavaneres.cat,http://www.ajllavaneres.cat,04/02/2024 07:01:26 AM,"Horari|Horari d'atenció al públic: de dilluns a divendres de 9 a 14h|Funcions|- Gestionar les denúncies i acomplir les tasques d'inspecció en matèria de consum.<br>- Gestionar les reclamacions per mitjà de la mediació en matèria de consum.<br>- Informar, orientar i assessorar les persones consumidores sobre llurs drets i deures i les formes d'exercir-los.<br>- Iniciar procediments sancionadors de consum.<br>- Rebre i tramitar les queixes, reclamacions i denúncies de les persones consumidores.|Tipus informació|General de consum|Àmbit|Municipal",POINT (2.4842503 41.574043)
,1841234,Oficina Municipal d'Informació al Consumidor de Molins de Rei,Oficina Municipal d'Informació al Consumidor de Molins de Rei,Comerç. Consum|Servei públic de Consum|Municipal|,,,,,customer_service,,Plaça del Mercat ,,5-6,,,8750,Molins de Rei,81234,Baix Llobregat,+34-936800370,936800370,417922667,4584973602,2.017932000,41.412123200,consum@molinsderei.cat,http://www.molinsderei.cat,04/02/2024 07:01:28 AM,"Horari|Horari d'atenció al públic: de dilluns a divendres de 9 a 13h.|Funcions|- Gestionar les reclamacions per mitjà de la mediació en matèria de consum.<br>- Informar, orientar i assessorar les persones consumidores sobre llurs drets i deures i les formes d'exercir-los.<br>- Rebre i tramitar les queixes, reclamacions i denúncies de les persones consumidores.|Tipus informació|General de consum|Àmbit|Municipal",POINT (2.017932 41.412125)
,21867359,Oficina Municipal d'Informació al Consumidor de Sant Celoni,Oficina Municipal d'Informació al Consumidor de Sant Celoni,Comerç. Consum|Servei públic de Consum|Municipal|,,,,,customer_service,,Carrer del Grup Escolar,,6 -Edifici El Puigdollers,6,,8470,Sant Celoni,82021,Vallès Oriental,+34-938641212,938641212,0,0,0.000000000,0.000000000,omicsantceloni@santceloni.cat,,04/02/2024 07:01:26 AM,"Horari|Horari d'atenció al públic: dimarts de 9 a 14h|Funcions|- Gestionar les reclamacions per mitjà de la mediació en matèria de consum.<br>- Informar, orientar i assessorar les persones consumidores sobre llurs drets i deures i les formes d'exercir-los.|Tipus informació|General de consum|Àmbit|Municipal",
,1841181,Oficina Municipal d'Informació al Consumidor de Badalona,Oficina Municipal d'Informació al Consumidor de Badalona,Comerç. Consum|Servei públic de Consum|Municipal|,,,,,customer_service,,Plaça de l'Assemblea de Catalunya,,9-12,,,8911,Badalona,80155,Barcelonès,+34-934832744,+34-934832949,437283722,4589275675,2.249121600,41.452615100,omic@badalona.cat,http://www.badalona.cat,04/02/2024 07:01:30 AM,"Horari|Horari d' atenció al públic: de dilluns a divendres de 9 a 13h.|Funcions|- Gestionar les reclamacions per mitjà de la mediació en matèria de consum.<br>- Informar, orientar i assessorar les persones consumidores sobre llurs drets i deures i les formes d'exercir-los.<br>- Rebre i tramitar les queixes, reclamacions i denúncies de les persones consumidores.|Tipus informació|General de consum|Àmbit|Municipal",POINT (2.2491217 41.452614)
,1841196,Oficina Municipal d'Informació al Consumidor de Gavà,Oficina Municipal d'Informació al Consumidor de Gavà,Comerç. Consum|Servei públic de Consum|Municipal|,,,,,customer_service,,Plaça de Jaume Balmes,yes,,,,8850,Gavà,80898,Baix Llobregat,+34-932639100,932639100,416218420,4572983141,1.999199173,41.303957688,omic@gava.cat,http://www.gavaciutat.cat/consum/omic,04/02/2024 07:01:29 AM,"Horari|Horari d'atenció al públic: dimarts i dijous de 9 a 13h.|Funcions|- Gestionar les denúncies i acomplir les tasques d'inspecció en matèria de consum.<br>- Gestionar les reclamacions per mitjà de la mediació en matèria de consum.<br>- Informar, orientar i assessorar les persones consumidores sobre llurs drets i deures i les formes d'exercir-los.<br>- Iniciar procediments sancionadors de consum.<br>- Rebre i tramitar les queixes, reclamacions i denúncies de les persones consumidores.|Tipus informació|General de consum|Àmbit|Municipal",POINT (1.9991992 41.30396)
,1841191,Oficina Municipal d'Informació al Consumidor de Cornellà de Llobregat,Oficina Municipal d'Informació al Consumidor de Cornellà de Llobregat,Comerç. Consum|Servei públic de Consum|Municipal|,,,,,customer_service,,Plaça de Lluís Companys,yes,,,,8940,Cornellà de Llobregat,80734,Baix Llobregat,+34-933765151,933765151,422289261,4578332979,2.071023822,41.352748821,omic@aj-cornella.cat,http://www.cornella.cat,04/02/2024 07:01:29 AM,"Horari|Horari d'atenció al públic: de dilluns a dijous de 10 a 13h|Funcions|- Gestionar les denúncies i acomplir les tasques d'inspecció en matèria de consum.<br>- Gestionar les reclamacions per mitjà de la mediació en matèria de consum.<br>- Informar, orientar i assessorar les persones consumidores sobre llurs drets i deures i les formes d'exercir-los.<br>- Iniciar procediments sancionadors de consum.<br>- Rebre i tramitar les queixes, reclamacions i denúncies de les persones consumidores.|Tipus informació|General de consum|Àmbit|Municipal",POINT (2.071024 41.35275)
,1841229,Oficina Municipal d'Informació al Consumidor de Santa Coloma de Gramenet,Oficina Municipal d'Informació al Consumidor de Santa Coloma de Gramenet,Comerç. Consum|Servei públic de Consum|Municipal|,,,,,customer_service,,Plaça de Vilaseca,yes,,,,8921,Santa Coloma de Gramenet,82457,Barcelonès,+34-934624000,934624000,434308300,4589180080,2.213511539,41.451516082,omic@gramenet.cat,http://www.gramenet.cat,04/02/2024 07:01:28 AM,"Horari|Horari d'atenció al públic: de dilluns a divendres de 9 a 13h|Funcions|- Gestionar les reclamacions per mitjà de la mediació en matèria de consum.<br>- Informar, orientar i assessorar les persones consumidores sobre llurs drets i deures i les formes d'exercir-los.<br>- Rebre i tramitar les queixes, reclamacions i denúncies de les persones consumidores.|Tipus informació|General de consum|Àmbit|Municipal",POINT (2.2135115 41.451515)
,1841245,Oficina Municipal d'Informació al Consumidor de Montgat,Oficina Municipal d'Informació al Consumidor de Montgat,Comerç. Consum|Servei públic de Consum|Municipal|,,,,,customer_service,,Carrer de Sant Antoni Ma. Claret,yes,,,,8390,Montgat,81265,Maresme,+34-934690737,934690737,438847308,4590854290,2.267680400,41.466954000,consummontgat@montgat.cat,http://www.montgat.cat,04/02/2024 07:01:28 AM,"Horari|Horari d'atenció al públic: de dilluns a divendres de 9 a 14h.|Funcions|- Gestionar les reclamacions per mitjà de la mediació en matèria de consum.<br>- Informar, orientar i assessorar les persones consumidores sobre llurs drets i deures i les formes d'exercir-los.<br>- Rebre i tramitar les queixes, reclamacions i denúncies de les persones consumidores.|Tipus informació|General de consum|Àmbit|Municipal",POINT (2.2676804 41.466953)
,1841225,Oficina Municipal d'Informació al Consumidor de Sant Just Desvern,Oficina Municipal d'Informació al Consumidor de Sant Just Desvern,Comerç. Consum|Servei públic de Consum|Municipal|,,,,,customer_service,,Carrer de Can Padroseta,yes,,,,8960,Sant Just Desvern,82212,Baix Llobregat,+34-934804800,+34-934804879,0,0,0.000000000,0.000000000,aj221.omic@santjust.cat,http://www.santjust.cat,04/02/2024 07:01:28 AM,"Horari|Horari d'atenció al públic: de dilluns a divendres de 9 a 14h.|Funcions|- Gestionar les reclamacions per mitjà de la mediació en matèria de consum.<br>- Informar, orientar i assessorar les persones consumidores sobre llurs drets i deures i les formes d'exercir-los.<br>- Rebre i tramitar les queixes, reclamacions i denúncies de les persones consumidores.|Tipus informació|General de consum|Àmbit|Municipal",
,1841250,Oficina Municipal d'Informació al Consumidor de Sant Fost de Campsentelles,Oficina Municipal d'Informació al Consumidor de Sant Fost de Campsentelles,Comerç. Consum|Servei públic de Consum|Municipal|,,,,,customer_service,,Plaça de la Vila,yes,,,,8105,Sant Fost de Campsentelles,82093,Vallès Oriental,+34-935796980,+34-935796982,435964369,4596628933,2.232545685,41.518739270,omic@santfost.cat,http://www.santfost.cat,04/02/2024 07:01:28 AM,"Horari|Horari d'atenció al públic: de dilluns a divendres de 10.30 a 13.30h i dimarts de 14.30 a 18h.
Cal cita prèvia.|Funcions|- Gestionar les reclamacions per mitjà de la mediació en matèria de consum.<br>- Informar, orientar i assessorar les persones consumidores sobre llurs drets i deures i les formes d'exercir-los.<br>- Rebre i tramitar les queixes, reclamacions i denúncies de les persones consumidores.|Tipus informació|General de consum|Àmbit|Municipal",POINT (2.2325456 41.518738)
,1841190,Oficina Municipal d'Informació al Consumidor de Cerdanyola del Vallès,Oficina Municipal d'Informació al Consumidor de Cerdanyola del Vallès,Comerç. Consum|Servei públic de Consum|Municipal|,,,,,customer_service,,Carrer de Francesc Layret,yes,,,,8290,Cerdanyola del Vallès,82665,Vallès Occidental,+34-935808888,+34-935801620,428342862,4593726977,2.141558075,41.491957222,omic@cerdanyola.cat,http://www.cerdanyola.cat,04/02/2024 07:01:29 AM,"Horari|Horari d'atenció al públic: de dilluns a divendres de 9 a 14h.
Per demanar atenció presencial cal demanar cita prèvia.|Funcions|- Gestionar les reclamacions per mitjà de la mediació en matèria de consum.<br>- Informar, orientar i assessorar les persones consumidores sobre llurs drets i deures i les formes d'exercir-los.<br>- Rebre i tramitar les queixes, reclamacions i denúncies de les persones consumidores.|Tipus informació|General de consum|Àmbit|Municipal",POINT (2.1415582 41.49196)
,1841188,Oficina Municipal d'Informació al Consumidor de Castellar del Vallès,Oficina Municipal d'Informació al Consumidor de Castellar del Vallès,Comerç. Consum|Servei públic de Consum|Municipal|,,,,,customer_service,,Plaça del Mirador,yes,,,,8211,Castellar del Vallès,80517,Vallès Occidental,+34-937144040,+34-937144093,423926225,4607590812,2.086898000,41.616411000,omic@castellarvalles.cat,http://www.castellarvalles.cat,04/02/2024 07:01:29 AM,"Horari|Horari d'atenció al públic: visites concertades|Funcions|- Gestionar les reclamacions per mitjà de la mediació en matèria de consum.<br>- Informar, orientar i assessorar les persones consumidores sobre llurs drets i deures i les formes d'exercir-los.<br>- Rebre i tramitar les queixes, reclamacions i denúncies de les persones consumidores.|Tipus informació|General de consum|Àmbit|Municipal",POINT (2.086898 41.61641)
,1841276,Oficina Municipal d'Informació al Consumidor de Badia del Vallès,Oficina Municipal d'Informació al Consumidor de Badia del Vallès,Comerç. Consum|Servei públic de Consum|Municipal|,,,,,customer_service,,Avinguda de Burgos,yes,,,,8214,Badia del Vallès,89045,Vallès Occidental,+34-937182216,+34-937191230,426146133,4595595285,2.115015489,41.508584497,omic@badiadelvalles.net,,04/02/2024 07:01:27 AM,"Horari|Horari d'atenció al públic: dimarts de 10 a 14h i de 15 a 19h.
Per temes urgents: el mateix dia|Funcions|- Gestionar les reclamacions per mitjà de la mediació en matèria de consum.<br>- Informar, orientar i assessorar les persones consumidores sobre llurs drets i deures i les formes d'exercir-los.<br>- Rebre i tramitar les queixes, reclamacions i denúncies de les persones consumidores.|Tipus informació|General de consum|Àmbit|Municipal",POINT (2.1150155 41.508583)
,1841210,Oficina Municipal d'Informació al Consumidor d'Olesa de Montserrat,Oficina Municipal d'Informació al Consumidor d'Olesa de Montserrat,Comerç. Consum|Servei públic de Consum|Municipal|,,,,,customer_service,,Plaça de Fèlix Figueras i Aragay,yes,,,,8640,Olesa de Montserrat,81477,Baix Llobregat,+34-937780050,+34-937780752,407603757,4599794097,1.892214800,41.544473700,consum@olesademontserrat.cat,https://bpm.olesademontserrat.cat/OAC/CdS.html?tramit=96,04/02/2024 07:01:29 AM,"Horari|Horari d'atenció al públic: dijous de 16 a 20h, amb cita prèvia|Funcions|- Gestionar les reclamacions per mitjà de la mediació en matèria de consum.<br>- Informar, orientar i assessorar les persones consumidores sobre llurs drets i deures i les formes d'exercir-los.<br>- Rebre i tramitar les queixes, reclamacions i denúncies de les persones consumidores.|Tipus informació|General de consum|Àmbit|Municipal",POINT (1.8922148 41.544476)
,1841252,Oficina Municipal d'Informació al Consumidor de Sant Quirze del Vallès,Oficina Municipal d'Informació al Consumidor de Sant Quirze del Vallès,Comerç. Consum|Servei públic de Consum|Municipal|,,,,,customer_service,,Passatge de Salvador Dalí ,yes,,,,8192,Sant Quirze del Vallès,82384,Vallès Occidental,+34-937216800,937216800,422956604,4598418325,2.076438857,41.533709074,consum@santquirzevalles.cat,https://seu.santquirzevalles.cat/DetallTramits/_XiOTuxJ_odM-lY5g4Yif7fY1DzO8y2UW-T-L7jS2V_8,04/02/2024 07:01:28 AM,"Horari|Horari d'atenció al públic: de dilluns a divendres de 9 a 14h.|Funcions|- Gestionar les reclamacions per mitjà de la mediació en matèria de consum.<br>- Informar, orientar i assessorar les persones consumidores sobre llurs drets i deures i les formes d'exercir-los.<br>- Rebre i tramitar les queixes, reclamacions i denúncies de les persones consumidores.|Tipus informació|General de consum|Àmbit|Municipal",POINT (2.076439 41.53371)
