"z_NO_OSM","zref","name","name:ca","zCATEGORIA","amenity","community_centre:for","admin_level","government","office","chamber","addr:street","nohousenumber","addr:housenumber","addr:floor","addr:door","addr:postcode","zPOBLACIO","zCODI_MUNICIPI","zCOMARCA","phone","fax","zUTMX","zUTMY","lon","lat","email","website","ZDATA_MODIFICACIO","ZPROPIETATS","ZGeoreferència"
,27041814,"Arxiu Perejaume","Arxiu Perejaume","Cultura|Arxius||","archive",,,,,,"Carrer de Santa Victòria",,1,,,"08395","Sant Pol de Mar",82359,"Maresme","+34-646490129","646490129",415897880,4539238500,"2.000000184","40.999999198","arxiuperejaume@gmail.com","https://arxiu.perejaume.cat/","07/10/2024 07:28:41 AM","Titularitat|Privat: entitats, associacions, fundacions","POINT (2.0000002 41)"
,27044461,"Arxiu Central dels Jutjats del Prat de Llobregat","Arxiu Central dels Jutjats del Prat de Llobregat","Cultura|Arxius||","archive",,,,,,"Plaça de l'Amistat",,1,,,"08820","Prat de Llobregat, el",81691,"Baix Llobregat","+34-675782990","675782990",423440000,4574223500,"2.085296344","41.315846749","arxiu.elprat@xij.gencat.cat",,"07/10/2024 07:21:30 AM","Titularitat|Generalitat de Catalunya: Administració de Justícia","POINT (2.0852964 41.315845)"
,27043048,"Arxiu Municipal de Sils","Arxiu Municipal de Sils","Cultura|Arxius||","archive",,,,,,"Avinguda de la Costa Brava",,1,,,17410,"Sils",171931,"Selva","+34-676705797","676705797",478795800,4628540500,"2.744729346","41.808450062","arxiu@sils.cat","http://www.sils.cat/","07/10/2024 07:31:41 AM","Titularitat|Administració local: municipal","POINT (2.7447293 41.80845)"
,27044144,"Arxiu Central Administratiu de la Delegació Territorial del Govern de la Generalitat a Girona","Arxiu Central Administratiu de la Delegació Territorial del Govern de la Generalitat a Girona","Cultura|Arxius||","archive",,,,,,"Plaça de Pompeu Fabra",,1,,,17002,"Girona",170792,"Gironès","+34-872975000","872975000",485268700,4647688500,"2.822176360","41.981058807","arxiu.generalitatgirona@gencat.cat",,"07/10/2024 07:22:26 AM","Titularitat|Generalitat de Catalunya: administratiu territorial","POINT (2.8221765 41.98106)"
,27041548,"Arxiu Històric de la Ciutat de Barcelona ","Arxiu Històric de la Ciutat de Barcelona ","Cultura|Arxius||","archive",,,,,,"Carrer de Santa Llúcia",,1,,,"08002","Barcelona",80193,"Barcelonès","+34-932562255","932562255",431083280,4581720000,"2.175753975","41.384055321","arxiuhistoric@bcn.cat","https://ajuntament.barcelona.cat/arxiumunicipal/arxiuhistoric/ca","07/10/2024 07:28:46 AM","Titularitat|Administració local: municipal","POINT (2.175754 41.384056)"
,27041336,"Arxiu Municipal del Districte de Nou Barris","Arxiu Municipal del Districte de Nou Barris","Cultura|Arxius||","archive",,,,,,"Plaça Major de Nou Barris",,1,,,"08042","Barcelona",80193,"Barcelonès","+34-932916838","932916838",430759600,4587581000,"2.171212473","41.436815512","amdnb@bcn.cat","http://ajuntament.barcelona.cat/arxiumunicipal/ca/nou-barris","07/10/2024 07:36:41 AM","Titularitat|Administració local: municipal","POINT (2.1712124 41.436817)"
,27044147,"Arxiu Històric de la Cambra Oficial de Comerç, Indústria i Navegació de Barcelona","Arxiu Històric de la Cambra Oficial de Comerç, Indústria i Navegació de Barcelona","Cultura|Arxius||","archive",,,,,,"Passeig d'Isabel II",,1,,,"08003","Barcelona",80193,"Barcelonès","+34-932956417","932956417",431662380,4581511000,"2.182702921","41.382222317","arxiuhistoric@cambrabcn.org",,"07/10/2024 07:23:20 AM","Titularitat|Corporacions i entitats oficials: altres","POINT (2.182703 41.38222)"
,27042031,"Arxiu de la Reial Acadèmia Catalana de Belles Arts de Sant Jordi","Arxiu de la Reial Acadèmia Catalana de Belles Arts de Sant Jordi","Cultura|Arxius||","archive",,,,,,"Passeig d'Isabel II",,1,,,"08003","Barcelona",80193,"Barcelonès","+34-933192432","933192432",431662380,4581511000,"2.182702921","41.382222317","secretaria@racba.org","https://www.racba.org/","07/10/2024 07:27:21 AM","Titularitat|Corporacions i entitats oficials: acadèmia","POINT (2.182703 41.38222)"
,27044584,"Arxiu Històric de la Ciutat de Badalona","Arxiu Històric de la Ciutat de Badalona","Cultura|Arxius||","archive",,,,,,"Plaça de l'Assemblea de Catalunya",,1,,,"08911","Badalona",80155,"Barcelonès","+34-933841750","933841750",437186600,4589255500,"2.247960987","41.452425795","mcarreras@museudebadalona.cat","https://www.museudebadalona.cat/arxiu/","07/10/2024 07:27:28 AM","Titularitat|Administració local: municipal","POINT (2.247961 41.452427)"
,27044316,"Arxiu General de la Diputació de Barcelona","Arxiu General de la Diputació de Barcelona","Cultura|Arxius||","archive",,,,,,"Carrer de Mejía Lequerica",,1,,,"08028","Barcelona",80193,"Barcelonès","+34-934022265","934022265",426865060,4581721500,"2.125309235","41.383696425","arxiu@diba.cat","http://www.diba.cat/arxiu","07/10/2024 07:34:32 AM","Titularitat|Administració local: diputació provincial","POINT (2.1253092 41.383698)"
,27045868,"Arxiu Central Corporatiu Administratiu i de Gestió de la CCMA","Arxiu Central Corporatiu Administratiu i de Gestió de la CCMA","Cultura|Arxius||","archive",,,,,,"Carrer d'Oriol Martorell",,1,,,"08970","Sant Joan Despí",82172,"Baix Llobregat","+34-934444864","934444864",422101560,4580661000,"2.068481288","41.373697955","arxiucorporatiu@ccma.cat","https://www.ccma.cat","07/10/2024 07:27:47 AM","Titularitat|Generalitat de Catalunya: organismes autònoms i empreses públiques","POINT (2.0684812 41.3737)"
,27041349,"Arxiu Municipal de Santa Coloma de Gramenet","Arxiu Municipal de Santa Coloma de Gramenet","Cultura|Arxius||","archive",,,,,,"Plaça de la Vila",,1,,,"08921","Santa Coloma de Gramenet",82457,"Barcelonès","+34-934624000","934624000",433841620,4589236000,"2.207918635","41.451981402","delgadosr@gramenet.cat","https://www.gramenet.cat/es/ayuntamiento/areas-municipales/archivo/","07/10/2024 07:27:34 AM","Titularitat|Administració local: municipal","POINT (2.2079186 41.45198)"
,27041826,"Arxiu Audiovisual de la CCMA","Arxiu Audiovisual de la CCMA","Cultura|Arxius||","archive",,,,,,"Carrer d'Oriol Martorell",,1,,,"08970","Sant Joan Despí",82172,"Baix Llobregat","+34-934999426","934999426",422101560,4580661000,"2.068481288","41.373697955","mcatala.r@ccma.cat","https://www.ccma.cat","07/10/2024 07:27:47 AM","Titularitat|Generalitat de Catalunya: organismes autònoms i empreses públiques","POINT (2.0684812 41.3737)"
,27043682,"Arxiu Central dels Jutjats de Cornellà de Llobregat","Arxiu Central dels Jutjats de Cornellà de Llobregat","Cultura|Arxius||","archive",,,,,,"Carrer de Can Rosés",,1,,,"08940","Cornellà de Llobregat",80734,"Baix Llobregat","+34-935517025","935517025",422656120,4578455500,"2.075393194","41.353887622","arxiu.cornella@xij.gencat.cat",,"07/10/2024 07:22:40 AM","Titularitat|Generalitat de Catalunya: Administració de Justícia","POINT (2.0753932 41.35389)"
,27044452,"Arxiu Històric de Mollet del Vallès","Arxiu Històric de Mollet del Vallès","Cultura|Arxius||","archive",,,,,,"Plaça Major",,1,,,"08100","Mollet del Vallès",81249,"Vallès Oriental","+34-935635119","935635119",434102940,4598504500,"2.210033374","41.535480640","arxiu_municipal@molletvalles.cat","http://www.molletvalles.cat/DetallContinguts/_wEovPETJ6tf3VZvwyB9Mn3ud1__vb-lcy89L6gBZElQ","07/10/2024 07:33:18 AM","Titularitat|Administració local: municipal","POINT (2.2100334 41.53548)"
,27043111,"Arxiu Municipal de Sant Cugat del Vallès","Arxiu Municipal de Sant Cugat del Vallès","Cultura|Arxius||","archive",,,,,,"Plaça de la Vila",,1,,,"08172","Sant Cugat del Vallès",82055,"Vallès Occidental","+34-935657000","935657000",423618940,4591412500,"2.085266104","41.470676004","arxiu@santcugat.cat","https://www.santcugat.cat/web/arxiu","07/10/2024 07:27:14 AM","Titularitat|Administració local: municipal","POINT (2.085266 41.470676)"
,27041619,"Arxiu Municipal de Martorelles","Arxiu Municipal de Martorelles","Cultura|Arxius||","archive",,,,,,"Plaça de l'Ajuntament",,1,,,"08107","Martorelles",81154,"Vallès Oriental","+34-935705732","935705732",436873220,4597387500,"2.243357578","41.525643573","mar.arxiu@martorelles.cat","http://www.martorelles.cat","07/10/2024 07:33:33 AM","Titularitat|Administració local: municipal","POINT (2.2433577 41.525642)"
,27043750,"Arxiu Municipal de Sant Fost de Campsentelles","Arxiu Municipal de Sant Fost de Campsentelles","Cultura|Arxius||","archive",,,,,,"Plaça de la Vila",,1,,,"08105","Sant Fost de Campsentelles",82093,"Vallès Oriental","+34-935796981","935796981",435994560,4596636000,"2.232906735","41.518805334","ajuntament@santfost.cat","http://www.santfost.cat","07/10/2024 07:32:06 AM","Titularitat|Administració local: municipal","POINT (2.2329068 41.518806)"
,27040957,"Arxiu Municipal de Cerdanyola del Vallès","Arxiu Municipal de Cerdanyola del Vallès","Cultura|Arxius||","archive",,,,,,"Passatge de l'Ajuntament",,1,,,"08290","Cerdanyola del Vallès",82665,"Vallès Occidental","+34-935808888","935808888",428288060,4593603500,"2.140916320","41.490840232","arxiu@cerdanyola.cat","http://www.cerdanyola.cat","07/10/2024 07:34:41 AM","Titularitat|Administració local: municipal","POINT (2.1409163 41.49084)"
,27044730,"Arxiu Administratiu Municipal de Sant Boi de Llobregat","Arxiu Administratiu Municipal de Sant Boi de Llobregat","Cultura|Arxius||","archive",,,,,,"Plaça de l'Ajuntament",,1,,,"08830","Sant Boi de Llobregat",82009,"Baix Llobregat","+34-936351200","936351200",419963300,4577773500,"2.043296067","41.347482126","mrlatorre@santboi.cat","http://www.santboi.cat","07/10/2024 07:32:13 AM","Titularitat|Administració local: municipal","POINT (2.043296 41.34748)"
,27045793,"Arxiu Municipal de Sant Andreu de la Barca","Arxiu Municipal de Sant Andreu de la Barca","Cultura|Arxius||","archive",,,,,,"Plaça de l'Ajuntament",,1,,,"08740","Sant Andreu de la Barca",81960,"Baix Llobregat","+34-936356400","936356400",414075840,4589235000,"1.971305341","41.450099770","arxiu@sabarca.cat","http://www.sabarca.cat/Plantilla3/_2HSVHDbaqr6QD8we4GGpG4-up8w1HJna","07/10/2024 07:32:20 AM","Titularitat|Administració local: municipal","POINT (1.9713054 41.4501)"
,27043715,"Arxiu Municipal de Castelldefels","Arxiu Municipal de Castelldefels","Cultura|Arxius||","archive",,,,,,"Plaça de l'Església",,1,,,"08860","Castelldefels",80569,"Baix Llobregat","+34-936651150","936651150",414314340,4570372500,"1.976825174","41.280245385","arxiu@castelldefels.org","http://arxiu.castelldefels.org/ca/homecat/","07/10/2024 07:36:36 AM","Titularitat|Administració local: municipal","POINT (1.9768251 41.280247)"
,27042291,"Arxiu Municipal de Sant Feliu de Llobregat","Arxiu Municipal de Sant Feliu de Llobregat","Cultura|Arxius||","archive",,,,,,"Plaça de la Vila",,1,,,"08980","Sant Feliu de Llobregat",82114,"Baix Llobregat","+34-936858000","936858000",420179340,4581494500,"2.045388413","41.381016434",,,"07/10/2024 07:21:00 AM","Titularitat|Administració local: municipal","POINT (2.0453885 41.381016)"
,27043031,"Arxiu Municipal de Sentmenat","Arxiu Municipal de Sentmenat","Cultura|Arxius||","archive",,,,,,"Plaça de la Vila",,1,,,"08181","Sentmenat",82671,"Vallès Occidental","+34-937153030","937153030",427974380,4606692000,"2.135590011","41.608691726","smnt.arxiu@sentmenat.cat","http://www.sentmenat.cat/adreces-i-telefons/arxiu-municipal-1449823064.html","07/10/2024 07:31:43 AM","Titularitat|Administració local: municipal","POINT (2.13559 41.608692)"
,27041096,"Servei d’Arxiu Municipal de Sant Quirze del Vallès","Servei d’Arxiu Municipal de Sant Quirze del Vallès","Cultura|Arxius||","archive",,,,,,"Plaça de la Vila",,1,,,"08192","Sant Quirze del Vallès",82384,"Vallès Occidental","+34-937216800","937216800",423322530,4598331500,"2.080835938","41.532962250","arxiumunicipal@santquirzevalles.cat","https://seu.santquirzevalles.cat/DetallContinguts/_Csc0skTygzMjrh_Wy1y8Y0uZ-78bbGj7","07/10/2024 07:28:05 AM","Titularitat|Administració local: municipal","POINT (2.0808358 41.532963)"
,27042541,"Arxiu Municipal de Pineda de Mar","Arxiu Municipal de Pineda de Mar","Cultura|Arxius||","archive",,,,,,"Plaça de Catalunya",,1,,,"08397","Pineda de Mar",81635,"Maresme","+34-937671560","937671560",474134340,4608467000,"2.689483767","41.627510067","arxiu@pinedademar.org","https://www.pinedademar.cat/serveis/arxiu","07/10/2024 07:27:22 AM","Titularitat|Administració local: municipal","POINT (2.689484 41.62751)"
,27043429,"Arxiu Històric Municipal d'Abrera","Arxiu Històric Municipal d'Abrera","Cultura|Arxius||","archive",,,,,,"Plaça de la Constitució",,1,,,"08630","Abrera",80018,"Baix Llobregat","+34-937700325","937700325",408334560,4596630500,"1.901457351","41.516067219","arxiu@abrera.cat",,"07/10/2024 07:23:36 AM","Titularitat|Administració local: municipal","POINT (1.9014573 41.516068)"
,27041518,"Arxiu Municipal d'Esparreguera","Arxiu Municipal d'Esparreguera","Cultura|Arxius||","archive",,,,,,"Plaça d'Antoni Nin Escudé",,1,,,"08292","Esparreguera",80765,"Baix Llobregat","+34-937777571","937777571",405850500,4599108000,"1.871305453","41.538090557","codinacr@esparreguera.cat","http://www.esparreguera.cat/arxiu/","07/10/2024 07:34:25 AM","Titularitat|Administració local: municipal","POINT (1.8713055 41.53809)"
,27041084,"Arxiu Municipal de Dosrius","Arxiu Municipal de Dosrius","Cultura|Arxius||","archive",,,,,,"Carrer de Sant Antoni",,1,,,"08319","Dosrius",80752,"Maresme","+34-937919740","937919740",450486800,4604947000,"2.405898129","41.594688830","nalsina@dosrius.cat","http://www.dosrius.es/historic.asp","07/10/2024 07:34:32 AM","Titularitat|Administració local: municipal","POINT (2.405898 41.59469)"
,27044752,"Arxiu Parroquial de Sant Andreu de Llavaneres","Arxiu Parroquial de Sant Andreu de Llavaneres","Cultura|Arxius||","archive",,,,,,"Plaça de l'Abat Gm Brasó",,1,,,"08392","Sant Andreu de Llavaneres",81976,"Maresme","+34-937926144","937926144",455038700,4603461500,"2.460624663","41.581578309","arpsall@hotmail.com",,"07/10/2024 07:21:06 AM","Titularitat|Església catòlica: parroquial","POINT (2.4606247 41.581577)"
,27041610,"Arxiu Municipal d'Igualada","Arxiu Municipal d'Igualada","Cultura|Arxius||","archive",,,,,,"Plaça de l'Ajuntament",,1,,,"08700","Igualada",81022,"Anoia","+34-938031950","938031950",384754100,4603928500,"1.617534350","41.578737867",,,"07/10/2024 07:22:20 AM","Titularitat|Administració local: municipal","POINT (1.6175344 41.57874)"
,27042111,"Arxiu Municipal de Vilanova del Camí","Arxiu Municipal de Vilanova del Camí","Cultura|Arxius||","archive",,,,,,"Plaça del Castell",,1,,,"08788","Vilanova del Camí",83020,"Anoia","+34-938054422","938054422",386136660,4603187000,"1.634255380","41.572259026",,,"07/10/2024 07:19:57 AM","Titularitat|Administració local: municipal","POINT (1.6342554 41.572258)"
,27042251,"Arxiu Municipal de Berga","Arxiu Municipal de Berga","Cultura|Arxius||","archive",,,,,,"Plaça de Sant Pere",,1,,,"08600","Berga",80229,"Berguedà","+34-938214333","938214333",404587280,4662004000,"1.846038818","42.104327891",,,"07/10/2024 07:23:04 AM","Titularitat|Administració local: municipal","POINT (1.8460388 42.10433)"
,27044933,"Arxiu Municipal de Llinars del Vallès","Arxiu Municipal de Llinars del Vallès","Cultura|Arxius||","archive",,,,,,"Plaça de la Vila",,1,,,"08450","Llinars del Vallès",81069,"Vallès Oriental","+34-938412750","938412750",450392250,4609891500,"2.404354072","41.639217001",,,"07/10/2024 07:22:10 AM","Titularitat|Administració local: municipal","POINT (2.404354 41.639217)"
,27042888,"Arxiu – Museu Folch i Torres – Castell de Plegamans","Arxiu – Museu Folch i Torres – Castell de Plegamans","Cultura|Arxius||","archive",,,,,,"Carrer del Castell",,1,,,"08184","Palau-solità i Plegamans",81568,"Vallès Occidental","+34-938644359","938644359",431749700,4604004000,"2.181200704","41.584814312","arxiu@fundaciofolchitorres.org","https://fundaciofolchitorres.org/la-fundacio/arxiu/","07/10/2024 07:28:21 AM","Titularitat|Privat: entitats, associacions, fundacions","POINT (2.1812007 41.584816)"
,27040909,"Arxiu Municipal de Palau-solità i Plegamans","Arxiu Municipal de Palau-solità i Plegamans","Cultura|Arxius||","archive",,,,,,"Plaça de la Vila",,1,,,"08184","Palau-solità i Plegamans",81568,"Vallès Occidental","+34-938648056","938648056",431521220,4604314500,"2.178424446","41.587591244",,,"07/10/2024 07:21:40 AM","Titularitat|Administració local: municipal","POINT (2.1784244 41.587593)"
,27041113,"Museu-Arxiu Tomàs Balvey","Museu-Arxiu Tomàs Balvey","Cultura|Arxius||","archive",,,,,,"Carrer de Daurella",,1,,,"08440","Cardedeu",80462,"Vallès Oriental","+34-938713070","938713070",446273100,4609789000,"2.354907074","41.638026902","museu@cardedeu.cat","http://www.museudecardedeu.cat","07/10/2024 07:33:06 AM","Titularitat|Administració local: municipal","POINT (2.354907 41.638027)"
,27044904,"Arxiu Central dels Jutjats de Vic","Arxiu Central dels Jutjats de Vic","Cultura|Arxius||","archive",,,,,,"Carrer del Doctor Junyent",,1,,,"08500","Vic",82981,"Osona","+34-938834533","938834533",437941600,4642076500,"2.251504915","41.928211080","arxiu.vic@xij.gencat.cat",,"07/10/2024 07:20:06 AM","Titularitat|Generalitat de Catalunya: Administració de Justícia","POINT (2.251505 41.92821)"
,27043374,"Arxiu Municipal de Vic","Arxiu Municipal de Vic","Cultura|Arxius||","archive",,,,,,"Carrer de la Ciutat",,1,,,"08500","Vic",82981,"Osona","+34-938862100","938862100",438242720,4642245500,"2.255118762","41.929756713","arxiu@vic.cat","https://www.vic.cat/","07/10/2024 07:26:58 AM","Titularitat|Administració local: municipal","POINT (2.2551188 41.929756)"
,27041064,"Arxiu Episcopal de Vic","Arxiu Episcopal de Vic","Cultura|Arxius||","archive",,,,,,"Carrer de Santa Maria",,1,,,"08500","Vic",82981,"Osona","+34-938894432","938894432",438225880,4642043000,"2.254936886","41.927931677","abev@abev.net","http://www.abev.net/","07/10/2024 07:35:55 AM","Titularitat|Església catòlica: diocesà","POINT (2.254937 41.927933)"
,27045851,"Arxiu Municipal de Sant Sadurní d'Anoia","Arxiu Municipal de Sant Sadurní d'Anoia","Cultura|Arxius||","archive",,,,,,"Plaça de l'Ajuntament",,1,,,"08770","Sant Sadurní d'Anoia",82401,"Alt Penedès","+34-938910325","938910325",398620380,4586547000,"1.786758410","41.424089690","arxiu@santsadurni.cat","https://santsadurni.cat/arxiu","07/10/2024 07:28:07 AM","Titularitat|Administració local: municipal","POINT (1.7867584 41.42409)"
,27042161,"Arxiu Municipal de Girona","Arxiu Municipal de Girona","Cultura|Arxius||","archive",,,,,,"Placeta de l'Institut Vell",,1,,,17004,"Girona",170792,"Gironès","+34-972221545","972221545",485509030,4648352500,"2.825061034","41.987043680","arxiumunicipal@ajgirona.cat","http://www.girona.cat/sgdap","07/10/2024 07:34:04 AM","Titularitat|Administració local: municipal","POINT (2.825061 41.987045)"
,27042427,"Arxiu Històric de Girona","Arxiu Històric de Girona","Cultura|Arxius||","archive",,,,,,"Plaça de Sant Josep",,1,,,17004,"Girona",170792,"Gironès","+34-972225500","972225500",485566530,4647946000,"2.825765170","41.983383533","ahg.cultura@gencat.cat","http://cultura.gencat.cat/arxius/ahg","07/10/2024 07:36:19 AM","Titularitat|Generalitat de Catalunya: comarcal","POINT (2.8257651 41.983383)"
,27045603,"Arxiu Municipal de Castelló d'Empúries","Arxiu Municipal de Castelló d'Empúries","Cultura|Arxius||","archive",,,,,,"Plaça del Joc de la Pilota",,1,,,17486,"Castelló d'Empúries",170470,"Alt Empordà","+34-972250426","972250426",506123620,4678457000,"3.074242014","42.258288351","arxiu@castello.cat","http://www.castello.cat/arxiumunicipal/","07/10/2024 07:34:45 AM","Titularitat|Administració local: municipal","POINT (3.074242 42.25829)"
,27042947,"Arxiu Comarcal de la Garrotxa","Arxiu Comarcal de la Garrotxa","Cultura|Arxius||","archive",,,,,,"Plaça del Puig Roser",,1,,,17800,"Olot",171143,"Garrotxa","+34-972279131","972279131",457520800,4670352500,"2.485590083","42.184167363","acgarrotxa.cultura@gencat.cat","http://cultura.gencat.cat/arxius/acgax","07/10/2024 07:36:23 AM","Titularitat|Generalitat de Catalunya: comarcal","POINT (2.48559 42.184166)"
,27042185,"Arxiu Municipal d'Olot","Arxiu Municipal d'Olot","Cultura|Arxius||","archive",,,,,,"Plaça del Puig Roser",,1,,,17800,"Olot",171143,"Garrotxa","+34-972279131","972279131",457520800,4670352500,"2.485590083","42.184167363","arxiu@olot.cat","https://www.olot.cat/pl59/ajuntament/arees-i-departaments-muncipals/directori-municipal/id48/arxiu-municipal-d-olot.htm","07/10/2024 07:27:26 AM","Titularitat|Administració local: municipal","POINT (2.48559 42.184166)"
,27041416,"Arxiu Municipal de Santa Coloma de Farners ","Arxiu Municipal de Santa Coloma de Farners ","Cultura|Arxius||","archive",,,,,,"Plaça del Primer d'Octubre",,1,,,17430,"Santa Coloma de Farners",171805,"Selva","+34-972840808","972840808",472027000,4634433000,"2.662964778","41.861312489",,,"07/10/2024 07:20:50 AM","Titularitat|Administració local: municipal","POINT (2.6629648 41.861313)"
,27042259,"Arxiu Central del Palau de Justícia de Girona","Arxiu Central del Palau de Justícia de Girona","Cultura|Arxius||","archive",,,,,,"Plaça de Josep M. Lidón",,1,,,17001,"Girona",170792,"Gironès","+34-972942513","972942513",485506750,4648391000,"2.825032560","41.987390394","arxiu.palaujusticia.girona@xij.gencat.cat",,"07/10/2024 07:22:26 AM","Titularitat|Generalitat de Catalunya: Administració de Justícia","POINT (2.8250325 41.98739)"
,27044756,"Arxiu Municipal de Tàrrega","Arxiu Municipal de Tàrrega","Cultura|Arxius||","archive",,,,,,"Plaça Major",,1,,,25300,"Tàrrega",252173,"Urgell","+34-973311608","973311608",345029530,4612182000,"1.139082206","41.646324864",,,"07/10/2024 07:20:36 AM","Titularitat|Administració local: municipal","POINT (1.1390822 41.646324)"
,27045816,"Arxiu Municipal de la Seu d'Urgell","Arxiu Municipal de la Seu d'Urgell","Cultura|Arxius||","archive",,,,,,"Plaça dels Oms",,1,,,25700,"Seu d'Urgell, la",252038,"Alt Urgell","+34-973350010","973350010",373371780,4690687500,"1.462363924","42.358150699",,,"07/10/2024 07:20:44 AM","Titularitat|Administració local: municipal","POINT (1.462364 42.35815)"
,27044919,"Arxiu Municipal de Balaguer","Arxiu Municipal de Balaguer","Cultura|Arxius||","archive",,,,,,"Plaça del Mercadal",,1,,,25600,"Balaguer",250404,"Noguera","+34-973445200","973445200",317581280,4628740500,"0.804624089","41.789552895",,,"07/10/2024 07:23:27 AM","Titularitat|Administració local: municipal","POINT (0.8046241 41.789555)"
,27045134,"Arxiu Diocesà de Solsona","Arxiu Diocesà de Solsona","Cultura|Arxius||","archive",,,,,,"Plaça del Palau ",,1,,,25280,"Solsona",252075,"Solsonès","+34-973480619","973480619",377332720,4650173000,"1.518982608","41.994019027","arxiu@bisbatsolsona.cat",,"07/10/2024 07:20:42 AM","Titularitat|Església catòlica: diocesà","POINT (1.5189826 41.99402)"
,27044222,"Arxiu Històric de les Valls d'Àneu","Arxiu Històric de les Valls d'Àneu","Cultura|Arxius||","archive",,,,,,"Plaça de la Closa",,1,,,25580,"Esterri d'Àneu",250864,"Pallars Sobirà","+34-973626532","973626532",346057880,4721267500,"1.122633067","42.628476986","biblioteca@esterrianeu.cat",,"07/10/2024 07:22:35 AM","Titularitat|Administració local: municipal","POINT (1.1226331 42.628475)"
,27042741,"Arxiu Municipal de Tremp","Arxiu Municipal de Tremp","Cultura|Arxius||","archive",,,,,,"Plaça de la Creu",,1,,,25620,"Tremp",252347,"Pallars Jussà","+34-973650005","973650005",326211880,4670456500,"0.896094937","42.166961669","arxiu@tremp.cat","http://www.ajuntamentdetremp.cat","07/10/2024 07:35:51 AM","Titularitat|Administració local: municipal","POINT (0.8960949 42.16696)"
,27041819,"Arxiu Central dels Jutjats de Solsona","Arxiu Central dels Jutjats de Solsona","Cultura|Arxius||","archive",,,,,,"Carrer de Llobera",,1,,,28280,"Solsona",252075,"Solsonès","+34-973700279","973700279",377277900,4650186500,"1.518318135","41.994132037","arxiu.solsona@xij.gencat.cat",,"07/10/2024 07:20:42 AM","Titularitat|Generalitat de Catalunya: Administració de Justícia","POINT (1.5183182 41.994133)"
,27043862,"Arxiu Municipal de Lleida","Arxiu Municipal de Lleida","Cultura|Arxius||","archive",,,,,,"Plaça de la Paeria",,1,,,25007,"Lleida",251207,"Segrià","+34-973700352","973700352",302260400,4609721000,"0.626692811","41.614718929","arxiu@paeria.cat","http://www.arxiu.paeria.cat","07/10/2024 07:35:44 AM","Titularitat|Administració local: municipal","POINT (0.62669283 41.61472)"
,27041411,"Arxiu i Gestió de Documents de la Universitat de Lleida","Arxiu i Gestió de Documents de la Universitat de Lleida","Cultura|Arxius||","archive",,,,,,"Plaça de Victor Siurana",,1,,,25003,"Lleida",251207,"Segrià","+34-973702005","973702005",301675720,4609737500,"0.619675729","41.614722375","arxiu@udl.cat","http://www.udl.cat/ca/serveis/arxiu/","07/10/2024 07:30:22 AM","Titularitat|Corporacions i entitats oficials: universitari","POINT (0.61967576 41.614723)"
,27041654,"Arxiu Municipal del Vendrell","Arxiu Municipal del Vendrell","Cultura|Arxius||","archive",,,,,,"Plaça Vella",,1,,,43700,"Vendrell, el",431634,"Baix Penedès","+34-977166400","977166400",377188160,4564219500,"1.534857062","41.220045443",,,"07/10/2024 07:20:07 AM","Titularitat|Administració local: municipal","POINT (1.534857 41.220047)"
,27043433,"Arxiu Central Administratiu de la Delegació Territorial del Govern a les Terres de l'Ebre","Arxiu Central Administratiu de la Delegació Territorial del Govern a les Terres de l'Ebre","Cultura|Arxius||","archive",,,,,,"Plaça de Gerard Vergès",,1,,,43500,"Tortosa",431554,"Baix Ebre","+34-977495488","977495488",291094750,4520892500,"0.523155939","40.812474685","cmacia@gencat.cat","http://cultura.gencat.cat/ca/departament/estructura_i_adreces/organismes/dgpc/temes/arxius_i_gestio_documental/gestiodocumental/gdgencat/aca/delegacions/terres_ebre/","07/10/2024 07:36:19 AM","Titularitat|Generalitat de Catalunya: administratiu territorial","POINT (0.5231559 40.812473)"
,27043730,"Arxiu Municipal de Constantí","Arxiu Municipal de Constantí","Cultura|Arxius||","archive",,,,,,"Plaça de l'Hospital",,1,,,43120,"Tarragona",431482,"Tarragonès","+34-977520521","977520521",349956720,4557295000,"1.211821848","41.153109733","arxiu@constanti.cat","http://www.arxiudeconstanti.cat","07/10/2024 07:35:44 AM","Titularitat|Administració local: municipal","POINT (1.2118218 41.15311)"
,27041637,"Arxiu Municipal de Tortosa ","Arxiu Municipal de Tortosa ","Cultura|Arxius||","archive",,,,,,"Plaça d'Espanya",,1,,,43500,"Tortosa",431554,"Baix Ebre","+34-977585800","977585800",290895530,4520729500,"0.520850670","40.810956956",,,"07/10/2024 07:20:23 AM","Titularitat|Administració local: municipal","POINT (0.52085066 40.81096)"
,27045433,"Arxiu Municipal de Calafell","Arxiu Municipal de Calafell","Cultura|Arxius||","archive",,,,,,"Plaça de Catalunya",,1,,,43820,"Calafell",430379,"Baix Penedès","+34-977699009","977699009",379996970,4562052500,"1.568781400","41.200952834","arxiu@calafell.org","http://calafell.cat/temes-i-serveis/arxiu-municipal","07/10/2024 07:36:28 AM","Titularitat|Administració local: municipal","POINT (1.5687814 41.200954)"
,27041904,"Arxiu Central dels Jutjats de Mollet","Arxiu Central dels Jutjats de Mollet","Cultura|Arxius||","archive",,,,,,"Carrer de les Llevadores",,2,,,"08100","Mollet del Vallès",81249,"Vallès Oriental","+34-607074362","607074362",434837280,4598597500,"2.218825690","41.536378382","arxiu.mollet@xij.gencat.cat",,"07/10/2024 07:21:55 AM","Titularitat|Generalitat de Catalunya: Administració de Justícia","POINT (2.2188256 41.536377)"
,27044180,"Arxiu Central dels Jutjats de Sant Boi de Llobregat","Arxiu Central dels Jutjats de Sant Boi de Llobregat","Cultura|Arxius||","archive",,,,,,"Carrer de Carles Martí i Vila",,2,,,"08930","Sant Boi de Llobregat",82009,"Baix Llobregat","+34-675782990","675782990",419760750,4577935500,"2.040853833","41.348921017","arxiu.santboi@xij.gencat.cat",,"07/10/2024 07:21:05 AM","Titularitat|Generalitat de Catalunya: Administració de Justícia","POINT (2.0408537 41.348923)"
,27041051,"Arxiu Municipal del Districte de Gràcia","Arxiu Municipal del Districte de Gràcia","Cultura|Arxius||","archive",,,,,,"Plaça de Lesseps",,2,2,,"08023","Barcelona",80193,"Barcelonès","+34-932177183","932177183",428969030,4584293000,"2.150168299","41.407045477","amdg@bcn.cat","http://ajuntament.barcelona.cat/arxiumunicipal/ca/gracia","07/10/2024 07:36:41 AM","Titularitat|Administració local: municipal","POINT (2.1501682 41.407047)"
,27043792,"Arxiu Fotogràfic de Barcelona","Arxiu Fotogràfic de Barcelona","Cultura|Arxius||","archive",,,,,,"Plaça de Pons i Clerch",,2,2,,"08003","Barcelona",80193,"Barcelonès","+34-932563420","932563420",431589700,4582031500,"2.181775006","41.386904135","arxiufotografic@bcn.cat","https://ajuntament.barcelona.cat/arxiumunicipal/arxiufotografic/ca/home","07/10/2024 07:28:46 AM","Titularitat|Administració local: municipal","POINT (2.181775 41.386906)"
,27041338,"Arxiu Central del Registre Civil de Barcelona","Arxiu Central del Registre Civil de Barcelona","Cultura|Arxius||","archive",,,,,,"Plaça del Duc de Medinaceli",,2,,,"08002","Barcelona",80193,"Barcelonès","+34-932701211","932701211",431322300,4581116500,"2.178680775","41.378640210","arxiu.registrecivil.bcn@xij.gencat.cat",,"07/10/2024 07:23:21 AM","Titularitat|Generalitat de Catalunya: Administració de Justícia","POINT (2.1786807 41.37864)"
,27043740,"Arxiu Municipal del Districte de Sant Andreu","Arxiu Municipal del Districte de Sant Andreu","Cultura|Arxius||","archive",,,,,,"Carrer dels Segadors",,2,,,"08030","Barcelona",80193,"Barcelonès","+34-932918877","932918877",432511750,4587579500,"2.192183341","41.436951171","amdsa@bcn.cat","http://ajuntament.barcelona.cat/arxiumunicipal/ca/sant-andreu","07/10/2024 07:36:40 AM","Titularitat|Administració local: municipal","POINT (2.1921833 41.43695)"
,27043122,"Arxiu Central Administratiu del Departament de Recerca i Universitats","Arxiu Central Administratiu del Departament de Recerca i Universitats","Cultura|Arxius||","archive",,,,,,"Via Laietana",,2,,,"08003","Barcelona",80193,"Barcelonès","+34-935526834","935526834",431562530,4581487500,"2.181511516","41.382002171","arxiucentral.recercaiuniversitats@gencat.cat",,"07/10/2024 07:23:23 AM","Titularitat|Generalitat de Catalunya: central administratiu de departament","POINT (2.1815114 41.382004)"
,27044661,"Arxiu Municipal de La Llagosta","Arxiu Municipal de La Llagosta","Cultura|Arxius||","archive",,,,,,"Carrer del Mercat",,2,,,"08120","Llagosta, la",81056,"Vallès Oriental","+34-935603911","935603911",432689720,4596028500,"2.193370462","41.513062873","bartalotpj@llagosta.cat","http://www.llagosta.cat","07/10/2024 07:33:41 AM","Titularitat|Administració local: municipal","POINT (2.1933706 41.51306)"
,27041297,"Arxiu Municipal de Montornès del Vallès","Arxiu Municipal de Montornès del Vallès","Cultura|Arxius||","archive",,,,,,"Avinguda de la Llibertat",,2,,,"08170","Montornès del Vallès",81363,"Vallès Oriental","+34-935721170","935721170",438891300,4599555500,"2.267324173","41.545326609","arxiu@montornes.cat","http://www.montornes.cat","07/10/2024 07:33:15 AM","Titularitat|Administració local: municipal","POINT (2.2673242 41.545326)"
,27042196,"Arxiu Municipal de Matadepera","Arxiu Municipal de Matadepera","Cultura|Arxius||","archive",,,,,,"Carrer de Sant Quirze",,2,,,"08230","Matadepera",81206,"Vallès Occidental","+34-937870200","937870200",418886780,4605591000,"2.026689196","41.597904411","nuria.gomez@matadepera.cat","https://www.matadepera.cat/ajuntament/arxiu-municipal/","07/10/2024 07:27:29 AM","Titularitat|Administració local: municipal","POINT (2.0266893 41.597904)"
,27044953,"Fundació Arxiu Tobella Terrassa","Fundació Arxiu Tobella Terrassa","Cultura|Arxius||","archive",,,,,,"Placeta de Saragossa",,2,,,"08221","Terrassa",82798,"Vallès Occidental","+34-937881162","937881162",417666720,4601948000,"2.012551253","41.564970742","arxiu@arxiutobella.cat","http://www.arxiutobella.cat/","07/10/2024 07:35:44 AM","Titularitat|Privats: altres","POINT (2.0125513 41.564972)"
,27045569,"Arxiu Comarcal del Berguedà","Arxiu Comarcal del Berguedà","Cultura|Arxius||","archive",,,,,,"Carrer de la Colònia Escolar Permanent",,2,,,"08600","Berga",80229,"Berguedà","+34-938221548","938221548",406168340,4658666000,"1.865692852","42.074460698","acbergueda.cultura@gencat.cat","http://cultura.gencat.cat/arxius/acbr","07/10/2024 07:36:24 AM","Titularitat|Generalitat de Catalunya: comarcal","POINT (1.8656929 42.07446)"
,27045106,"Arxiu Municipal de les Franqueses del Vallès","Arxiu Municipal de les Franqueses del Vallès","Cultura|Arxius||","archive",,,,,,"Carretera de Ribes ",,2,,,"08520","Franqueses del Vallès, les",80863,"Vallès Oriental","+34-938467676","938467676",441472840,4609637500,"2.297289709","41.636324523","arxiu@lesfranqueses.cat","http://www.lesfranqueses.cat","07/10/2024 07:33:45 AM","Titularitat|Administració local: municipal","POINT (2.2972896 41.636326)"
,27042836,"Arxiu Municipal de Torelló","Arxiu Municipal de Torelló","Cultura|Arxius||","archive",,,,,,"Carrer de Capsavila",,2,,,"08570","Torelló",82858,"Osona","+34-938505498","938505498",439083900,4655217500,"2.263919133","42.046647172","arxiu@ajtorello.cat","http://www.torello.cat/arxiu","07/10/2024 07:31:08 AM","Titularitat|Administració local: municipal","POINT (2.263919 42.046646)"
,27042290,"Arxiu Municipal de La Garriga","Arxiu Municipal de La Garriga","Cultura|Arxius||","archive",,,,,,"Plaça de l'Església",,2,,,"08530","Garriga, la",80885,"Vallès Oriental","+34-938605050","938605050",440569380,4615060000,"2.285903698","41.685095455","agutierrez@ajlagarriga.cat","http://www.lagarriga.cat","07/10/2024 07:33:52 AM","Titularitat|Administració local: municipal","POINT (2.2859037 41.685097)"
,27045898,"Arxiu Municipal de Calaf","Arxiu Municipal de Calaf","Cultura|Arxius||","archive",,,,,,"Plaça Gran",,2,,,"08280","Calaf",80312,"Anoia","+34-938698512","938698512",376182000,4621342500,"1.511129818","41.734254270","arxiucalaf@diba.cat","http://www.calaf.cat","07/10/2024 07:35:11 AM","Titularitat|Administració local: municipal","POINT (1.5111299 41.734253)"
,27042297,"Arxiu Comarcal del Ripollès","Arxiu Comarcal del Ripollès","Cultura|Arxius||","archive",,,,,,"Raval del Raval de l'Hospital",,2,,,17500,"Ripoll",171479,"Ripollès","+34-972715715","972715715",433365340,4672284500,"2.192876638","42.199881482","acri.cultura@gencat.cat","http://cultura.gencat.cat/arxius/acri","07/10/2024 07:36:21 AM","Titularitat|Generalitat de Catalunya: comarcal","POINT (2.1928766 42.199883)"
,27041925,"Arxiu Municipal de Mollerussa","Arxiu Municipal de Mollerussa","Cultura|Arxius||","archive",,,,,,"Plaça de l'Ajuntament",,2,,,25230,"Mollerussa",251370,"Pla d'Urgell","+34-973600713","973600713",324575530,4610815500,"0.894017352","41.629787170",,,"07/10/2024 07:21:56 AM","Titularitat|Administració local: municipal","POINT (0.89401734 41.629787)"
,27042689,"Arxiu Capitular de la Catedral de Tarragona","Arxiu Capitular de la Catedral de Tarragona","Cultura|Arxius||","archive",,,,,,"Carrer de Sant Pau",,2,,,43003,"Tarragona",431482,"Tarragonès","+34-977253360","977253360",353750700,4553555500,"1.257908600","41.120132780","arxiu.capitular@arqtgn.cat","http://www.acct.cat","07/10/2024 07:35:55 AM","Titularitat|Església catòlica: capitular","POINT (1.2579086 41.120132)"
,27045611,"Arxiu Històric de l'Hospital de Sant Pau i Santa Tecla","Arxiu Històric de l'Hospital de Sant Pau i Santa Tecla","Cultura|Arxius||","archive",,,,,,"Carrer de Sant Pau",,2,,,43003,"Tarragona",431482,"Tarragonès","+34-977253360","977253360",353750700,4553555500,"1.257908600","41.120132780","nsanchez@xarxatecla.cat","http://www.ahspt.cat","07/10/2024 07:35:54 AM","Titularitat|Privat: entitats, associacions, fundacions","POINT (1.2579086 41.120132)"
,27043816,"Arxiu Històric Arxidiocesà de Tarragona","Arxiu Històric Arxidiocesà de Tarragona","Cultura|Arxius||","archive",,,,,,"Carrer de Sant Pau",,2,,,43003,"Tarragona",431482,"Tarragonès","+34-977253360","977253360",353750700,4553555500,"1.257908600","41.120132780","arxiu.historic@arquebisbattarragona.cat","http://www.ahat.cat","07/10/2024 07:35:54 AM","Titularitat|Església catòlica: diocesà","POINT (1.2579086 41.120132)"
,27042941,"Arxiu del Port de Tarragona","Arxiu del Port de Tarragona","Cultura|Arxius||","archive",,,,,,"Carrer d'Anselm Clavé",,2,,,43004,"Tarragona",431482,"Tarragonès","+34-977259400","977259400",353144440,4552487500,"1.250945508","41.110407256","arxiu@porttarragona.cat","https://www.porttarragona.cat/ca/port-i-ciutat/arxiu-port/","07/10/2024 07:27:21 AM","Titularitat|Arxiu de l'Estat","POINT (1.2509454 41.11041)"
,27043059,"Arxiu Municipal de Cunit","Arxiu Municipal de Cunit","Cultura|Arxius||","archive",,,,,,"Carrer de Sant Joan",,2,,,43881,"Cunit",430516,"Baix Penedès","+34-977674080","977674080",385525880,4561614000,"1.634785778","41.197804514","arxiu@cunit.cat","https://www.cunit.cat/informacio-i-serveis/arxiu/","07/10/2024 07:27:43 AM","Titularitat|Administració local: municipal","POINT (1.6347858 41.197803)"
,27041847,"Arxiu Central dels Jutjats de l'Hospitalet de Llobregat","Arxiu Central dels Jutjats de l'Hospitalet de Llobregat","Cultura|Arxius||","archive",,,,,,"Avinguda del Carrilet ",,2,,,"08902","Hospitalet de Llobregat, l'",81017,"Barcelonès","+34-93 5548039","93 5548039",425985300,4579164000,"2.115100765","41.360581645","arxiu.hospitalet@xij.gencat.cat",,"07/10/2024 07:22:21 AM","Titularitat|Generalitat de Catalunya: Administració de Justícia","POINT (2.1151009 41.36058)"
,27042348,"Museu Arxiu de Santa Maria. Centre d'Estudis locals de Mataró","Museu Arxiu de Santa Maria. Centre d'Estudis locals de Mataró","Cultura|Arxius||","archive",,,,,,"Carrer de la Beata Maria",,3,,,"08301","Mataró",81213,"Maresme","+34-637207006","637207006",453855970,4598920500,"2.446785691","41.540610373","masmm@masmm.org","http://www.masmm.org/","07/10/2024 07:33:32 AM","Titularitat|Església catòlica: parroquial","POINT (2.4467857 41.54061)"
,27043121,"Arxiu Central dels Jutjats d'Esplugues de Llobregat","Arxiu Central dels Jutjats d'Esplugues de Llobregat","Cultura|Arxius||","archive",,,,,,"Carrer de Joan Brillas",,3,,,"08950","Esplugues de Llobregat",80771,"Baix Llobregat","+34-675782990","675782990",423131200,4580874000,"2.080765304","41.375715340","arxiu.esplugues@xij.gencat.cat",,"07/10/2024 07:22:37 AM","Titularitat|Generalitat de Catalunya: Administració de Justícia","POINT (2.0807652 41.375717)"
,27041482,"Arxiu de la Reial Acadèmia de Bones Lletres","Arxiu de la Reial Acadèmia de Bones Lletres","Cultura|Arxius||","archive",,,,,,"Carrer del Bisbe Caçador",,3,,,"08002","Barcelona",80193,"Barcelonès","+34-933102349","933102349",431334940,4581617500,"2.178775155","41.383153652","bib.rabl@gmail.com","http://www.boneslletres.cat/arxiu_biblioteca.asp","07/10/2024 07:35:21 AM","Titularitat|Corporacions i entitats oficials: acadèmia","POINT (2.178775 41.383152)"
,27043266,"Arxiu de la Seu de Manresa","Arxiu de la Seu de Manresa","Cultura|Arxius||","archive",,,,,,"Baixada de la Seu",,3,,,"08240","Manresa",81136,"Bages","+34-938721512","938721512",402444470,4619643000,"1.827133356","41.722607721","arxiudelaseudemanresa@gmail.com","https://www.arxiudelaseudemanresa.wordpress.com","07/10/2024 07:27:56 AM","Titularitat|Església catòlica: capitular","POINT (1.8271333 41.722607)"
,27043168,"Servei d'Arxiu Municipal de Palamós","Servei d'Arxiu Municipal de Palamós","Cultura|Arxius||","archive",,,,,,"Parc dels Països Catalans",,3,,,17230,"Palamós",171181,"Baix Empordà","+34-972312145","972312145",510442900,4633219000,"3.125801700","41.850803741","arxiumunicipal@palamos.cat","http://www.serveiarxiumunicipalpalamos.cat/","07/10/2024 07:31:42 AM","Titularitat|Administració local: municipal","POINT (3.1258018 41.850803)"
,27045798,"Unitat de Gestió Documental, Arxiu i Registre de la Universitat de Girona","Unitat de Gestió Documental, Arxiu i Registre de la Universitat de Girona","Cultura|Arxius||","archive",,,,,,"Plaça de Sant Domènec",,3,,,17071,"Girona",170792,"Gironès","+34-972418074","972418074",485696800,4648228500,"2.827330853","41.985930287","arxiuiregistre@udg.es","http://www.udg.edu/arxiu/","07/10/2024 07:30:23 AM","Titularitat|Corporacions i entitats oficials: universitari","POINT (2.8273308 41.98593)"
,27042386,"Arxiu Municipal de Ripoll","Arxiu Municipal de Ripoll","Cultura|Arxius||","archive",,,,,,"Plaça de l'Ajuntament",,3,,,17500,"Ripoll",171479,"Ripollès","+34-972714142","972714142",433194940,4672412000,"2.190798188","42.201015137",,,"07/10/2024 07:21:17 AM","Titularitat|Administració local: municipal","POINT (2.1907983 42.201015)"
,27045902,"Arxiu Històric Municipal de Sant Joan de les Abadesses","Arxiu Històric Municipal de Sant Joan de les Abadesses","Cultura|Arxius||","archive",,,,,,"Plaça Major",,3,,,17860,"Sant Joan de les Abadesses",171674,"Ripollès","+34-972720100","972720100",440993780,4675856000,"2.284907179","42.232657958","arxiu@santjoandelesabadesses.cat","http://www.santjoandelesabadesses.cat","07/10/2024 07:31:55 AM","Titularitat|Administració local: municipal","POINT (2.284907 42.23266)"
,27041734,"Arxiu Municipal de Maçanet de la Selva","Arxiu Municipal de Maçanet de la Selva","Cultura|Arxius||","archive",,,,,,"Carrer de Salvador Espriu",,3,,,17412,"Maçanet de la Selva",171030,"Selva","+34-972859850","972859850",477603900,4624987000,"2.730514680","41.776411281","arxiu@massanetdelaselva.cat","http://www.massanetdelaselva.org/index.php/serveis/arxiu","07/10/2024 07:33:29 AM","Titularitat|Administració local: municipal","POINT (2.7305148 41.776413)"
,27043772,"Arxiu Comarcal del Baix Camp","Arxiu Comarcal del Baix Camp","Cultura|Arxius||","archive",,,,,,"Carrer de Sant Antoni Maria Claret",,3,,,43204,"Reus",431233,"Baix Camp","+34-977010054","977010054",341711120,4557472500,"1.113556664","41.153140677","acbaixcamp.cultura@gencat.cat","http://cultura.gencat.cat/arxius/acbc","07/10/2024 07:36:24 AM","Titularitat|Generalitat de Catalunya: comarcal","POINT (1.1135566 41.15314)"
,27042089,"Arxiu Municipal de Reus","Arxiu Municipal de Reus","Cultura|Arxius||","archive",,,,,,"Carrer de Sant Antoni Maria Claret ",,3,,,43204,"Reus",431233,"Baix Camp","+34-977010054","977010054",341711120,4557472500,"1.113556664","41.153140677","arxiumunicipal@reus.cat","http://www.reus.cat/arxiu","07/10/2024 07:32:29 AM","Titularitat|Administració local: municipal","POINT (1.1135566 41.15314)"
,27044942,"Arxiu del Consell Comarcal del Tarragonès","Arxiu del Consell Comarcal del Tarragonès","Cultura|Arxius||","archive",,,,,,"Carrer de les Coques",,3,,,43003,"Tarragona",431482,"Tarragonès","+34-977244500","977244500",353810300,4553433500,"1.258647272","41.119045038","arxiucomarcal@tarragones.cat","http://www.tarragones.cat/cultura/arxiu-i-gestio-documental/arxiu-del-consell-comarcal-del-tarragones-accta","07/10/2024 07:31:27 AM","Titularitat|Administració local: consell comarcal","POINT (1.2586473 41.119045)"
,27042561,"Arxiu Municipal Contemporani de Barcelona","Arxiu Municipal Contemporani de Barcelona","Cultura|Arxius||","archive",,,,,,"Carrer del Bisbe Caçador",,4,,,"08002","Barcelona",80193,"Barcelonès","+34-932562747","932562747",431332720,4581610000,"2.178749457","41.383085913","arxiucontemporani@bcn.cat","https://ajuntament.barcelona.cat/arxiumunicipal/arxiucontemporani/ca","07/10/2024 07:28:46 AM","Titularitat|Administració local: municipal","POINT (2.1787496 41.383087)"
,27044551,"Arxiu Històric del Col·legi d'Arquitectes de Catalunya. Demarcació Barcelona","Arxiu Històric del Col·legi d'Arquitectes de Catalunya. Demarcació Barcelona","Cultura|Arxius||","archive",,,,,,"Carrer dels Arcs",,4,4,,"08002","Barcelona",80193,"Barcelonès","+34-933067843","933067843",430983400,4581773000,"2.174553489","41.384524114","arxiuhistoricbcn@coac.cat","http://www.arquitectes.cat/ca/arquitectes/departaments/arxiu","07/10/2024 07:35:44 AM","Titularitat|Corporacions i entitats oficials: col.legi professional","POINT (2.1745534 41.384525)"
,27040896,"Arxiu Històric de Protocols de Barcelona","Arxiu Històric de Protocols de Barcelona","Cultura|Arxius||","archive",,,,,,"Carrer del Notariat",,4,,,"08001","Barcelona",80193,"Barcelonès","+34-933174800","933174800",430527970,4581616000,"2.169125043","41.383070864","archivo-historico@catalunya.notariado.org","https://arxiu.notarisdecatalunya.org/Documento/Seleccion","07/10/2024 07:28:41 AM","Titularitat|Corporacions i entitats oficials: col.legi professional","POINT (2.169125 41.38307)"
,27045693,"Arxiu Central Administratiu del Departament de la Presidència","Arxiu Central Administratiu del Departament de la Presidència","Cultura|Arxius||","archive",,,,,,"Plaça de Sant Jaume",,4,,,"08002","Barcelona",80193,"Barcelonès","+34-934024600","934024600",431169470,4581580500,"2.176800555","41.382806265","arxiu_central.presidencia@gencat.cat","https://cultura.gencat.cat/ca/departament/estructura_i_adreces/organismes/dgpc/temes/arxius_i_gestio_documental/gestiodocumental/gdgencat/aca/departaments/pre/","07/10/2024 07:28:24 AM","Titularitat|Generalitat de Catalunya: central administratiu de departament","POINT (2.1768005 41.382805)"
,27045240,"Arxiu Històric Municipal d'Argentona ""Jaume Clavell i Nogueras""","Arxiu Històric Municipal d'Argentona ""Jaume Clavell i Nogueras""","Cultura|Arxius||","archive",,,,,,"Plaça de l'Església",,4,,,"08310","Argentona",80095,"Maresme","+34-937974900","937974900",450022000,4600430500,"2.400697500","41.553980469","arxiu@argentona.cat","https://argentona.cat/servei.php?id=27","07/10/2024 07:28:41 AM","Titularitat|Administració local: municipal","POINT (2.4006975 41.55398)"
,27045839,"Arxiu Municipal de Sant Celoni","Arxiu Municipal de Sant Celoni","Cultura|Arxius||","archive",,,,,,"Carrer de Campins",,4,,,"08470","Sant Celoni",82021,"Vallès Oriental","+34-938671125","938671125",457622470,4615556500,"2.490762682","41.690657800","arxiu@santceloni.cat","https://santceloni.cat/document.php?id=9716&per_imprimir=1","07/10/2024 07:28:08 AM","Titularitat|Administració local: municipal","POINT (2.4907627 41.69066)"
,27044618,"Arxiu Municipal de Sant Hilari Sacalm","Arxiu Municipal de Sant Hilari Sacalm","Cultura|Arxius||","archive",,,,,,"Plaça de Gravalosa",,4,,,17403,"Sant Hilari Sacalm",171642,"Selva","+34-972868656","972868656",459338970,4636446500,"2.509957967","41.878896831","arxiu@santhilari.cat","https://www.santhilari.cat/viusanthilari/arxiu/","07/10/2024 07:27:13 AM","Titularitat|Administració local: municipal","POINT (2.509958 41.8789)"
,27041019,"Dipòsit d'Arxius de Cervera","Dipòsit d'Arxius de Cervera","Cultura|Arxius||","archive",,,,,,"Carrer de Manuel Ibarra",,4,,,25200,"Cervera",250729,"Segarra","+34-973531718","973531718",356377600,4614697000,"1.274686000","41.671092792","dipositcervera.cultura@gencat.cat","http://cultura.gencat.cat/arxius/dac","07/10/2024 07:36:19 AM","Titularitat|Generalitat de Catalunya: comarcal","POINT (1.274686 41.671093)"
,27042091,"Arxiu Municipal de Cambrils","Arxiu Municipal de Cambrils","Cultura|Arxius||","archive",,,,,,"Plaça de l'Ajuntament",,4,,,43850,"Cambrils",430385,"Baix Camp","+34-977794579","977794579",336809720,4548456500,"1.057569621","41.070999553","potina@cambrils.cat","http://www.cambrils.cat/arxiu","07/10/2024 07:34:59 AM","Titularitat|Administració local: municipal","POINT (1.0575696 41.071)"
,27042625,"Arxiu Central dels Jutjats de Tortosa","Arxiu Central dels Jutjats de Tortosa","Cultura|Arxius||","archive",,,,,,"Plaça dels Estudis",,4,,,43500,"Tortosa",431554,"Baix Ebre","+34-977923195","977923195",291182100,4521058500,"0.524135093","40.813990924","arxiu.tortosa@xij.gencat.cat",,"07/10/2024 07:20:23 AM","Titularitat|Generalitat de Catalunya: Administració de Justícia","POINT (0.5241351 40.81399)"
,27041227,"Arxiu Central dels Jutjats de Gandesa","Arxiu Central dels Jutjats de Gandesa","Cultura|Arxius||","archive",,,,,,"Avinguda de Joan Perucho",,4,,,43780,"Gandesa",430640,"Terra Alta","+34-977923195","977923195",284974620,4548378500,"0.441128404","41.058251452","arxiu.gandesa@xij.gencat.cat",,"07/10/2024 07:22:28 AM","Titularitat|Generalitat de Catalunya: Administració de Justícia","POINT (0.4411284 41.05825)"
,27043439,"Arxiu Central dels Jutjats de Vielha e Mijaran","Arxiu Central dels Jutjats de Vielha e Mijaran","Cultura|Arxius||","archive",,,,,,"Plaça de Mossèn Joan Casseny",,4,,,25530,"Vielha e Mijaran",252430,"Val d'Aran","+34-973 700279","973 700279",319373600,4730220000,"0.794580674","42.703247072","arxiu.vielhaemijaran@xij.gencat.cat",,"07/10/2024 07:20:05 AM","Titularitat|Generalitat de Catalunya: Administració de Justícia","POINT (0.7945807 42.703247)"
,27042528,"Arxiu Central de Seguretat i Prevenció","Arxiu Central de Seguretat i Prevenció","Cultura|Arxius||","archive",,,,,,"Carrer de Coll i Alentorn",,5,,,"08035","Barcelona",80193,"Barcelonès","+34-932566626","932566626",428529780,4586217500,"2.144686196","41.424339709","ap@bcn.cat","https://ajuntament.barcelona.cat/arxiumunicipal/ca/arxius-centrals","07/10/2024 07:28:44 AM","Titularitat|Administració local: municipal","POINT (2.1446862 41.42434)"
,27044644,"Arxiu Diocesà de Barcelona","Arxiu Diocesà de Barcelona","Cultura|Arxius||","archive",,,,,,"Carrer del Bisbe",,5,,,"08002","Barcelona",80193,"Barcelonès","+34-932701017","932701017",431068560,4581697500,"2.175580501","41.383851409","arxiudb@arqbcn.cat","http://sun1.arqbcn.org/arquebis/catmusd/arxiu/arxiu.html","07/10/2024 07:35:58 AM","Titularitat|Església catòlica: diocesà","POINT (2.1755805 41.38385)"
,27041464,"Arxiu Municipal de Sant Adrià de Besòs ""Isabel Rojas Castroverde""","Arxiu Municipal de Sant Adrià de Besòs ""Isabel Rojas Castroverde""","Cultura|Arxius||","archive",,,,,,"Carrer de Mossen Josep Pons",,5,,,"08930","Sant Adrià de Besòs",81944,"Barcelonès","+34-933812004","933812004",434571380,4586922500,"2.216905452","41.431204218","arxiu@sant-adria.net","http://www.sant-adria.net/arxiu","07/10/2024 07:32:16 AM","Titularitat|Administració local: municipal","POINT (2.2169054 41.431206)"
,27041050,"Arxiu Municipal de Santa Perpètua de Mogoda","Arxiu Municipal de Santa Perpètua de Mogoda","Cultura|Arxius||","archive",,,,,,"Plaça de la Vila",,5,,,"08130","Santa Perpètua de Mogoda",82606,"Vallès Occidental","+34-935743234","935743234",431883530,4598420500,"2.183439404","41.534538260","arxiu@staperpetua.cat","http://www.staperpetua.cat/ser_gen/arxiu.htm","07/10/2024 07:31:32 AM","Titularitat|Administració local: municipal","POINT (2.1834395 41.53454)"
,27043361,"Arxiu Municipal de Corbera de Llobregat","Arxiu Municipal de Corbera de Llobregat","Cultura|Arxius||","archive",,,,,,"Carrer de la Pau",,5,,,"08757","Corbera de Llobregat",80728,"Baix Llobregat","+34-936500211","936500211",410393720,4585524500,"1.927779897","41.416280479","nfusalba@corberadellobregat.cat","http://www.corberadellobregat.cat/","07/10/2024 07:34:37 AM","Titularitat|Administració local: municipal","POINT (1.9277799 41.41628)"
,27042042,"Arxiu Central dels Jutjats de Berga","Arxiu Central dels Jutjats de Berga","Cultura|Arxius||","archive",,,,,,"Carrer del Programari Lliure",,5,,,"08600","Berga",80229,"Berguedà","+34-936936802","936936802",404091620,4661182500,"1.840180117","42.096870127","arxiu.berga@xij.gencat.cat",,"07/10/2024 07:23:04 AM","Titularitat|Generalitat de Catalunya: Administració de Justícia","POINT (1.8401802 42.09687)"
,27040610,"Arxiu Municipal de Manresa","Arxiu Municipal de Manresa","Cultura|Arxius||","archive",,,,,,"Plaça Major",,5,,,"08241","Manresa",81136,"Bages","+34-938782445","938782445",402447800,4619717500,"1.827161181","41.723279017","arxiu_municipal@ajmanresa.cat","http://www.ajmanresa.cat/web/contingut.php?id_menu=1202&parent=58&area=2","07/10/2024 07:35:53 AM","Titularitat|Administració local: municipal","POINT (1.8271612 41.723278)"
,27040890,"Arxiu Municipal de Llagostera","Arxiu Municipal de Llagostera","Cultura|Arxius||","archive",,,,,,"Plaça del Mercat",,5,,,17240,"Llagostera",170890,"Gironès","+34-972805436","972805436",491014000,4630691500,"2.891787355","41.828056672","arxiu@llagostera.cat","http://llagostera.cat","07/10/2024 07:36:13 AM","Titularitat|Administració local: municipal","POINT (2.8917873 41.828056)"
,27045494,"Arxiu Diocesà de Tortosa","Arxiu Diocesà de Tortosa","Cultura|Arxius||","archive",,,,,,"Carrer de Cruera",,5,,,43500,"Tortosa",431554,"Baix Ebre","+34-977440700","977440700",290971500,4521058000,"0.521640491","40.813932830","recepcio@bisbattortosa.org",,"07/10/2024 07:20:23 AM","Titularitat|Església catòlica: diocesà","POINT (0.5216405 40.813934)"
,27042134,"Arxiu Municipal de Mont-roig del Camp","Arxiu Municipal de Mont-roig del Camp","Cultura|Arxius||","archive",,,,,,"Carrer de la Mare de Déu de la Roca",,5,,,43300,"Mont-roig del Camp",430923,"Baix Camp","+34-977838155","977838155",328492970,4550461500,"0.958076398","41.087338534","arxiu@mont-roig.cat","https://mont-roig.cat/lajuntament/atencio-ciutadana/arxiu-municipal/","07/10/2024 07:28:16 AM","Titularitat|Administració local: municipal","POINT (0.9580764 41.087337)"
,27045049,"Arxiu Municipal del Morell","Arxiu Municipal del Morell","Cultura|Arxius||","archive",,,,,,"Plaça de l'Era del Castell",,5,,,43760,"Morell, el",430957,"Tarragonès","+34-977840617","977840617",349771120,4561634500,"1.208546560","41.192146323","arxiu@morell.altanet.org","https://elmorell.cat/","07/10/2024 07:28:21 AM","Titularitat|Administració local: municipal","POINT (1.2085465 41.192146)"
,27043396,"Arxiu Comarcal d'Osona","Arxiu Comarcal d'Osona","Cultura|Arxius||","archive",,,,,,"Carrer de l'Era d'en Sellés",,6,,,"08500","Vic",82981,"Osona","+34-670544312","670544312",438061900,4643140000,"2.252843975","41.937798416","acosona.cultura@gencat.cat","http://cultura.gencat.cat/arxius/acos","07/10/2024 07:36:23 AM","Titularitat|Generalitat de Catalunya: comarcal","POINT (2.2528439 41.937798)"
,27041204,"Arxiu Central Administratiu del Consorci d'Educació de Barcelona","Arxiu Central Administratiu del Consorci d'Educació de Barcelona","Cultura|Arxius||","archive",,,,,,"Plaça d'Urquinaona",,6,,,"08010","Barcelona",80193,"Barcelonès","+34-935511000","935511000",430864600,4582335000,"2.173068633","41.389575674","arxiu.ceb@gencat.cat","http://www.edubcn.cat/ca/","07/10/2024 07:34:31 AM","Titularitat|Generalitat de Catalunya: central administratiu de departament","POINT (2.1730685 41.389576)"
,27041996,"Arxiu Municipal de Montcada i Reixac","Arxiu Municipal de Montcada i Reixac","Cultura|Arxius||","archive",,,,,,"Avinguda de la Unitat",,6,,,"08110","Montcada i Reixac",81252,"Vallès Occidental","+34-935726474","935726474",432152840,4592311500,"2.187355831","41.479540217","arxiumunicipal@montcada.org","https://www.montcada.cat/ajuntament/arxiu-municipal/","07/10/2024 07:27:29 AM","Titularitat|Administració local: municipal","POINT (2.1873558 41.47954)"
,27042651,"Arxiu Comarcal de l'Alt Penedès","Arxiu Comarcal de l'Alt Penedès","Cultura|Arxius||","archive",,,,,,"Avinguda d'Europa",,6,,,"08720","Vilafranca del Penedès",83054,"Alt Penedès","+34-938172311","938172311",391365100,4577393500,"1.701593850","41.340711244","acaltpenedes.cultura@gencat.cat","http://cultura.gencat.cat/arxius/acap","07/10/2024 07:36:25 AM","Titularitat|Generalitat de Catalunya: comarcal","POINT (1.7015939 41.34071)"
,27040820,"Arxiu Municipal de Manlleu","Arxiu Municipal de Manlleu","Cultura|Arxius||","archive",,,,,,"Plaça de Fra Bernardí",,6,,,"08560","Manlleu",81120,"Osona","+34-938506666","938506666",440672560,4650018000,"2.283640114","41.999942367","arxiu@manlleu.cat","http://www.manlleu.cat/ca-es/ajuntament/ArxiuMunicipalContingut.aspx","07/10/2024 07:33:35 AM","Titularitat|Administració local: municipal","POINT (2.2836401 41.999943)"
,27042859,"Arxiu Municipal de Cubelles","Arxiu Municipal de Cubelles","Cultura|Arxius||","archive",,,,,,"Carrer de Joan XXIII",,6,,,"08880","Cubelles",80749,"Garraf","+34-938950300","938950300",388545720,4562770500,"1.670580083","41.208640620","arxiu@cubelles.cat","http://arxiu.cubelles.cat","07/10/2024 07:36:36 AM","Titularitat|Administració local: municipal","POINT (1.67058 41.20864)"
,27043273,"INSPAI, Centre de la Imatge de la Diputació de Girona","INSPAI, Centre de la Imatge de la Diputació de Girona","Cultura|Arxius||","archive",,,,,,"Plaça de l'Hospital",,6,,,17004,"Girona",170792,"Gironès","+34-972185058","972185058",485169030,4647736500,"2.820972024","41.981489256","info@inspai.cat","http://www.inspai.cat","07/10/2024 07:33:54 AM","Titularitat|Administració local: diputació provincial","POINT (2.820972 41.98149)"
,27044150,"Arxiu Central dels Jutjats d'Olot","Arxiu Central dels Jutjats d'Olot","Cultura|Arxius||","archive",,,,,,"Plaça de Can Joanetes",,6,,,17800,"Olot",171143,"Garrotxa","+34-972276204","972276204",457460720,4670311500,"2.484865559","42.183794852","arxiu.olot@xij.gencat.cat",,"07/10/2024 07:21:44 AM","Titularitat|Generalitat de Catalunya: Administració de Justícia","POINT (2.4848657 42.183796)"
,27042730,"Arxiu Municipal de Caldes de Malavella","Arxiu Municipal de Caldes de Malavella","Cultura|Arxius||","archive",,,,,,"Rambla de la Llibertat",,6,,,17455,"Caldes de Malavella",170335,"Selva","+34-972472350","972472350",484201750,4631872000,"2.809720643","41.838582718","biblioteca@caldesdemalavella.cat","https://caldesdemalavella.cat/index.php/ca/ajuntament-ca-es/ajuntament-dependencies-ca-es/dependencies-biblioteca-arxiu-ca-es","07/10/2024 07:28:27 AM","Titularitat|Administració local: municipal","POINT (2.8097208 41.83858)"
,27041863,"Arxiu Històric Municipal d'Arbúcies","Arxiu Històric Municipal d'Arbúcies","Cultura|Arxius||","archive",,,,,,"Carrer Major",,6,,,17401,"Arbúcies",170097,"Selva","+34-972860908","972860908",459615780,4629460000,"2.513770640","41.815986528","memga@arbucies.org","http://www.museuetnologicmontseny.org","07/10/2024 07:33:00 AM","Titularitat|Administració local: municipal","POINT (2.5137706 41.815987)"
,27042996,"Arxiu Comarcal de la Noguera","Arxiu Comarcal de la Noguera","Cultura|Arxius||","archive",,,,,,"Plaça dels Comtes d'Urgell",,6,,,25600,"Balaguer",250404,"Noguera","+34-973443056","973443056",317580780,4628625000,"0.804653560","41.788513236","acnoguera.cultura@gencat.cat","http://cultura.gencat.cat/arxius/acn","07/10/2024 07:36:23 AM","Titularitat|Generalitat de Catalunya: comarcal","POINT (0.8046536 41.788513)"
,27043889,"Arxiu Central dels Jutjats de la Seu d'Urgell","Arxiu Central dels Jutjats de la Seu d'Urgell","Cultura|Arxius||","archive",,,,,,"Plaça de Jacint Verdaguer",,6,,,25700,"Seu d'Urgell, la",252038,"Alt Urgell","+34-973 700279","973 700279",372916220,4690893500,"1.456788650","42.359930971","arxiu.laseudurgell@xij.gencat.cat",,"07/10/2024 07:20:44 AM","Titularitat|Generalitat de Catalunya: Administració de Justícia","POINT (1.4567887 42.359932)"
,27042081,"Arxiu Històric Fàbregas","Arxiu Històric Fàbregas","Cultura|Arxius||","archive",,,,,,"Carrer de la Mercè Rodoreda",,7,,,"08295","Sant Vicenç de Castellet",82628,"Bages","+34-615887885","615887885",405996120,4613088500,"1.870858005","41.664009714","miqueldefabregas@gmail.com",,"07/10/2024 07:20:52 AM","Titularitat|Privats: altres","POINT (1.870858 41.66401)"
,27043492,"Arxiu del Síndic de Greuges de Catalunya","Arxiu del Síndic de Greuges de Catalunya","Cultura|Arxius||","archive",,,,,,"Passeig de Lluís Companys",,7,,,"08003","Barcelona",80193,"Barcelonès","+34-900124124","900124124",431525660,4582383500,"2.180969338","41.390069048",,,"07/10/2024 07:23:20 AM","Titularitat|Generalitat de Catalunya: organismes autònoms i empreses públiques","POINT (2.1809692 41.390068)"
,27043424,"Arxiu Parroquial de Santa Maria del Pi","Arxiu Parroquial de Santa Maria del Pi","Cultura|Arxius||","archive",,,,,,"Plaça del Pi",,7,,,"08002","Barcelona",80193,"Barcelonès","+34-933184743","933184743",430916100,4581527500,"2.173776644","41.382307193","apsmp@apsmp.cat","http://www.apsmp.cat","07/10/2024 07:35:46 AM","Titularitat|Església catòlica: parroquial","POINT (2.1737766 41.38231)"
,27042361,"Arxiu Municipal de Sant Vicenç dels Horts","Arxiu Municipal de Sant Vicenç dels Horts","Cultura|Arxius||","archive",,,,,,"Passatge de Pau Vila",,7,,,"08620","Sant Vicenç dels Horts",82634,"Baix Llobregat","+34-936564941","936564941",417188380,4582649000,"2.009465393","41.391111911","arxiu@svh.cat","http://www.svh.cat/arxiu","07/10/2024 07:31:29 AM","Titularitat|Administració local: municipal","POINT (2.0094655 41.391113)"
,27041668,"Arxiu Municipal de Canovelles","Arxiu Municipal de Canovelles","Cultura|Arxius||","archive",,,,,,"Carrer de Gregorio Marañón",,7,,,"08420","Canovelles",80410,"Vallès Oriental","+34-938406976","938406976",440375780,4608524000,"2.284229716","41.626214464","arxiu@canovelles.cat","http://www.canovelles.cat/serveis-i-tramits/serveis/gestio-documental-i-arxiu.html","07/10/2024 07:34:54 AM","Titularitat|Administració local: municipal","POINT (2.2842298 41.626213)"
,27040978,"Arxiu Municipal de Granollers","Arxiu Municipal de Granollers","Cultura|Arxius||","archive",,,,,,"Carrer de Sant Josep",,7,,,"08401","Granollers",80961,"Vallès Oriental","+34-938426737","938426737",440322970,4606447500,"2.283802737","41.607508383","arxiu@granollers.cat","http://www.granollers.cat/arxiu","07/10/2024 07:34:01 AM","Titularitat|Administració local: municipal","POINT (2.2838027 41.60751)"
,27042406,"Arxiu Central dels Jutjats de Figueres","Arxiu Central dels Jutjats de Figueres","Cultura|Arxius||","archive",,,,,,"Carrer d'Arnera",,7,,,17600,"Figueres",170669,"Alt Empordà","+34-972943585","972943585",495872970,4678921000,"2.949961082","42.262480367","arxiu.figueres@xij.gencat.cat",,"07/10/2024 07:22:33 AM","Titularitat|Generalitat de Catalunya: Administració de Justícia","POINT (2.9499612 42.26248)"
,27044483,"Arxiu Central Administratiu del Departament de Cultura","Arxiu Central Administratiu del Departament de Cultura","Cultura|Arxius||","archive",,,,,,"Rambla de Santa Mònica",,8,,,"08002","Barcelona",80193,"Barcelonès","+34-933162700","933162700",431016000,4580967000,"2.175035101","41.377267505","arxiu.cultura@gencat.cat",,"07/10/2024 07:23:24 AM","Titularitat|Generalitat de Catalunya: central administratiu de departament","POINT (2.175035 41.377266)"
,27041397,"Arxiu del Consell de Garanties Estatutàries","Arxiu del Consell de Garanties Estatutàries","Cultura|Arxius||","archive",,,,,,"Baixada de Sant Miquel",,8,,,"08002","Barcelona",80193,"Barcelonès","+34-933176268","933176268",431183000,4581450000,"2.176977175","41.381632047",,,"07/10/2024 07:23:20 AM","Titularitat|Generalitat de Catalunya: organismes autònoms i empreses públiques","POINT (2.1769772 41.381634)"
,27040736,"Fundació Gas Natural","Fundació Gas Natural","Cultura|Arxius||","archive",,,,,,"Plaça del Gas",,8,,,"08201","Sabadell",81878,"Vallès Occidental","+34-934025825","934025825",425508700,4599703000,"2.106869402","41.545520851","ebuch@gasnaturalfenosa.com","http://www.fundaciongasnaturalfenosa.org/museo/ca/arxiu-historic/","07/10/2024 07:34:13 AM","Titularitat|Privats: altres","POINT (2.1068695 41.54552)"
,27043079,"Arxiu Municipal de Vilanova i la Geltrú","Arxiu Municipal de Vilanova i la Geltrú","Cultura|Arxius||","archive",,,,,,"Plaça de la Vila",,8,,,"08800","Vilanova i la Geltrú",83073,"Garraf","+34-938140000","938140000",393216300,4564417000,"1.725989286","41.224098047",,,"07/10/2024 07:19:55 AM","Titularitat|Administració local: municipal","POINT (1.7259893 41.2241)"
,27042884,"Arxiu Històric de Moià","Arxiu Històric de Moià","Cultura|Arxius||","archive",,,,,,"Carrer de Rafael Casanova",,8,,,"08180","Moià",81385,"Moianès","+34-938300143","938300143",425089120,4629252500,"2.098131227","41.811606242","arxiu@arxiu.moia.cat","http://www.arxiu.moia.cat","07/10/2024 07:35:44 AM","Titularitat|Administració local: municipal","POINT (2.0981312 41.811607)"
,27042237,"Arxiu Municipal de Palafrugell","Arxiu Municipal de Palafrugell","Cultura|Arxius||","archive",,,,,,"Plaça de l'Església",,8,,,17200,"Palafrugell",171175,"Baix Empordà","+34-972307854","972307854",513587750,4640591500,"3.163855967","41.917158731","arxiu@palafrugell.net","http://www.palafrugell.cat/serveis-ciutadania/arxiu-municipal","07/10/2024 07:32:45 AM","Titularitat|Administració local: municipal","POINT (3.163856 41.91716)"
,27045039,"Arxiu Històric del Col·legi d'Arquitectes de Catalunya. Demarcació Girona","Arxiu Històric del Col·legi d'Arquitectes de Catalunya. Demarcació Girona","Cultura|Arxius||","archive",,,,,,"Plaça de la Catedral",,8,,,17004,"Girona",170792,"Gironès","+34-972412727","972412727",485530660,4648366000,"2.825321824","41.987165667","arxiuh.gir@coac.net","http://www.coac.net/Girona/fhomegirona.htm","07/10/2024 07:34:39 AM","Titularitat|Corporacions i entitats oficials: col.legi professional","POINT (2.825322 41.987167)"
,27043026,"Arxiu Comarcal del Baix Empordà","Arxiu Comarcal del Baix Empordà","Cultura|Arxius||","archive",,,,,,"Carrer del Teatre Vell",,8,,,17100,"Bisbal d'Empordà, la",170221,"Baix Empordà","+34-972641093","972641093",503385220,4645123000,"3.040848802","41.958082531","acbaixemporda.cultura@gencat.cat","http://cultura.gencat.cat/arxius/acbe","07/10/2024 07:36:24 AM","Titularitat|Generalitat de Catalunya: comarcal","POINT (3.0408487 41.958084)"
,27043359,"Arxiu Municipal de Bellpuig","Arxiu Municipal de Bellpuig","Cultura|Arxius||","archive",,,,,,"Carrer de l'Homenatge a La Vellesa",,8,,,25250,"Bellpuig",250501,"Urgell","+34-973320408","973320408",334368800,4610107000,"1.011712125","41.625502800","ajuntament@bellpuig.cat","https://www.bellpuig.cat/","07/10/2024 07:27:54 AM","Titularitat|Administració local: municipal","POINT (1.0117121 41.625504)"
,27040851,"Arxiu Municipal de Torredembarra","Arxiu Municipal de Torredembarra","Cultura|Arxius||","archive",,,,,,"Plaça del Castell",,8,,,43830,"Torredembarra",431536,"Tarragonès","+34-977640025","977640025",365373440,4556196500,"1.395722768","41.145923758","arxiu@torredembarra.cat","http://www.torredembarra.cat","07/10/2024 07:31:07 AM","Titularitat|Administració local: municipal","POINT (1.3957227 41.145924)"
,27040956,"Arxiu Arbocenc","Arxiu Arbocenc","Cultura|Arxius||","archive",,,,,,"Carrer de la Missers",,8,,,43720,"Arboç, l'",430167,"Baix Penedès","+34-977670282","977670282",382992000,4569356500,"1.603091622","41.267165086",,,"07/10/2024 07:23:29 AM","Titularitat|Privats: altres","POINT (1.6030916 41.267166)"
,27043409,"Arxiu Històric Municipal de Sant Boi de Llobregat","Arxiu Històric Municipal de Sant Boi de Llobregat","Cultura|Arxius||","archive",,,,,,"Carrer de l'Hospital",,9,,,"08830","Sant Boi de Llobregat",82009,"Baix Llobregat","+34-936351200","936351200",420176100,4577738000,"2.045844062","41.347183513","ahmsbl@santboi.cat","http://www.santboi.cat/arxiuhistoric/","07/10/2024 07:32:13 AM","Titularitat|Administració local: municipal","POINT (2.045844 41.347183)"
,27044160,"Arxiu Municipal de Castellbisbal","Arxiu Municipal de Castellbisbal","Cultura|Arxius||","archive",,,,,,"Avinguda de Pau Casals",,9,,,"08755","Castellbisbal",80543,"Vallès Occidental","+34-937720225","937720225",415052660,4592111500,"1.982593281","41.476109761","arxiu@castellbisbal.cat","http://www.castellbisbal.cat/arxiu-municipal","07/10/2024 07:34:46 AM","Titularitat|Administració local: municipal","POINT (1.9825933 41.47611)"
,27043045,"Arxiu Municipal de Salt","Arxiu Municipal de Salt","Cultura|Arxius||","archive",,,,,,"Passatge de la Fàbrica Tèxtil Coma-Cros",,9,,,17190,"Salt",171557,"Gironès","+34-972249191","972249191",483066160,4647366500,"2.795598610","41.978114407","ARXIU@salt.cat","https://arxiumunicipaldesalt.wordpress.com/","07/10/2024 07:28:39 AM","Titularitat|Administració local: municipal","POINT (2.7955985 41.978115)"
,27042592,"Arxiu Municipal de Figueres","Arxiu Municipal de Figueres","Cultura|Arxius||","archive",,,,,,"Carrer de la Moreria",,9,,,17600,"Figueres",170669,"Alt Empordà","+34-972514989","972514989",496902880,4679435500,"2.962445658","42.267118850","arxiu@figueres.org","http://www.figueres.cat/cat/content/137/arxiu-municipal.html","07/10/2024 07:34:21 AM","Titularitat|Administració local: municipal","POINT (2.9624457 42.26712)"
,27045446,"Arxiu Comarcal de l’Alta Ribagorça","Arxiu Comarcal de l’Alta Ribagorça","Cultura|Arxius||","archive",,,,,,"Carrer del Pont",,9,,,25520,"Pont de Suert, el",251734,"Alta Ribagorça","+34-1111111111","1111111111",314033560,4697428500,"0.740106023","42.406891198",,,"07/10/2024 07:21:34 AM","Titularitat|Generalitat de Catalunya: comarcal","POINT (0.74010605 42.40689)"
,27043068,"Arxiu Central dels Jutjats de Vilafranca del Penedès","Arxiu Central dels Jutjats de Vilafranca del Penedès","Cultura|Arxius||","archive",,,,,,"Avinguda d'Europa",,10,,,"08720","Vilafranca del Penedès",83054,"Alt Penedès","+34-936570155","936570155",391347600,4577370500,"1.701388857","41.340501760","arxiu.vilafranca@xij.gencat.cat",,"07/10/2024 07:19:59 AM","Titularitat|Generalitat de Catalunya: Administració de Justícia","POINT (1.7013888 41.3405)"
,27045700,"Arxiu Municipal de La Roca del Vallès","Arxiu Municipal de La Roca del Vallès","Cultura|Arxius||","archive",,,,,,"Carrer de Lope de Vega",,10," 1ª planta",,"08430","Roca del Vallès, la",81810,"Vallès Oriental","+34-938424461","938424461",443782880,4603691000,"2.325581531","41.582932643","arxiu@laroca.cat","http://www.laroca.cat","07/10/2024 07:33:48 AM","Titularitat|Administració local: municipal","POINT (2.3255816 41.58293)"
,27045652,"Arxiu Comarcal del Vallès Oriental","Arxiu Comarcal del Vallès Oriental","Cultura|Arxius||","archive",,,,,,"Carrer de l'Olivar",,10,,,"08402","Granollers",80961,"Vallès Oriental","+34-938611908","938611908",441448840,4606524000,"2.297306089","41.608280766","acvallesoriental.cultura@gencat.cat","http://cultura.gencat.cat/arxius/acvo","07/10/2024 07:36:20 AM","Titularitat|Generalitat de Catalunya: comarcal","POINT (2.297306 41.60828)"
,27040752,"Arxiu Municipal de Tona","Arxiu Municipal de Tona","Cultura|Arxius||","archive",,,,,,"Carrer de la Font",,10,,,"08551","Tona",82830,"Osona","+34-938870201","938870201",436011120,4633414000,"2.229161634","41.850042259","tona.arxiu@tona.cat","https://www.tona.cat/municipi/guia-del-municipi/equipaments/2013-10-24-arxiu-municipal-de-tona.html","07/10/2024 07:27:03 AM","Titularitat|Administració local: municipal","POINT (2.2291617 41.85004)"
,27044450,"Arxiu Municipal de la Bisbal de l'Empordà ","Arxiu Municipal de la Bisbal de l'Empordà ","Cultura|Arxius||","archive",,,,,,"Plaça del Castell",,10,,,17100,"Bisbal d'Empordà, la",170221,"Baix Empordà","+34-972640975","972640975",503122500,4645225500,"3.037679155","41.959006805",,,"07/10/2024 07:23:02 AM","Titularitat|Administració local: municipal","POINT (3.0376792 41.959007)"
,27044371,"Arxiu Històric Municipal de la Selva del Camp","Arxiu Històric Municipal de la Selva del Camp","Cultura|Arxius||","archive",,,,,,"Carrer de Tarragona",,10,,,43470,"Selva del Camp, la",431457,"Baix Camp","+34-977844630","977844630",344034800,4564039000,"1.139562610","41.212710293","arxiu@laselvadelcamp.cat","http://arxiu.laselvadelcamp.org","07/10/2024 07:36:36 AM","Titularitat|Administració local: municipal","POINT (1.1395626 41.21271)"
,27044141,"Arxiu Central dels Jutjats de Tarragona","Arxiu Central dels Jutjats de Tarragona","Cultura|Arxius||","archive",,,,,,"Avinguda de Lluís Companys",,10,,,43005,"Tarragona",431482,"Tarragonès","+34-977920016","977920016",352466720,4553582500,"1.242614461","41.120143631","arxiu.tarragona1@xij.gencat.cat",,"07/10/2024 07:20:39 AM","Titularitat|Generalitat de Catalunya: Administració de Justícia","POINT (1.2426145 41.120144)"
,27044397,"Arxiu Central de l'Audiència Provincial de Tarragona","Arxiu Central de l'Audiència Provincial de Tarragona","Cultura|Arxius||","archive",,,,,,"Avinguda de Lluís Companys",,10,,,43005,"Tarragona",431482,"Tarragonès","+34-977920018","977920018",352466720,4553582500,"1.242614461","41.120143631","arxiu.ap.tarragona@xij.gencat.cat",,"07/10/2024 07:20:39 AM","Titularitat|Generalitat de Catalunya: Administració de Justícia","POINT (1.2426145 41.120144)"
,27042240,"Arxiu Municipal de Palafolls","Arxiu Municipal de Palafolls","Cultura|Arxius||","archive",,,,,,"Plaça Major",,11,,,"08389","Palafolls",81555,"Maresme","+34-937620043","937620043",479126470,4612847500,"2.749260539","41.667112086","palafolls@palafolls.cat","https://www.palafolls.cat/","07/10/2024 07:27:24 AM","Titularitat|Administració local: municipal","POINT (2.7492604 41.66711)"
,27045653,"Arxiu Municipal de Canet de Mar","Arxiu Municipal de Canet de Mar","Cultura|Arxius||","archive",,,,,,"Carrer Ample",,11,,,"08360","Canet de Mar",80403,"Maresme","+34-937943940","937943940",465155720,4604154500,"2.581949023","41.588325508","canet.arxiu@canetdemar.cat","http://www.canetdemar.cat","07/10/2024 07:34:55 AM","Titularitat|Administració local: municipal","POINT (2.581949 41.588326)"
,27043819,"Arxiu Municipal de Caldes de Montbui","Arxiu Municipal de Caldes de Montbui","Cultura|Arxius||","archive",,,,,,"Plaça de la Font del Lleó",,11,,,"08140","Caldes de Montbui",80333,"Vallès Oriental","+34-938655656","938655656",430213060,4609532000,"2.162123497","41.634468479","arxiu@caldesdemontbui.cat","http://www.caldesdemontbui.cat","07/10/2024 07:35:09 AM","Titularitat|Administració local: municipal","POINT (2.1621234 41.634468)"
,27041536,"Arxiu Municipal de Begur","Arxiu Municipal de Begur","Cultura|Arxius||","archive",,,,,,"Carrer de Bonaventura Carreras",,11,,,17255,"Begur",170139,"Baix Empordà","+34-972624305","972624305",517295400,4644745000,"3.208688534","41.954495593","arxiumunicipal@begur.cat","http://www.begur.cat/web/cat/index.php","07/10/2024 07:35:36 AM","Titularitat|Administració local: municipal","POINT (3.2086885 41.954494)"
,27043037,"Arxiu Municipal de Sant Pol de Mar","Arxiu Municipal de Sant Pol de Mar","Cultura|Arxius||","archive",,,,,,"Carrer d'Ignasi Mas Morell",,12,,,"08395","Sant Pol de Mar",82359,"Maresme","+34-937603338","937603338",468381720,4605526500,"2.620580359","41.600817474","arxiu@santpol.cat","http://www.santpol.cat/arxiu","07/10/2024 07:31:49 AM","Titularitat|Administració local: municipal","POINT (2.6205804 41.60082)"
,27043918,"Arxiu Capitular de Girona","Arxiu Capitular de Girona","Cultura|Arxius||","archive",,,,,,"Partida de Sant Martí",,12,,,17004,"Girona",170792,"Gironès","+34-972487346","972487346",485631250,4648130000,"2.826541941","41.985041939","info@arxiuadg.org","https://www.arxiuadg.org","07/10/2024 07:27:56 AM","Titularitat|Església catòlica: capitular","POINT (2.826542 41.985043)"
,27043087,"Arxiu Diocesà de Girona","Arxiu Diocesà de Girona","Cultura|Arxius||","archive",,,,,,"Partida de Sant Martí",,12,,,17004,"Girona",170792,"Gironès","+34-972487346","972487346",485631250,4648130000,"2.826541941","41.985041939","info@arxiuadg.org","http://www.arxiuadg.org/ca/arxiu/","07/10/2024 07:35:44 AM","Titularitat|Església catòlica: diocesà","POINT (2.826542 41.985043)"
,27044992,"Arxiu Central dels Jutjats de la Bisbal d'Empordà","Arxiu Central dels Jutjats de la Bisbal d'Empordà","Cultura|Arxius||","archive",,,,,,"Carrer del Teatre Vell",,12,,,17100,"Bisbal d'Empordà, la",170221,"Baix Empordà","+34-972946200","972946200",503488800,4645133000,"3.042098741","41.958172147","arxiu.labisbal@xij.gencat.cat",,"07/10/2024 07:23:02 AM","Titularitat|Generalitat de Catalunya: Administració de Justícia","POINT (3.0420988 41.95817)"
,27044019,"Arxiu Històric Municipal de Súria","Arxiu Històric Municipal de Súria","Cultura|Arxius||","archive",,,,,,"Carrer d'Ernest Solvay",,13,,,"08260","Súria",82747,"Bages","+34-938682800","938682800",396551700,4631758000,"1.754193065","41.830957091","suria@suria.cat","https://xam.diba.cat/wiki/arxiu-municipal-de-suria","07/10/2024 07:26:57 AM","Titularitat|Administració local: municipal","POINT (1.7541931 41.830956)"
,27042072,"Arxiu Municipal de Blanes","Arxiu Municipal de Blanes","Cultura|Arxius||","archive",,,,,,"Carrer de la Unió",,13,,,17300,"Blanes",170237,"Selva","+34-972355268","972355268",482786120,4613753500,"2.793194993","41.675360036","arxiu@blanes.net","http://www.blanes.net/oiapdocs.nsf/idoc/arxiu.informacio_general","07/10/2024 07:35:23 AM","Titularitat|Administració local: municipal","POINT (2.793195 41.67536)"
,27041836,"Servei d'Arxiu Municipal de La Ràpita","Servei d'Arxiu Municipal de La Ràpita","Cultura|Arxius||","archive",,,,,,"Plaça de Carles III",,13,,,43540,"Sant Carles de la Ràpita",431362,"Montsià","+34-977740100","977740100",296365340,4499391000,"0.592577840","40.620270549","arxiu@larapita.cat","http://www.larapita.cat/ca/serveis/arxiu-municipal/servei-darxiu-municipal","07/10/2024 07:33:49 AM","Titularitat|Administració local: municipal","POINT (0.5925778 40.62027)"
,27041822,"Arxiu Central dels Jutjats del Vendrell","Arxiu Central dels Jutjats del Vendrell","Cultura|Arxius||","archive",,,,,,"Carrer de Francesc Riera",,13,,,43700,"Vendrell, el",431634,"Baix Penedès","+34-977924229","977924229",376903400,4563474000,"1.531611120","41.213288996","arxiu.vendrell@xij.gencat.cat",,"07/10/2024 07:20:07 AM","Titularitat|Generalitat de Catalunya: Administració de Justícia","POINT (1.5316111 41.213287)"
,27043685,"Arxiu Central dels Jutjats de Falset","Arxiu Central dels Jutjats de Falset","Cultura|Arxius||","archive",,,,,,"Carrer de Miquel Barceló",,13,,,43730,"Falset",430555,"Priorat","+34-977929130","977929130",317066530,4557017000,"0.820174775","41.143857631","arxiu.reus@xij.gencat.cat",,"07/10/2024 07:22:35 AM","Titularitat|Generalitat de Catalunya: Administració de Justícia","POINT (0.82017475 41.143856)"
,27044523,"Arxiu Joan Pelegrí","Arxiu Joan Pelegrí","Cultura|Arxius||","archive",,,,,,"Carrer del Consell de Cent",,14,,,"08014","Barcelona",80193,"Barcelonès","+34-934316200","934316200",428463700,4580833000,"2.144531712","41.375837767","arxiujp@joanpelegri.cat",,"07/10/2024 07:23:19 AM","Titularitat|Privat: entitats, associacions, fundacions","POINT (2.1445317 41.37584)"
,27041726,"Arxiu Central de l'Agència Catalana de Cooperació al Desenvolupament","Arxiu Central de l'Agència Catalana de Cooperació al Desenvolupament","Cultura|Arxius||","archive",,,,,,"Via Laietana",,14,,,"08003","Barcelona",80193,"Barcelonès","+34-935545400","935545400",431228750,4581812000,"2.177483186","41.384896387","arxiu.accd@gencat.cat",,"07/10/2024 07:23:22 AM","Titularitat|Generalitat de Catalunya: organismes autònoms i empreses públiques","POINT (2.177483 41.384895)"
,27042731,"Arxiu de la Comissió de Garantia del Dret d'Accés a la Informació Pública","Arxiu de la Comissió de Garantia del Dret d'Accés a la Informació Pública","Cultura|Arxius||","archive",,,,,,"Via Laietana",,14,,,"08003","Barcelona",80193,"Barcelonès","+34-938874357","938874357",431427880,4581625000,"2.179885747","41.383229130",,,"07/10/2024 07:23:21 AM","Titularitat|Generalitat de Catalunya: organismes autònoms i empreses públiques","POINT (2.1798859 41.38323)"
,27041485,"Arxiu Central Administratiu del Departament d’Acció Exterior i Unió Europea","Arxiu Central Administratiu del Departament d’Acció Exterior i Unió Europea","Cultura|Arxius||","archive",,,,,,"Via Laietana",,14,,,"08003","Barcelona",80193,"Barcelonès","+34-938876200","938876200",431427880,4581625000,"2.179885747","41.383229130","organitzacio.exi@gencat.cat",,"07/10/2024 07:23:24 AM","Titularitat|Generalitat de Catalunya: central administratiu de departament","POINT (2.1798859 41.38323)"
,27041265,"Arxiu Municipal de Vilafranca del Penedès","Arxiu Municipal de Vilafranca del Penedès","Cultura|Arxius||","archive",,,,,,"Carrer de la Cort",,14,,,"08720","Vilafranca del Penedès",83054,"Alt Penedès","+34-938920358","938920358",391071660,4578040000,"1.697971534","41.346493599",,,"07/10/2024 07:19:59 AM","Titularitat|Administració local: municipal","POINT (1.6979716 41.346493)"
,27041531,"Arxiu Comarcal del Solsonès","Arxiu Comarcal del Solsonès","Cultura|Arxius||","archive",,,,,,"Carrer dels Dominics",,14," 2ona ",,25280,"Solsona",252075,"Solsonès","+34-973481554","973481554",377345060,4650373000,"1.519089793","41.995821681","acsolsones.cultura@gencat.cat","http://cultura.gencat.cat/arxius/acs","07/10/2024 07:36:21 AM","Titularitat|Generalitat de Catalunya: comarcal","POINT (1.5190898 41.995823)"
,27041157,"Arxiu Comarcal de l'Anoia","Arxiu Comarcal de l'Anoia","Cultura|Arxius||","archive",,,,,,"Plaça del Rei",,15,,,"08700","Igualada",81022,"Anoia","+34-938044456","938044456",384923780,4603848000,"1.619584666","41.578037441","acanoia.cultura@gencat.cat","http://cultura.gencat.cat/arxius/acan","07/10/2024 07:36:25 AM","Titularitat|Generalitat de Catalunya: comarcal","POINT (1.6195847 41.578037)"
,27041892,"Arxiu Central dels Jutjats de Cervera","Arxiu Central dels Jutjats de Cervera","Cultura|Arxius||","archive",,,,,,"Carrer d'Estudivell",,15,,,25200,"Cervera",250729,"Segarra","+34-973700279","973700279",356035750,4614207500,"1.270699184","41.666624076","arxiu.cervera@xij.gencat.cat",,"07/10/2024 07:22:44 AM","Titularitat|Generalitat de Catalunya: Administració de Justícia","POINT (1.2706991 41.666626)"
,27042603,"Arxiu Municipal de Roda de Berà","Arxiu Municipal de Roda de Berà","Cultura|Arxius||","archive",,,,,,"Carrer de Joan Carles I",,15,,,43883,"Roda de Berà",431310,"Tarragonès","+34-977657009","977657009",370584060,4560551000,"1.456873313","41.185982667","arxiu@rodadebera.cat","http://www.rodadebera.org","07/10/2024 07:32:25 AM","Titularitat|Administració local: municipal","POINT (1.4568733 41.18598)"
,27043232,"Arxiu Històric de Comissions Obreres de Catalunya","Arxiu Històric de Comissions Obreres de Catalunya","Cultura|Arxius||","archive",,,,,,"Via Laietana",,16,,,"08003","Barcelona",80193,"Barcelonès","+34-934812707","934812707",431399250,4581654500,"2.179540029","41.383492387","arxiu@ccoo.cat","http://www.fciprianogarcia.ccoo.cat/ciprianogarcia/arxiuhistoric/index.aspx","07/10/2024 07:34:23 AM","Titularitat|Privat: entitats, associacions, fundacions","POINT (2.17954 41.38349)"
,27042421,"Arxiu Municipal del Districte de Sant Martí","Arxiu Municipal del Districte de Sant Martí","Cultura|Arxius||","archive",,,,,,"Avinguda del Bogatell",,17,,,"08005","Barcelona",80193,"Barcelonès","+34-932219444","932219444",432925500,4582664500,"2.197680299","41.392717895","amdsm@bcn.cat","http://ajuntament.barcelona.cat/arxiumunicipal/ca/sant-marti","07/10/2024 07:36:40 AM","Titularitat|Administració local: municipal","POINT (2.1976802 41.39272)"
,27042753,"Arxiu Històric de Sant Just Desvern","Arxiu Històric de Sant Just Desvern","Cultura|Arxius||","archive",,,,,,"Carrer de Carles Mercader",,17,,,"08960","Sant Just Desvern",82212,"Baix Llobregat","+34-934756335","934756335",422713160,4582121000,"2.075607760","41.386906364","amigobj@santjust.cat","http://www.santjust.cat/arxiu/index.htm","07/10/2024 07:31:53 AM","Titularitat|Administració local: municipal","POINT (2.0756078 41.386906)"
,27041866,"Arxiu Municipal del Districte de les Corts","Arxiu Municipal del Districte de les Corts","Cultura|Arxius||","archive",,,,,,"Plaça de Comas",,18,,,"08028","Barcelona",80193,"Barcelonès","+34-932916432","932916432",427238840,4581930500,"2.129754033","41.385612696","amdc@bcn.cat","https://ajuntament.barcelona.cat/arxiumunicipal/ca/les-corts","07/10/2024 07:28:43 AM","Titularitat|Administració local: municipal","POINT (2.129754 41.385612)"
,27043701,"Arxiu Històric de Sitges","Arxiu Històric de Sitges","Cultura|Arxius||","archive",,,,,,"Plaça de l'Ajuntament",,18,,,"08870","Sitges",82704,"Garraf","+34-938117628","938117628",400444750,4565518000,"1.812032302","41.234935368","miretmx@sitges.cat","https://www.sitges.cat/serveis/cultura/arxiu-historic","07/10/2024 07:27:11 AM","Titularitat|Administració local: municipal","POINT (1.8120323 41.234936)"
,27040732,"Arxiu Municipal de Torroella de Montgrí","Arxiu Municipal de Torroella de Montgrí","Cultura|Arxius||","archive",,,,,,"Carrer de l'Hospital",,18,,,17257,"Torroella de Montgrí",171997,"Baix Empordà","+34-972758112","972758112",510481720,4654151000,"3.126641893","42.039332147","arxiu@torroella-estartit.cat","http://www.torroella-estartit.cat/serveis-municipals/arxiumunicipal.html","07/10/2024 07:30:53 AM","Titularitat|Administració local: municipal","POINT (3.126642 42.039333)"
,27042923,"Arxiu Comarcal de l'Alt Camp","Arxiu Comarcal de l'Alt Camp","Cultura|Arxius||","archive",,,,,,"Passeig dels Caputxins",,18,,,43800,"Valls",431613,"Alt Camp","+34-977606487","977606487",353641220,4572293000,"1.252120316","41.288820427","acaltcamp.cultura@gencat.cat","http://cultura.gencat.cat/arxius/acac","07/10/2024 07:36:25 AM","Titularitat|Generalitat de Catalunya: comarcal","POINT (1.2521204 41.288822)"
,27041690,"Arxiu Municipal de Centelles","Arxiu Municipal de Centelles","Cultura|Arxius||","archive",,,,,,"Carrer Nou",,19,,,"08540","Centelles",80673,"Osona","+34-938810375","938810375",435041000,4627672000,"2.218105632","41.798250190","bernalcm@diba.cat","https://www.centelles.cat/viure/cultura-i-patrimoni/arxiu-municipal","07/10/2024 07:27:46 AM","Titularitat|Administració local: municipal","POINT (2.2181056 41.79825)"
,27040603,"Arxiu Comarcal del Pallars Jussà","Arxiu Comarcal del Pallars Jussà","Cultura|Arxius||","archive",,,,,,"Carrer del Mercadal",,19,,,25620,"Tremp",252347,"Pallars Jussà","+34-973651337","973651337",326079530,4670407000,"0.894508515","42.166486767","acpallarsjussa.cultura@gencat.cat","http://cultura.gencat.cat/arxius/acpj","07/10/2024 07:36:22 AM","Titularitat|Generalitat de Catalunya: comarcal","POINT (0.89450854 42.16649)"
,27045082,"Arxiu General de la Subdelegació del Govern a Barcelona","Arxiu General de la Subdelegació del Govern a Barcelona","Cultura|Arxius||","archive",,,,,,"Carrer del Doctor Trueta",,20,,,"08005","Barcelona",80193,"Barcelonès","+34-935209227","935209227",432912340,4582822000,"2.197505452","41.394135359","arxiu_historic.barcelona@correo.gob.es",,"07/10/2024 07:23:20 AM","Titularitat|Arxiu de l'Estat","POINT (2.1975055 41.394135)"
,27041742,"Arxiu Central de l'Entitat Autònoma del Diari Oficial i de Publicacions","Arxiu Central de l'Entitat Autònoma del Diari Oficial i de Publicacions","Cultura|Arxius||","archive",,,,,,"Avinguda de Josep Tarradellas",,20,,,"08029","Barcelona",80193,"Barcelonès","+34-935515644","935515644",428322720,4581602500,"2.142754972","41.382755826","mireia.gisbert@gencat.cat",,"07/10/2024 07:23:22 AM","Titularitat|Generalitat de Catalunya: organismes autònoms i empreses públiques","POINT (2.142755 41.382755)"
,27042877,"Arxiu Central Administratiu de l'Escola d'Administració Pública de Catalunya","Arxiu Central Administratiu de l'Escola d'Administració Pública de Catalunya","Cultura|Arxius||","archive",,,,,,"Carrer de Girona",,20,,,"08010","Barcelona",80193,"Barcelonès","+34-935672419","935672419",430652940,4582973000,"2.170464162","41.395303714","arxiu.eapc@gencat.cat","http://www.eapc.cat","07/10/2024 07:34:32 AM","Titularitat|Generalitat de Catalunya: organismes autònoms i empreses públiques","POINT (2.1704643 41.3953)"
,27043095,"Arxiu Municipal Administratiu de Terrassa","Arxiu Municipal Administratiu de Terrassa","Cultura|Arxius||","archive",,,,,,"Carrer del Pantà",,20,,,"08221","Terrassa",82798,"Vallès Occidental","+34-937397000","937397000",417491400,4602122000,"2.010424974","41.566519712","arxiu.municipal@terrassa.cat","https://aoberta.terrassa.cat/oficines/infoEntitat.jsp?id=443","07/10/2024 07:28:41 AM","Titularitat|Administració local: municipal","POINT (2.010425 41.56652)"
,27045031,"Arxiu General de la Universitat Internacional de Catalunya","Arxiu General de la Universitat Internacional de Catalunya","Cultura|Arxius||","archive",,,,,,"Carrer de la Immaculada",,22,,,"08017","Barcelona",80193,"Barcelonès","+34-932541800","932541800",426714900,4584199500,"2.123213648","41.406001024","emroyo@uic.es","https://www.uic.es/ca/universitat/serveis/arxiu-general","07/10/2024 07:27:00 AM","Titularitat|Corporacions i entitats oficials: universitari","POINT (2.1232135 41.406002)"
,27041053,"Arxiu Municipal de Gavà","Arxiu Municipal de Gavà","Cultura|Arxius||","archive",,,,,,"Carrer de Salvador Lluch",,22,,,"08850","Gavà",80898,"Baix Llobregat","+34-932639630","932639630",416674560,4573212000,"2.004615789","41.306066125","chc@gava.cat","https://www.gavaciutat.cat","07/10/2024 07:27:37 AM","Titularitat|Administració local: municipal","POINT (2.0046158 41.306065)"
,27040653,"Arxiu Comarcal del Baix Llobregat","Arxiu Comarcal del Baix Llobregat","Cultura|Arxius||","archive",,,,,,"Carrer de Clementina Arderiu",,23,,,"08980","Sant Feliu de Llobregat",82114,"Baix Llobregat","+34-936666703","936666703",420970780,4581954000,"2.054792432","41.385233005","acbaixllobregat.cultura@gencat.cat","http://cultura.gencat.cat/arxius/acbl","07/10/2024 07:36:24 AM","Titularitat|Generalitat de Catalunya: comarcal","POINT (2.0547924 41.385235)"
,27040632,"Arxiu Comarcal de la Ribera d'Ebre","Arxiu Comarcal de la Ribera d'Ebre","Cultura|Arxius||","archive",,,,,,"Carrer d'Antoni Gaudí",,23,,,43740,"Móra d'Ebre",430939,"Ribera d'Ebre","+34-977414372","977414372",301169300,4551412500,"0.632706844","41.089676031","acriberaebre.cultura@gencat.cat","http://cultura.gencat.cat/arxius/acre","07/10/2024 07:36:21 AM","Titularitat|Generalitat de Catalunya: comarcal","POINT (0.6327068 41.089676)"
,27043512,"Servei d'Arxiu Municipal de Lloret de Mar","Servei d'Arxiu Municipal de Lloret de Mar","Cultura|Arxius||","archive",,,,,,"Carrer de Josep Lluhí",,24,,,17310,"Lloret de Mar",170950,"Selva","+34-972368457","972368457",487252940,4616599000,"2.846797697","41.701073843","arxiu@lloret.cat","http://www.lloret.cat/arxiu","07/10/2024 07:33:38 AM","Titularitat|Administració local: municipal","POINT (2.8467977 41.701073)"
,27043802,"Arxiu Municipal de Banyoles","Arxiu Municipal de Banyoles","Cultura|Arxius||","archive",,,,,,"Passeig de la Indústria",,25,,,17820,"Banyoles",170157,"Pla de l'Estany","+34-972570050","972570050",480467720,4662730500,"2.763721953","42.116430404","arxiu@ajbanyoles.org","http://www.banyoles.cat","07/10/2024 07:35:40 AM","Titularitat|Administració local: municipal","POINT (2.763722 42.116432)"
,27045552,"Arxiu Històric Municipal d'Olesa de Montserrat","Arxiu Històric Municipal d'Olesa de Montserrat","Cultura|Arxius||","archive",,,,,,"Carrer de Salvador Casas",,26,,,"08640","Olesa de Montserrat",81477,"Baix Llobregat","+34-937780050","937780050",407573300,4599755000,"1.891855709","41.544118091","arxiu@olesademontserrat.cat","http://www.olesam.org/Atencio_al_ciutada/Serveis.htm?id=1&pl=140","07/10/2024 07:32:49 AM","Titularitat|Administració local: municipal","POINT (1.8918557 41.544117)"
,27043982,"Arxiu Municipal de Calonge i Sant Antoni","Arxiu Municipal de Calonge i Sant Antoni","Cultura|Arxius||","archive",,,,,,"Carrer de Sant Joan O de l'Educació",,26,,,17251,"Calonge i Sant Antoni",170340,"Baix Empordà","+34-972660375","972660375",506271000,4634524500,"3.075558280","41.862606280","arxiu@calonge.cat","http://www.ajcalonge.org/","07/10/2024 07:35:53 AM","Titularitat|Administració local: municipal","POINT (3.0755582 41.862606)"
,27042351,"Arxiu Municipal de Vila-seca","Arxiu Municipal de Vila-seca","Cultura|Arxius||","archive",,,,,,"Plaça de l'Església",,26,,,43480,"Vila-seca",431711,"Tarragonès","+34-977309300","977309300",344236280,4552730000,"1.144839217","41.110931376","ajuntament@vila-seca.cat","http://www.vila-seca.cat","07/10/2024 07:29:04 AM","Titularitat|Administració local: municipal","POINT (1.1448392 41.11093)"
,27045239,"Centre de Documentació Històrico-Social. Ateneu Enciclopèdic Popular","Centre de Documentació Històrico-Social. Ateneu Enciclopèdic Popular","Cultura|Arxius||","archive",,,,,,"Passeig de Sant Joan ",,26," 1er1a",,"08010","Barcelona",80193,"Barcelonès",,,431340300,4582717000,"2.178714634","41.393056980","ateneuenciclopedic@gmail.com","http://www.ateneuenciclopedicpopular.org","07/10/2024 07:35:43 AM","Titularitat|Privat: entitats, associacions, fundacions","POINT (2.1787148 41.39306)"
,27045204,"Arxiu Històric Municipal del Masnou","Arxiu Històric Municipal del Masnou","Cultura|Arxius||","archive",,,,,,"Carrer de Sant Francesc d'Assís ",,28,,,"08320","Masnou, el",81189,"Maresme","+34-935571829","935571829",442925880,4592160000,"2.316395367","41.479014905","arxiu@elmasnou.cat","https://www.elmasnou.cat/arxiu","07/10/2024 07:27:43 AM","Titularitat|Administració local: municipal","POINT (2.3163953 41.479015)"
,27041568,"Arxiu Municipal de Roses","Arxiu Municipal de Roses","Cultura|Arxius||","archive",,,,,,"Carrer de la Mainada",,28,,,17480,"Roses",171523,"Alt Empordà","+34-972151486","972151486",514439250,4679311500,"3.175080652","42.265874591","amr@roses.cat","https://www.roses.cat/la-vila/arxiu-municipal","07/10/2024 07:27:19 AM","Titularitat|Administració local: municipal","POINT (3.1750805 42.265873)"
,27043384,"Arxiu Comarcal del Pla d'Urgell","Arxiu Comarcal del Pla d'Urgell","Cultura|Arxius||","archive",,,,,,"Carrer del Tossal Blanc",,28,,,25230,"Mollerussa",251370,"Pla d'Urgell","+34-973712074","973712074",323788720,4609728500,"0.884897749","41.619829569","acplaurgell@gencat.cat","http://cultura.gencat.cat/arxius/acpu","07/10/2024 07:36:22 AM","Titularitat|Generalitat de Catalunya: comarcal","POINT (0.88489777 41.61983)"
,27040745,"Arxiu General de la Diputació de Tarragona","Arxiu General de la Diputació de Tarragona","Cultura|Arxius||","archive",,,,,,"Carrer de Vila-Seca",,28,,,43110,"Canonja, la",439076,"Tarragonès","+34-977547662","977547662",347338470,4553194000,"1.181653316","41.115697921","arxiu@dipta.cat","http://www.dipta.cat/ca/serveis/arxiu","07/10/2024 07:34:32 AM","Titularitat|Administració local: diputació provincial","POINT (1.1816533 41.1157)"
,27044362,"Arxiu Municipal de Valls","Arxiu Municipal de Valls","Cultura|Arxius||","archive",,,,,,"Carrer de la Creu de Cames",,28,,,43800,"Valls",431613,"Alt Camp","+34-977604007","977604007",353185220,4572386500,"1.246654463","41.289579460","arxiu@valls.cat","http://www.ajvalls.org/default.asp?carpeta=arxiu&web=arxiu","07/10/2024 07:35:51 AM","Titularitat|Administració local: municipal","POINT (1.2466545 41.28958)"
,27041239,"Arxiu Universitat Abat Oliba CEU","Arxiu Universitat Abat Oliba CEU","Cultura|Arxius||","archive",,,,,,"Carrer de Bellesguard",,30,,,"08022","Barcelona",80193,"Barcelonès","+34-932540900","932540900",426971060,4584629000,"2.126226186","41.409892648","fcasado@uao.es","https://www.uaoceu.es/biblioteca","07/10/2024 07:27:01 AM","Titularitat|Corporacions i entitats oficials: universitari","POINT (2.1262262 41.409893)"
,27042656,"Arxiu Històric de Tarragona","Arxiu Històric de Tarragona","Cultura|Arxius||","archive",,,,,,"Rambla Vella",,30,,,43003,"Tarragona",431482,"Tarragonès","+34-977251010","977251010",353350600,4553237000,"1.253220861","41.117192897","aht.cultura@gencat.cat","http://cultura.gencat.cat/arxius/aht","07/10/2024 07:36:19 AM","Titularitat|Generalitat de Catalunya: comarcal","POINT (1.2532209 41.11719)"
,27043201,"Arxiu Comarcal del Baix Penedès","Arxiu Comarcal del Baix Penedès","Cultura|Arxius||","archive",,,,,,"Camí de Tomoví",,30,,,43700,"Vendrell, el",431634,"Baix Penedès","+34-977667396","977667396",377429900,4564809500,"1.537621739","41.225395017","acbaixpenedes.cultura@gencat.cat","http://cultura.gencat.cat/arxius/acbp","07/10/2024 07:36:24 AM","Titularitat|Generalitat de Catalunya: comarcal","POINT (1.5376217 41.225395)"
,27041015,"Arxiu Municipal de Mataró","Arxiu Municipal de Mataró","Cultura|Arxius||","archive",,,,,,"Carrer del Palau",,32,,,"08301","Mataró",81213,"Maresme","+34-937582148","937582148",453794380,4598850000,"2.446052749","41.539971827","arxiumpal@ajmataro.cat","https://www.mataro.cat/","07/10/2024 07:27:29 AM","Titularitat|Administració local: municipal","POINT (2.4460528 41.53997)"
,27045597,"Arxiu Comarcal del Maresme","Arxiu Comarcal del Maresme","Cultura|Arxius||","archive",,,,,,"Carrer d'en Palau",,32,,,"08301","Mataró",81213,"Maresme","+34-937582459","937582459",453794380,4598850000,"2.446052749","41.539971827","acmaresme.cultura@gencat.cat","http://cultura.gencat.cat/arxius/acm","07/10/2024 07:36:23 AM","Titularitat|Generalitat de Catalunya: comarcal","POINT (2.4460528 41.53997)"
,27045820,"Arxiu Històric de Sabadell","Arxiu Històric de Sabadell","Cultura|Arxius||","archive",,,,,,"Carrer de la Indústria",,34,,,"08202","Sabadell",81878,"Vallès Occidental","+34-937268777","937268777",426030780,4599897500,"2.113104337","41.547321021","ahs@ajsabadell.cat","http://ca.sabadell.cat/Ahs/p/portada_cat.asp","07/10/2024 07:36:28 AM","Titularitat|Administració local: municipal","POINT (2.1131043 41.54732)"
,27040965,"Arxiu Municipal de l'Escala","Arxiu Municipal de l'Escala","Cultura|Arxius||","archive",,,,,,"Carrer del Pintor Joan Massanet",,34,,,17130,"Escala, l'",170622,"Alt Empordà","+34-972774848","972774848",510940280,4663652000,"3.132360003","42.124896793","museu@lescala.cat","http://www.lescala.cat/es/","07/10/2024 07:33:45 AM","Titularitat|Administració local: municipal","POINT (3.13236 42.124897)"
,27041199,"Arxiu Històric Diocesà de Sant Feliu de Llobregat","Arxiu Històric Diocesà de Sant Feliu de Llobregat","Cultura|Arxius||","archive",,,,,,"Carrer de les Armenteres",,35,,,"08980","Sant Feliu de Llobregat",82114,"Baix Llobregat","+34-936327630","936327630",420147400,4581034500,"2.045067087","41.376870325",,,"07/10/2024 07:21:00 AM","Titularitat|Església catòlica: diocesà","POINT (2.045067 41.37687)"
,27045427,"Arxiu Històric Municipal de Calella","Arxiu Històric Municipal de Calella","Cultura|Arxius||","archive",,,,,,"Carrer de Francesc Bartrina",,35,,,"08370","Calella",80351,"Maresme","+34-937663030","937663030",471485200,4606863500,"2.657757837","41.612976873","arxiumunicipal@calella.cat",,"07/10/2024 07:22:57 AM","Titularitat|Administració local: municipal","POINT (2.6577578 41.612976)"
,27043004,"Arxiu Central dels Jutjats de Ripoll","Arxiu Central dels Jutjats de Ripoll","Cultura|Arxius||","archive",,,,,,"Carretera de Barcelona ",,35,,,17500,"Ripoll",171479,"Ripollès","+34-972700099","972700099",433383840,4671545000,"2.193185419","42.193223518","arxiu.ripoll@xij.gencat.cat",,"07/10/2024 07:21:17 AM","Titularitat|Generalitat de Catalunya: Administració de Justícia","POINT (2.1931853 42.193222)"
,27041673,"Arxiu Central dels Jutjats de Valls","Arxiu Central dels Jutjats de Valls","Cultura|Arxius||","archive",,,,,,"Carretera del Pla ",,35,,,43800,"Valls",431613,"Alt Camp","+34-977924229","977924229",353702380,4572271500,"1.252855556","41.288637935","arxiu.valls@xij.gencat.cat",,"07/10/2024 07:20:09 AM","Titularitat|Generalitat de Catalunya: Administració de Justícia","POINT (1.2528555 41.28864)"
,27040996,"Arxiu Central de l'Institut Municipal de l'Habitatge i Rehabilitació de Barcelona","Arxiu Central de l'Institut Municipal de l'Habitatge i Rehabilitació de Barcelona","Cultura|Arxius||","archive",,,,,,"Carrer del Doctor Aiguader",,36,,,"08003","Barcelona",80193,"Barcelonès","+34-932918517","932918517",432197100,4581608500,"2.189086482","41.383145714","arxiu@imhab.cat","https://ajuntament.barcelona.cat/arxiumunicipal/ca/arxius-centrals","07/10/2024 07:28:45 AM","Titularitat|Administració local: municipal","POINT (2.1890864 41.383144)"
,27045464,"Arxiu Central  dels Jutjats de Sabadell","Arxiu Central  dels Jutjats de Sabadell","Cultura|Arxius||","archive",,,,,,"Avinguda de Francesc Macià ",,36,,,"08202","Sabadell",81878,"Vallès Occidental","+34-937458120","937458120",424804720,4600510500,"2.098328819","41.552727544","arxiu.sabadell@xij.gencat.cat","http://justicia.gencat.cat/ca/ambits/administracio-de-justicia/arxius-biblioteques-i-diposits-judicials/arxius/","07/10/2024 07:36:13 AM","Titularitat|Generalitat de Catalunya: Administració de Justícia","POINT (2.0983288 41.552727)"
,27041508,"Arxiu Municipal del Districte de l'Eixample","Arxiu Municipal del Districte de l'Eixample","Cultura|Arxius||","archive",,,,,,"Carrer de Calàbria",,38,,,"08015","Barcelona",80193,"Barcelonès","+34-932916228","932916228",429695120,4580910500,"2.159247150","41.376644309","amde@bcn.cat","http://ajuntament.barcelona.cat/arxiumunicipal/leixample","07/10/2024 07:36:40 AM","Titularitat|Administració local: municipal","POINT (2.1592472 41.376644)"
,27041007,"Arxiu Municipal d'Esplugues de Llobregat","Arxiu Municipal d'Esplugues de Llobregat","Cultura|Arxius||","archive",,,,,,"Carrer d'Àngel Guimerà",,38," 1er.",,"08950","Esplugues de Llobregat",80771,"Baix Llobregat","+34-933713350","933713350",423212970,4580758500,"2.081757660","41.374682897","mplanell@esplugues.cat","http://www.esplugues.cat","07/10/2024 07:34:25 AM","Titularitat|Administració local: municipal","POINT (2.0817575 41.374683)"
,27044030,"Arxiu Central dels Jutjats de Tremp","Arxiu Central dels Jutjats de Tremp","Cultura|Arxius||","archive",,,,,,"Passeig del Pare Manyanet",,38,,,25620,"Tremp",252347,"Pallars Jussà","+34-973700279","973700279",326055250,4670541500,"0.894174607","42.167691915","arxiu.tremp@xij.gencat.cat",,"07/10/2024 07:20:20 AM","Titularitat|Generalitat de Catalunya: Administració de Justícia","POINT (0.89417464 42.16769)"
,27044051,"Arxiu Comarcal del Bages","Arxiu Comarcal del Bages","Cultura|Arxius||","archive",,,,,,"Via de Sant Ignasi",,40,,,"08241","Manresa",81136,"Bages","+34-938736525","938736525",402660220,4619880500,"1.829687886","41.724772904","acbages.cultura@gencat.cat","http://cultura.gencat.cat/arxius/acbg","07/10/2024 07:36:24 AM","Titularitat|Generalitat de Catalunya: comarcal","POINT (1.8296878 41.724773)"
,27042257,"Arxiu Zerkowitz","Arxiu Zerkowitz","Cultura|Arxius||","archive",,,,,,"Carrer d'Arenys",,41,,,"08035","Barcelona",80193,"Barcelonès","+34-932112250","932112250",428421300,4585975500,"2.143416755","41.422150462","archivozerkowitz@gmail.com","http://www.zerkowitz.es","07/10/2024 07:28:51 AM","Titularitat|Privats: altres","POINT (2.1434166 41.42215)"
,27042930,"Arxiu Municipal de Sant Joan Despí","Arxiu Municipal de Sant Joan Despí","Cultura|Arxius||","archive",,,,,,"Avinguda de Barcelona",,41,,,"08970","Sant Joan Despí",82172,"Baix Llobregat","+34-934770051","934770051",422000780,4580008500,"2.067360243","41.367811478","rsanzs@sjdespi.net","http://www.sjdespi.com","07/10/2024 07:31:35 AM","Titularitat|Administració local: municipal","POINT (2.0673602 41.367813)"
,27043641,"Arxiu Central dels Jutjats de Puigcerdà","Arxiu Central dels Jutjats de Puigcerdà","Cultura|Arxius||","archive",,,,,,"Ronda de Maragall",,42,,,17520,"Puigcerdà",171411,"Cerdanya","+34-972884503","972884503",412200800,4698381000,"1.932591184","42.432780343","arxiu.puigcerda@xij.gencat.cat",,"07/10/2024 07:21:25 AM","Titularitat|Generalitat de Catalunya: Administració de Justícia","POINT (1.9325912 42.43278)"
,27044583,"Arxiu Municipal de Martorell","Arxiu Municipal de Martorell","Cultura|Arxius||","archive",,,,,,"Carrer del Mur",,43,,,"08760","Martorell",81141,"Baix Llobregat","+34-937740421","937740421",410671800,4591899000,"1.930164154","41.473719984","arxiu@martorell.cat","https://www.martorell.cat/","07/10/2024 07:27:30 AM","Titularitat|Administració local: municipal","POINT (1.9301641 41.47372)"
,27041175,"Arxiu Històric d'Hostalric","Arxiu Històric d'Hostalric","Cultura|Arxius||","archive",,,,,,"Carrer del Raval",,45,,,17450,"Hostalric",170834,"Selva","+34-972864011","972864011",470178780,4621614000,"2.641341204","41.745786817","arxiu@hostalric.cat",,"07/10/2024 07:22:21 AM","Titularitat|Administració local: municipal","POINT (2.6413412 41.74579)"
,27042750,"Arxiu Central Administratiu de l'Agència Tributària de Catalunya","Arxiu Central Administratiu de l'Agència Tributària de Catalunya","Cultura|Arxius||","archive",,,,,,"Passeig de la Zona Franca",,46,,,"08038","Barcelona",80193,"Barcelonès","+34-935515213","935515213",428405560,4578358000,"2.144128683","41.353541114","arxiu@atc.cat","https://cultura.gencat.cat/ca/temes/arxius-i-gestio-documental/gestio-documental/gdgencat/aca/ensiorg/aatc/","07/10/2024 07:28:22 AM","Titularitat|Generalitat de Catalunya: central administratiu de departament","POINT (2.1441288 41.353542)"
,27044996,"Arxiu de l'Institut d'Estudis Catalans","Arxiu de l'Institut d'Estudis Catalans","Cultura|Arxius||","archive",,,,,,"Carrer del Carme",,47,,,"08001","Barcelona",80193,"Barcelonès","+34-932701620","932701620",430512250,4581441000,"2.168957121","41.381493336","arxiu@iec.cat","http://www.iec.cat/arxiu/","07/10/2024 07:33:57 AM","Titularitat|Corporacions i entitats oficials: acadèmia","POINT (2.1689572 41.381493)"
,27044146,"Arxiu de la Fundació Mercè Rodoreda","Arxiu de la Fundació Mercè Rodoreda","Cultura|Arxius||","archive",,,,,,"Carrer del Carme",,47,,,"08001","Barcelona",80193,"Barcelonès","+34-932701620","932701620",430512250,4581441000,"2.168957121","41.381493336","arxiu@iec.cat","http://www.mercerodoreda.cat/arxiu.php","07/10/2024 07:33:27 AM","Titularitat|Privat: entitats, associacions, fundacions","POINT (2.1689572 41.381493)"
,27045843,"Arxiu del Col·legi de Metges de Barcelona","Arxiu del Col·legi de Metges de Barcelona","Cultura|Arxius||","archive",,,,,,"Passeig de la Bonanova",,47,,,"08017","Barcelona",80193,"Barcelonès","+34-935678888","935678888",427223600,4583995000,"2.129323671","41.404205396","sfajula@comb.cat","http://www.comb.cat","07/10/2024 07:34:38 AM","Titularitat|Corporacions i entitats oficials: col.legi professional","POINT (2.1293237 41.404205)"
,27044286,"Arxiu de l'Associació Cultural Montcada","Arxiu de l'Associació Cultural Montcada","Cultura|Arxius||","archive",,,,,,"Carrer Major",,47,,,"08110","Montcada i Reixac",81252,"Vallès Occidental","+34-935751103","935751103",432173060,4592890000,"2.187532913","41.484752232","associacio@aculturalmontcada.org","https://aculturalmontcada.org","07/10/2024 07:28:47 AM","Titularitat|Privat: entitats, associacions, fundacions","POINT (2.187533 41.484753)"
,27041561,"Arxiu Diocesà de Terrassa","Arxiu Diocesà de Terrassa","Cultura|Arxius||","archive",,,,,,"Carrer de Vinyals",,47,,,"08221","Terrassa",82798,"Vallès Occidental","+34-937337120","937337120",417304340,4601350500,"2.008288025","41.559552252",,,"07/10/2024 07:20:35 AM","Titularitat|Església catòlica: diocesà","POINT (2.008288 41.55955)"
,27045140,"Arxiu Central dels Jutjats de Blanes","Arxiu Central dels Jutjats de Blanes","Cultura|Arxius||","archive",,,,,,"Carrer del Ter",,51,,,17300,"Blanes",170237,"Selva","+34-972944908","972944908",481949800,4613857000,"2.783144507","41.676273754","arxiu.blanes@xij.gencat.cat",,"07/10/2024 07:23:02 AM","Titularitat|Generalitat de Catalunya: Administració de Justícia","POINT (2.7831445 41.676273)"
,27044076,"Arxiu del Monestir de Sant Pere de les Puel·les","Arxiu del Monestir de Sant Pere de les Puel·les","Cultura|Arxius||","archive",,,,,,"Carrer d'Anglí",,55,,,"08017","Barcelona",80193,"Barcelonès","+34-932038915","932038915",426708280,4583850500,"2.123176714","41.402857135","acub.mbc@gmail.com","http://www.federaciobenedictines.cat","07/10/2024 07:34:23 AM","Titularitat|Església catolica: monàstics, conventuals i de congregacions","POINT (2.1231768 41.40286)"
,27041419,"Arxiu Central de la Sala Contenciosa Administrativa del Tribunal Superior de Justícia de Catalunya","Arxiu Central de la Sala Contenciosa Administrativa del Tribunal Superior de Justícia de Catalunya","Cultura|Arxius||","archive",,,,,,"Via Laietana ",,56,,,"08003","Barcelona",80193,"Barcelonès","+34-933440016","933440016",430938100,4582125500,"2.173971567","41.387695087","arxiu.salacontenciosa.tsjcat@xij.gencat.cat",,"07/10/2024 07:23:22 AM","Titularitat|Generalitat de Catalunya: Administració de Justícia","POINT (2.1739717 41.387695)"
,27043441,"Arxiu Central Administratiu del Departament d'Economia i Hisenda","Arxiu Central Administratiu del Departament d'Economia i Hisenda","Cultura|Arxius||","archive",,,,,,"Carrer del Foc",,57,,,"08038","Barcelona",80193,"Barcelonès","+34-933162172","933162172",428031200,4578559000,"2.139630063","41.355318087","arxiu.central.eco@gencat.cat","http://eif.intranet/intranet_def/index.html","07/10/2024 07:36:16 AM","Titularitat|Generalitat de Catalunya: central administratiu de departament","POINT (2.13963 41.35532)"
,27041228,"Arxiu Municipal de l'Hospitalet de Llobregat","Arxiu Municipal de l'Hospitalet de Llobregat","Cultura|Arxius||","archive",,,,,,"Carrer del Cobalt",,57,,,"08907","Hospitalet de Llobregat, l'",81017,"Barcelonès","+34-934032910","934032910",425641120,4579002000,"2.111006176","41.359090866","arxiu@l-h.cat","http://www.l-h.es/webs/arxiumunicipal/inici.aspx","07/10/2024 07:33:42 AM","Titularitat|Administració local: municipal","POINT (2.1110063 41.359093)"
,27045338,"Arxiu Municipal de Santa Margarida de Montbui","Arxiu Municipal de Santa Margarida de Montbui","Cultura|Arxius||","archive",,,,,,"Carretera de Valls ",,57,,,"08710","Santa Margarida de Montbui",82508,"Anoia","+34-938034735","938034735",384006100,4603501000,"1.608646670","41.574780144",,,"07/10/2024 07:20:49 AM","Titularitat|Administració local: municipal","POINT (1.6086466 41.57478)"
,27045235,"Arxiu Central Administratiu del Departament de Justícia, Drets i Memòria","Arxiu Central Administratiu del Departament de Justícia, Drets i Memòria","Cultura|Arxius||","archive",,,,,,"Carrer del Foc",,57,,,"08038","Barcelona",80193,"Barcelonès","+34-938573606","938573606",428031200,4578559000,"2.139630063","41.355318087","arxiu.central.dj@gencat.cat",,"07/10/2024 07:23:23 AM","Titularitat|Generalitat de Catalunya: central administratiu de departament","POINT (2.13963 41.35532)"
,27042890,"Arxiu Central Administratiu del Districte Administratiu","Arxiu Central Administratiu del Districte Administratiu","Cultura|Arxius||","archive",,,,,,"Carrer del Foc",,57,,,"08007","Barcelona",80193,"Barcelonès","+34-938573608","938573608",428031200,4578559000,"2.139630063","41.355318087","arxiu.districteadministratiu@gencat.cat",,"07/10/2024 07:23:22 AM","Titularitat|Generalitat de Catalunya: central administratiu de departament","POINT (2.13963 41.35532)"
,27040901,"Arxiu Central Administratiu del Departament d'igualtat i Feminismes","Arxiu Central Administratiu del Departament d'igualtat i Feminismes","Cultura|Arxius||","archive",,,,,,"Carrer del Foc",,57,,,"08038","Barcelona",80193,"Barcelonès","+34-938839625","938839625",428031200,4578559000,"2.139630063","41.355318087","arxiucentral.igualtat@gencat.cat",,"07/10/2024 07:23:23 AM","Titularitat|Generalitat de Catalunya: central administratiu de departament","POINT (2.13963 41.35532)"
,27045539,"Arxiu Comarcal de la Terra Alta","Arxiu Comarcal de la Terra Alta","Cultura|Arxius||","archive",,,,,,"Carrer del Doctor Ferran",,59,,,43780,"Gandesa",430640,"Terra Alta","+34-977421634","977421634",285221100,4547741000,"0.444280999","41.052579554","acterraalta.cultura@gencat.cat","http://cultura.gencat.cat/arxius/acta/","07/10/2024 07:36:21 AM","Titularitat|Generalitat de Catalunya: comarcal","POINT (0.444281 41.052578)"
,27045768,"Arxiu Central Administratiu de la Sindicatura de Comptes de Catalunya","Arxiu Central Administratiu de la Sindicatura de Comptes de Catalunya","Cultura|Arxius||","archive",,,,,,"Via Laietana",,60,,,"08003","Barcelona",80193,"Barcelonès","+34-932701161","932701161",430897030,4582167500,"2.173475599","41.388069840","atello@sindicatura.cat","http://www.sindicatura.org/transparencia/gestio-de-la-informacio/classificacio-de-la-documentacio","07/10/2024 07:31:39 AM","Titularitat|Generalitat de Catalunya: general o institucional","POINT (2.1734755 41.38807)"
,27045447,"Arxiu Central Administratiu de l’Autoritat Catalana de la Competència","Arxiu Central Administratiu de l’Autoritat Catalana de la Competència","Cultura|Arxius||","archive",,,,,,"Via Laietana",,60,,,"08003","Barcelona",80193,"Barcelonès","+34-935528160","935528160",430897030,4582167500,"2.173475599","41.388069840",,,"07/10/2024 07:23:25 AM","Titularitat|Generalitat de Catalunya: organismes autònoms i empreses públiques","POINT (2.1734755 41.38807)"
,27041993,"Arxiu Municipal de Barberà de Vallès","Arxiu Municipal de Barberà de Vallès","Cultura|Arxius||","archive",,,,,,"Avinguda de la Verge de Montserrat ",,60,,,"08210","Barberà del Vallès",82520,"Vallès Occidental","+34-937297171","937297171",426852160,4596204000,"2.123400833","41.514131602","magrinsga@bdv.cat","https://www.bdv.cat/es","07/10/2024 07:27:54 AM","Titularitat|Administració local: municipal","POINT (2.123401 41.514133)"
,27042953,"Arxiu Municipal de Premià de Mar","Arxiu Municipal de Premià de Mar","Cultura|Arxius||","archive",,,,,,"Carrer del Nord",,60,,,"08030","Premià de Mar",81727,"Maresme","+34-937417400","937417400",446432560,4593553000,"2.358270186","41.491803472","arxiu@premiademar.cat","https://premiademar.cat/","07/10/2024 07:28:10 AM","Titularitat|Administració local: municipal","POINT (2.3582702 41.491802)"
,27042285,"Arxiu Comarcal de la Selva","Arxiu Comarcal de la Selva","Cultura|Arxius||","archive",,,,,,"Carrer de Sant Dalmau",,60,,,17430,"Santa Coloma de Farners",171805,"Selva","+34-972842146","972842146",472066100,4634640000,"2.663426093","41.863178263","aclaselva.cultura@gencat.cat","http://cultura.gencat.cat/arxius/acse","07/10/2024 07:36:21 AM","Titularitat|Generalitat de Catalunya: comarcal","POINT (2.6634262 41.86318)"
,27040830,"Arxiu Municipal de Vilassar de Mar Damià Bas i Macià","Arxiu Municipal de Vilassar de Mar Damià Bas i Macià","Cultura|Arxius||","archive",,,,,,"Carrer de Sant Artur",,61,,,"08340","Vilassar de Mar",82191,"Maresme","+34-937502957","937502957",448662880,4594910000,"2.384871929","41.504171851","arxiumunicipal@vilassardemar.cat","http://www.vilassardemar.cat/directori/equipaments/arxiu-municipal","07/10/2024 07:29:00 AM","Titularitat|Administració local: municipal","POINT (2.384872 41.504173)"
,27044913,"Arxiu Municipal de Cardedeu","Arxiu Municipal de Cardedeu","Cultura|Arxius||","archive",,,,,,"Passeig de Pau Gesa",,62,,,"08440","Cardedeu",80462,"Vallès Oriental","+34-938444004","938444004",446178750,4609713000,"2.353781132","41.637336032","arxiu@cardedeu.cat","http://www.cardedeu.cat","07/10/2024 07:34:52 AM","Titularitat|Administració local: municipal","POINT (2.3537812 41.637337)"
,27044678,"Arxiu Municipal de Malgrat de Mar","Arxiu Municipal de Malgrat de Mar","Cultura|Arxius||","archive",,,,,,"Carrer de Mar",,63,,,"08380","Malgrat de Mar",81108,"Maresme","+34-937614714","937614714",478606120,4610345000,"2.743099575","41.644557966","arxiu@ajmalgrat.cat","https://www.ajmalgrat.cat/temes-i-serveis/arxiu-municipal","07/10/2024 07:28:00 AM","Titularitat|Administració local: municipal","POINT (2.7430997 41.644558)"
,27041299,"Arxiu Judicial Territorial de Girona","Arxiu Judicial Territorial de Girona","Cultura|Arxius||","archive",,,,,,"Carrer de Tarragona",,67,,,17181,"Aiguaviva",170025,"Gironès","+34-972394142","972394142",481646000,4643297500,"2.778583468","41.941434493","arxiu.territorial.girona@xij.gencat.cat",,"07/10/2024 07:23:34 AM","Titularitat|Generalitat de Catalunya: Administració de Justícia","POINT (2.7785835 41.941433)"
,27042139,"Arxiu Central Administratiu del Departament de Drets Socials","Arxiu Central Administratiu del Departament de Drets Socials","Cultura|Arxius||","archive",,,,,,"Carrer de Sant Carles",,70,,,"08922","Santa Coloma de Gramenet",82457,"Barcelonès","+34-934661479","934661479",433950340,4588893500,"2.209257628","41.448905571","arxiucentral.tsf@gencat.cat","https://cultura.gencat.cat/ca/temes/arxius-i-gestio-documental/gestio-documental/gdgencat/aca/departaments/tsf/","07/10/2024 07:28:23 AM","Titularitat|Generalitat de Catalunya: central administratiu de departament","POINT (2.2092576 41.448906)"
,27040741,"Arxiu Comarcal de l'Alt Urgell","Arxiu Comarcal de l'Alt Urgell","Cultura|Arxius||","archive",,,,,,"Carrer de Sant Ermengol",,71,,,25700,"Seu d'Urgell, la",252038,"Alt Urgell","+34-973350131","973350131",372573940,4690546500,"1.452710386","42.356750984","acalturgell.cultura@gencat.cat","http://cultura.gencat.cat/arxius/ACAU","07/10/2024 07:36:24 AM","Titularitat|Generalitat de Catalunya: comarcal","POINT (1.4527104 42.35675)"
,27041842,"Arxiu Municipal de Lliçà d'Amunt","Arxiu Municipal de Lliçà d'Amunt","Cultura|Arxius||","archive",,,,,,"Carrer d'Anselm Clavé",,73,,,"08186","Lliçà d'Amunt",81075,"Vallès Oriental","+34-938415225","938415225",436621700,4606585500,"2.239372032","41.608465988",,,"07/10/2024 07:22:10 AM","Titularitat|Administració local: municipal","POINT (2.239372 41.608467)"
,27043766,"Arxiu Històric de Riudoms","Arxiu Històric de Riudoms","Cultura|Arxius||","archive",,,,,,"Carrer del Beat Gran",,73,,,43330,"Riudoms",431299,"Baix Camp","+34-977850350","977850350",336409340,4555847500,"1.050839345","41.137459258","arxiu.municipal@riudoms.cat","http://www.riudoms.cat","07/10/2024 07:32:27 AM","Titularitat|Administració local: municipal","POINT (1.0508393 41.13746)"
,27041173,"Arxiu Central dels Jutjats de Reus","Arxiu Central dels Jutjats de Reus","Cultura|Arxius||","archive",,,,,,"Avinguda de Marià Fortuny",,73,,,43204,"Reus",431233,"Baix Camp","+34-977929130","977929130",341839440,4558346000,"1.114859772","41.161029921","arxiu.reus@xij.gencat.cat",,"07/10/2024 07:21:20 AM","Titularitat|Generalitat de Catalunya: Administració de Justícia","POINT (1.1148598 41.16103)"
,27041118,"Arxiu d'Història de Castellar del Vallès","Arxiu d'Història de Castellar del Vallès","Cultura|Arxius||","archive",,,,,,"Carrer Major",,74,,,"08211","Castellar del Vallès",80517,"Vallès Occidental","+34-937144088","937144088",423863970,4607580500,"2.086152171","41.616312195","arxiuhistoriacastellar@gmail.com","http://arxiuhistoriacastellarvalles.blogspot.com.es","07/10/2024 07:36:36 AM","Titularitat|Privat: entitats, associacions, fundacions","POINT (2.086152 41.616314)"
,27042915,"Arxiu Municipal de Castellar del Vallès","Arxiu Municipal de Castellar del Vallès","Cultura|Arxius||","archive",,,,,,"Carrer Major",,74,,,"08211","Castellar del Vallès",80517,"Vallès Occidental","+34-937144682","937144682",423863970,4607580500,"2.086152171","41.616312195","arxiu@castellarvalles.cat","http://www.castellarvalles.cat","07/10/2024 07:34:46 AM","Titularitat|Administració local: municipal","POINT (2.086152 41.616314)"
,27045901,"Arxiu de la Corona d'Aragó","Arxiu de la Corona d'Aragó","Cultura|Arxius||","archive",,,,,,"Carrer dels Almogàvers",,77,,,"08018","Barcelona",80193,"Barcelonès","+34-934854285","934854285",432067660,4582955500,"2.187387484","41.395266848","aca@cultura.gob.es","http://www.culturaydeporte.gob.es/archivos-aca/portada.html","07/10/2024 07:34:34 AM","Titularitat|Arxiu de l'Estat","POINT (2.1873875 41.395267)"
,27044905,"Arxiu Provincial dels Franciscans de Catalunya","Arxiu Provincial dels Franciscans de Catalunya","Cultura|Arxius||","archive",,,,,,"Carrer de Santaló",,80,,,"08021","Barcelona",80193,"Barcelonès","+34-932092388","932092388",428405220,4583243000,"2.143547644","41.397538530","bibliotecaprovincial@franciscans.cat",,"07/10/2024 07:23:19 AM","Titularitat|Església catolica: monàstics, conventuals i de congregacions","POINT (2.1435475 41.397537)"
,27043526,"Arxiu Central Administratiu de l'Agència de Residus de Catalunya","Arxiu Central Administratiu de l'Agència de Residus de Catalunya","Cultura|Arxius||","archive",,,,,,"Carrer del Doctor Roux",,80,,,"08017","Barcelona",80193,"Barcelonès","+34-935673300","935673300",427140250,4583494500,"2.128386845","41.399690061","yzuil@gencat.cat","http://residus.gencat.cat/","07/10/2024 07:36:01 AM","Titularitat|Generalitat de Catalunya: organismes autònoms i empreses públiques","POINT (2.1283867 41.39969)"
,27042113,"Arxiu Municipal de Premià de Dalt","Arxiu Municipal de Premià de Dalt","Cultura|Arxius||","archive",,,,,,"Ronda de Sant Pere",,88,,,"08338","Premià de Dalt",82303,"Maresme","+34-936931515","936931515",445501000,4594994500,"2.346980519","41.504724072",,,"07/10/2024 07:21:27 AM","Titularitat|Administració local: municipal","POINT (2.3469806 41.504723)"
,27043166,"Arxiu Municipal de Molins de Rei","Arxiu Municipal de Molins de Rei","Cultura|Arxius||","archive",,,,,,"Carrer de Jacint Verdaguer",,95,,,"08750","Molins de Rei",81234,"Baix Llobregat","+34-936803340","936803340",417807750,4585234000,"2.016521823","41.414456670","arxiu@molinsderei.cat","http://www.molinsderei.cat/ca/coneix_l_ajuntament/serveis_municipals/serveis_a_les_persones/cultura/arxiu_municipal_de_molins_de_rei","07/10/2024 07:33:18 AM","Titularitat|Administració local: municipal","POINT (2.016522 41.414455)"
,27041828,"Servei d'Arxius, Estudis i Informació de la Diputació de Lleida","Servei d'Arxius, Estudis i Informació de la Diputació de Lleida","Cultura|Arxius||","archive",,,,,,"Carrer de Caparella",,97,,,25192,"Lleida",251207,"Segrià","+34-973704003","973704003",298648300,4608013000,"0.583950319","41.598445278","tibars@diputaciolleida.es","http://www.diputaciolleida.es/diputacio/servei-arxiu.html","07/10/2024 07:34:32 AM","Titularitat|Administració local: diputació provincial","POINT (0.58395034 41.598446)"
,27040599,"Arxiu Central Administratiu del Consorci d'Administració Oberta de Catalunya","Arxiu Central Administratiu del Consorci d'Administració Oberta de Catalunya","Cultura|Arxius||","archive",,,,,,"Carrer de Tànger",,98,,,"08018","Barcelona",80193,"Barcelonès","+34-932724000","932724000",432558940,4583769500,"2.193172985","41.402639667","rnualart@aoc.cat","https://www.aoc.cat/","07/10/2024 07:27:58 AM","Titularitat|Generalitat de Catalunya: organismes autònoms i empreses públiques","POINT (2.193173 41.40264)"
,27042129,"Arxiu Municipal del Districte de Sants-Montjuïc","Arxiu Municipal del Districte de Sants-Montjuïc","Cultura|Arxius||","archive",,,,,,"Carrer de la Creu Coberta",,104,,,"08014","Barcelona",80193,"Barcelonès","+34-932914240","932914240",428272900,4580784000,"2.142256070","41.375379458","amds@bcn.cat","http://ajuntament.barcelona.cat/arxiumunicipal/sants-montjuic","07/10/2024 07:36:40 AM","Titularitat|Administració local: municipal","POINT (2.142256 41.375378)"
,27041598,"Arxiu Central Administratiu del Departament d'Empresa i Treball","Arxiu Central Administratiu del Departament d'Empresa i Treball","Cultura|Arxius||","archive",,,,,,"Passeig de Gràcia",,105,,,"08008","Barcelona",80193,"Barcelonès","+34-934849500","934849500",429760220,4583046500,"2.159777933","41.395888225","arxiu.emc@gencat.cat",,"07/10/2024 07:23:23 AM","Titularitat|Generalitat de Catalunya: central administratiu de departament","POINT (2.1597779 41.39589)"
,27045236,"Arxiu Municipal de Cassà de la Selva","Arxiu Municipal de Cassà de la Selva","Cultura|Arxius||","archive",,,,,,"Rambla de l'Onze de Setembre",,107,,,17244,"Cassà de la Selva",170448,"Gironès","+34-972460005","972460005",489599840,4636998000,"2.874646698","41.884841206","arxiu@cassa.cat","http://www.cassaarxiu.cat","07/10/2024 07:34:46 AM","Titularitat|Administració local: municipal","POINT (2.8746467 41.884842)"
,27042885,"Arxiu Municipal de Sant Pere de Ribes","Arxiu Municipal de Sant Pere de Ribes","Cultura|Arxius||","archive",,,,,,"Carrer Major",,110,,,"08810","Sant Pere de Ribes",82310,"Garraf","+34-938967300","938967300",396653660,4568393000,"1.766317045","41.260351364","arxiu@santperederibes.cat","http://arxiu.santperederibes.cat/es/inicio/","07/10/2024 07:36:36 AM","Titularitat|Administració local: municipal","POINT (1.766317 41.260353)"
,27041526,"Arxiu Central dels Jutjats de Terrassa","Arxiu Central dels Jutjats de Terrassa","Cultura|Arxius||","archive",,,,,,"Rambla del Pare Alegre",,112,,,"08221","Terrassa",82798,"Vallès Occidental","+34-936932567","936932567",417400560,4600283000,"2.009588543","41.549948271","arxiu.terrassa@xij.gencat.cat",,"07/10/2024 07:20:36 AM","Titularitat|Generalitat de Catalunya: Administració de Justícia","POINT (2.0095885 41.54995)"
,27043177,"Arxiu de la Reial Acadèmia de Ciències i Arts de Barcelona","Arxiu de la Reial Acadèmia de Ciències i Arts de Barcelona","Cultura|Arxius||","archive",,,,,,"Rambla dels Estudis",,115,,,"08002","Barcelona",80193,"Barcelonès","+34-933170536","933170536",426500280,4583468500,"2.120734972","41.399397646","info@racab.es","http://www.racab.cat/biblio/arxiu","07/10/2024 07:32:33 AM","Titularitat|Corporacions i entitats oficials: acadèmia","POINT (2.120735 41.3994)"
,27043327,"Arxiu Municipal de Castell-Platja d'Aro","Arxiu Municipal de Castell-Platja d'Aro","Cultura|Arxius||","archive",,,,,,"Carretera Vella",,115,,,17249,"Castell-Platja d'Aro",170486,"Baix Empordà","+34-972826539","972826539",502788380,4629016000,"3.033570818","41.813011593","arxiu@platjadaro.com","http://arxiuplatjadaro.blogspot.com","07/10/2024 07:36:36 AM","Titularitat|Administració local: municipal","POINT (3.0335708 41.81301)"
,27044271,"Arxiu Municipal de Rubí","Arxiu Municipal de Rubí","Cultura|Arxius||","archive",,,,,,"Carretera de Terrassa ",,116,,,"08191","Rubí",81846,"Vallès Occidental","+34-935887000","935887000",419403120,4595066500,"2.034295885","41.503172090","arxiu@ajrubi.cat","https://www.rubi.cat/ca/rubi-ciutat/arxiu-municipal","07/10/2024 07:27:19 AM","Titularitat|Administració local: municipal","POINT (2.0342958 41.503174)"
,27042624,"Arxiu Central dels Jutjats de Granollers","Arxiu Central dels Jutjats de Granollers","Cultura|Arxius||","archive",,,,,,"Carrer de Josep Umbert",,124,,,"08402","Granollers",80961,"Vallès Oriental","+34-936934516","936934516",441266100,4605876500,"2.295176591","41.602435563","arxiu.granollers@xij.gencat.cat",,"07/10/2024 07:22:25 AM","Titularitat|Generalitat de Catalunya: Administració de Justícia","POINT (2.2951765 41.602436)"
,27041944,"Arxiu Comarcal de Les Garrigues","Arxiu Comarcal de Les Garrigues","Cultura|Arxius||","archive",,,,,,"Raval del Raval del Carme",,131,,,25400,"Borges Blanques, les",250582,"Garrigues","+34-1111111111","1111111111",322499280,4598493500,"0.872752060","41.518416290",,,"07/10/2024 07:23:00 AM","Titularitat|Generalitat de Catalunya: comarcal","POINT (0.8727521 41.518417)"
,27043580,"Arxiu Municipal Administratiu de Badalona","Arxiu Municipal Administratiu de Badalona","Cultura|Arxius||","archive",,,,,,"Avinguda del Marquès de Montroig",,144,,,"08918","Badalona",80155,"Barcelonès","+34-933976561","933976561",435793780,4587768500,"2.231444817","41.438922574","arxiu_municipal@badalona.cat","http://badalona.cat/portalWeb/badalona.portal?_nfpb=true&_pageLabel=detall_directori&_id=529#wlp_detall_directori","07/10/2024 07:36:35 AM","Titularitat|Administració local: municipal","POINT (2.2314448 41.438923)"
,27041629,"Arxiu Central Administratiu de l'Agència Catalana de la Joventut","Arxiu Central Administratiu de l'Agència Catalana de la Joventut","Cultura|Arxius||","archive",,,,,,"Carrer de Calàbria",,147,,,"08015","Barcelona",80193,"Barcelonès","+34-934838383","934838383",429112750,4581474500,"2.152217539","41.381672972","obonas@gencat.cat","https://dretssocials.gencat.cat/ca/agenciajoventut","07/10/2024 07:28:22 AM","Titularitat|Generalitat de Catalunya: organismes autònoms i empreses públiques","POINT (2.1522176 41.38167)"
,27041163,"Arxiu Central del Consorci de l'Auditori i l'Orquestra","Arxiu Central del Consorci de l'Auditori i l'Orquestra","Cultura|Arxius||","archive",,,,,,"Carrer de Lepant",,150,,,"08013","Barcelona",80193,"Barcelonès","+34-932479300","932479300",431860250,4583301500,"2.184867732","41.398365619","documentacio@auditori.cat","https://ajuntament.barcelona.cat/arxiumunicipal/ca/arxius-centrals","07/10/2024 07:28:43 AM","Titularitat|Administració local: municipal","POINT (2.1848676 41.398365)"
,27041744,"Arxiu Històric de l'Hospital de la Santa Creu i Sant Pau","Arxiu Històric de l'Hospital de la Santa Creu i Sant Pau","Cultura|Arxius||","archive",,,,,,"Carrer de Sant Antoni Maria Claret",,167,,,"08025","Barcelona",80193,"Barcelonès","+34-935537997","935537997",431112160,4584865000,"2.175741521","41.412383805","arxiuhistoric@fundaciosantpau.cat","http://www.santpaubarcelona.org/ca/arxiu-historic","07/10/2024 07:31:52 AM","Titularitat|Privat: entitats, associacions, fundacions","POINT (2.1757414 41.412384)"
,27041596,"Arxiu Central dels Jutjats de Vilanova i la Geltrú","Arxiu Central dels Jutjats de Vilanova i la Geltrú","Cultura|Arxius||","archive",,,,,,"Ronda Ibèrica",,175,,,"08800","Vilanova i la Geltrú",83073,"Garraf","+34-936571065","936571065",392309340,4564692000,"1.715122674","41.226454378","arxiu.vilanova@xij.gencat.cat",,"07/10/2024 07:19:56 AM","Titularitat|Generalitat de Catalunya: Administració de Justícia","POINT (1.7151227 41.226456)"
,27043788,"Arxiu de l'Autoritat Catalana de Protecció de Dades","Arxiu de l'Autoritat Catalana de Protecció de Dades","Cultura|Arxius||","archive",,,,,,"Carrer del Rosselló",,214,,,"08008","Barcelona",80193,"Barcelonès","+34-935527800","935527800",429633380,4582824500,"2.158286602","41.393877661",,,"07/10/2024 07:23:21 AM","Titularitat|Generalitat de Catalunya: organismes autònoms i empreses públiques","POINT (2.1582866 41.39388)"
,27044586,"Arxiu Central d'Ecologia Urbana","Arxiu Central d'Ecologia Urbana","Cultura|Arxius||","archive",,,,,,"Avinguda Diagonal",,240,,,"08018","Barcelona",80193,"Barcelonès","+34-932914873","932914873",432340940,4583973000,"2.190542458","41.404454215","aeu@bcn.cat","https://ajuntament.barcelona.cat/arxiumunicipal/ca/arxius-centrals","07/10/2024 07:28:44 AM","Titularitat|Administració local: municipal","POINT (2.1905425 41.404453)"
,27041223,"Arxiu Central Administratiu de l'Agència Catalana de l'Aigua","Arxiu Central Administratiu de l'Agència Catalana de l'Aigua","Cultura|Arxius||","archive",,,,,,"Carrer de Provença",,260,,,"08008","Barcelona",80193,"Barcelonès","+34-935672800","935672800",429700700,4582703500,"2.159105834","41.392793744","adlorente@gencat.cat","http://aca-web.gencat.cat/aca/appmanager/aca/aca/","07/10/2024 07:36:41 AM","Titularitat|Generalitat de Catalunya: organismes autònoms i empreses públiques","POINT (2.1591058 41.392796)"
,27041983,"Arxiu Comarcal del Vallès Occidental","Arxiu Comarcal del Vallès Occidental","Cultura|Arxius||","archive",,,,,,"Carrer de Baldrich",,268,,,"08223","Terrassa",82798,"Vallès Occidental","+34-937397068","937397068",417970400,4600648500,"2.016370356","41.553298623","acvallesoccidental.cultura@gencat.cat","http://cultura.gencat.cat/arxius/acvoc","07/10/2024 07:36:20 AM","Titularitat|Generalitat de Catalunya: comarcal","POINT (2.0163703 41.5533)"
,27043353,"Arxiu Històric de Terrassa","Arxiu Històric de Terrassa","Cultura|Arxius||","archive",,,,,,"Carrer de Baldrich",,268,,,"08223","Terrassa",82798,"Vallès Occidental","+34-937397068","937397068",417970400,4600648500,"2.016370356","41.553298623",,,"07/10/2024 07:20:35 AM","Titularitat|Administració local: municipal","POINT (2.0163703 41.5533)"
,27043616,"Arxiu Central Administratiu de l'Institut Català del Sòl","Arxiu Central Administratiu de l'Institut Català del Sòl","Cultura|Arxius||","archive",,,,,,"Carrer de Còrsega",,273,,,"08008","Barcelona",80193,"Barcelonès","+34-932286000","932286000",429416200,4582829500,"2.155688419","41.393903662","incasol.documentacio@gencat.cat","https://incasol.gencat.cat/ca/inici","07/10/2024 07:28:20 AM","Titularitat|Generalitat de Catalunya: organismes autònoms i empreses públiques","POINT (2.1556885 41.3939)"
,27043978,"Arxiu del Consell de Treball, Econòmic i Social de Catalunya","Arxiu del Consell de Treball, Econòmic i Social de Catalunya","Cultura|Arxius||","archive",,,,,,"Carrer de la Diputació",,284,,,"08009","Barcelona",80193,"Barcelonès","+34-932701780","932701780",430579000,4582628500,"2.169619264","41.392194535","ctesc.cdoc@gencat.cat",,"07/10/2024 07:23:20 AM","Titularitat|Generalitat de Catalunya: organismes autònoms i empreses públiques","POINT (2.1696193 41.392193)"
,27042826,"Arxiu Municipal de Vallirana","Arxiu Municipal de Vallirana","Cultura|Arxius||","archive",,,,,,"Carrer Major",,329,,,"08759","Vallirana",82956,"Baix Llobregat","+34-936830810","936830810",410673440,4582376000,"1.931591027","41.387956109",,,"07/10/2024 07:20:13 AM","Titularitat|Administració local: municipal","POINT (1.931591 41.387955)"
,27045753,"Arxiu Central de Drets Socials, Justícia Global, Feminismes i LGTBI","Arxiu Central de Drets Socials, Justícia Global, Feminismes i LGTBI","Cultura|Arxius||","archive",,,,,,"Carrer de València",,344,,,"08009","Barcelona",80193,"Barcelonès","+34-934132627","934132627",430556120,4583168000,"2.169283746","41.397051659","ads@bcn.cat","https://ajuntament.barcelona.cat/arxiumunicipal/ca/arxius-centrals","07/10/2024 07:28:45 AM","Titularitat|Administració local: municipal","POINT (2.1692836 41.397053)"
,27043523,"Arxiu Central Administratiu del Departament d'Interior","Arxiu Central Administratiu del Departament d'Interior","Cultura|Arxius||","archive",,,,,,"Carrer de la Diputació",,355,,,"08009","Barcelona",80193,"Barcelonès","+34-935512000","935512000",430924300,4582996000,"2.173707247","41.395534222","arxiu_central_dint@gencat.cat",,"07/10/2024 07:23:23 AM","Titularitat|Generalitat de Catalunya: central administratiu de departament","POINT (2.1737072 41.395535)"
,27045707,"Arxiu Municipal del Districte d'Horta-Guinardó","Arxiu Municipal del Districte d'Horta-Guinardó","Cultura|Arxius||","archive",,,,,,"Carrer de Lepant",,387,,,"08025","Barcelona",80193,"Barcelonès","+34-932916723","932916723",430562160,4584601000,"2.169191605","41.409958720","amdg@bcn.cat","http://ajuntament.barcelona.cat/arxiumunicipal/ca/nou-barris","07/10/2024 07:36:41 AM","Titularitat|Administració local: municipal","POINT (2.1691916 41.409958)"
,27041549,"Oficina de l'Arxiu Històric i Patrimoni Documental de la Universitat de Barcelona","Oficina de l'Arxiu Històric i Patrimoni Documental de la Universitat de Barcelona","Cultura|Arxius||","archive",,,,,,"Gran Via de les Corts Catalanes",,585,,,"08007","Barcelona",80193,"Barcelonès","+34-934020819","934020819",430104220,4582006000,"2.164012581","41.386546764","gda@ub.edu","http://www.ub.edu/arxiu/","07/10/2024 07:30:26 AM","Titularitat|Corporacions i entitats oficials: universitari","POINT (2.1640127 41.386547)"
,27041316,"Arxiu Central Administratiu de l'Institut Català de la Salut","Arxiu Central Administratiu de l'Institut Català de la Salut","Cultura|Arxius||","archive",,,,,,"Gran Via de les Corts Catalanes",,587,,,"08007","Barcelona",80193,"Barcelonès","+34-934824164","934824164",430241780,4582140000,"2.165642268","41.387765599","arxiu.central.ics@gencat.cat","http://ics.gencat.cat/ca/inici","07/10/2024 07:36:14 AM","Titularitat|Generalitat de Catalunya: organismes autònoms i empreses públiques","POINT (2.1656423 41.387764)"
,27042643,"Arxiu de l'Institut Català de Finances","Arxiu de l'Institut Català de Finances","Cultura|Arxius||","archive",,,,,,"Gran Via de les Corts Catalanes",,635,,,"08010","Barcelona",80193,"Barcelonès","+34-933428422","933428422",430701880,4582591500,"2.171093182","41.391871885",,,"07/10/2024 07:23:21 AM","Titularitat|Generalitat de Catalunya: organismes autònoms i empreses públiques","POINT (2.1710932 41.391872)"
,27040859,"Arxiu de l'Oficina Antifrau de Catalunya","Arxiu de l'Oficina Antifrau de Catalunya","Cultura|Arxius||","archive",,,,,,"Carrer de Ribes",,"1-3",,,"08013","Barcelona",80193,"Barcelonès","+34-935545555","935545555",415897880,4539238500,"2.000000184","40.999999198",,,"07/10/2024 07:23:20 AM","Titularitat|Generalitat de Catalunya: organismes autònoms i empreses públiques","POINT (2.0000002 41)"
,27045276,"Arxiu Documental de la Universitat Ramon Llull","Arxiu Documental de la Universitat Ramon Llull","Cultura|Arxius||","archive",,,,,,"Carrer de Claravall",,"1-3",,,"08022","Barcelona",80193,"Barcelonès","+34-936022200","936022200",427402560,4584800000,"2.131367893","41.411471859",,,"07/10/2024 07:23:20 AM","Titularitat|Corporacions i entitats oficials: universitari","POINT (2.131368 41.411472)"
,27042365,"Arxiu de la Universitat Politècnica de Catalunya","Arxiu de la Universitat Politècnica de Catalunya","Cultura|Arxius||","archive",,,,,,"Carrer de Jordi Girona",,"1-3. Edifici K2M. S103",,,"08034","Barcelona",80193,"Barcelonès","+34-934010743","934010743",426026160,4582234000,"2.115214592","41.388235588","arxiu.oda@upc.edu","http://www.upc.edu/arxiu","07/10/2024 07:30:08 AM","Titularitat|Corporacions i entitats oficials: universitari","POINT (2.1152146 41.388237)"
,27041934,"Arxiu Central dels Jutjats de Sant Feliu de Llobregat","Arxiu Central dels Jutjats de Sant Feliu de Llobregat","Cultura|Arxius||","archive",,,,,,"Carrer de Dalt",,"10-12",,,"08980","Sant Feliu de Llobregat",82114,"Baix Llobregat","+34-675782990","675782990",420206000,4581691500,"2.045681269","41.382793337","arxiu.santfeliullobregat@xij.gencat.cat",,"07/10/2024 07:21:01 AM","Titularitat|Generalitat de Catalunya: Administració de Justícia","POINT (2.0456812 41.382793)"
,27045676,"Arxiu Municipal de Sant Esteve Sesrovires","Arxiu Municipal de Sant Esteve Sesrovires","Cultura|Arxius||","archive",,,,,,"Carrer de Josep Tarradellas",,"10-12 baixos",,,"08635","Sant Esteve Sesrovires",82080,"Baix Llobregat","+34-937715392","937715392",406207380,4594112000,"1.876361553","41.493140026","ses.arxiumunicipal@sesrovires.cat","http://www.sesrovires.cat","07/10/2024 07:31:42 AM","Titularitat|Administració local: municipal","POINT (1.8763616 41.49314)"
,27045126,"Arxiu Central dels Jutjats d'Igualada","Arxiu Central dels Jutjats d'Igualada","Cultura|Arxius||","archive",,,,,,"Passeig de Jacint Verdaguer",,"113-117",,,"08700","Igualada",81022,"Anoia","+34-936938016","936938016",385332800,4604044500,"1.624452216","41.579865666","arxiu.igualada@xij.gencat.cat",,"07/10/2024 07:22:20 AM","Titularitat|Generalitat de Catalunya: Administració de Justícia","POINT (1.6244522 41.579865)"
,27043200,"Arxiu Comarcal de la Conca de Barberà","Arxiu Comarcal de la Conca de Barberà","Cultura|Arxius||","archive",,,,,,"Raval del Raval de Santa Anna",,"12-14",,,43400,"Montblanc",430862,"Conca de Barberà","+34-977860492","977860492",346282280,4582540500,"1.161686081","41.379711809","acconcadebarbera.cultura@gencat.cat","http://cultura.gencat.cat/arxius/accb","07/10/2024 07:36:23 AM","Titularitat|Generalitat de Catalunya: comarcal","POINT (1.1616861 41.37971)"
,27042132,"Arxiu Històric Municipal de Gelida","Arxiu Històric Municipal de Gelida","Cultura|Arxius||","archive",,,,,,"Carrer de la Barceloneta",,"12-18",,,"08790","Gelida",80919,"Alt Penedès","+34-937790058","937790058",405023800,4588336000,"1.863094063","41.440983559","pujolsj@diba.es","https://www.gelida.org/arxius/ahmge.htm","07/10/2024 07:27:37 AM","Titularitat|Administració local: municipal","POINT (1.8630941 41.440983)"
,27045249,"Arxiu Històric de la Companyia de Jesús de Catalunya","Arxiu Històric de la Companyia de Jesús de Catalunya","Cultura|Arxius||","archive",,,,,,"Carrer de Roger de Llúria",,"13-15",,,"08010","Barcelona",80193,"Barcelonès","+34-933012350","933012350",430769470,4582454500,"2.171917235","41.390643791","arxiu@jesuites.net",,"07/10/2024 07:23:20 AM","Titularitat|Església catolica: monàstics, conventuals i de congregacions","POINT (2.1719172 41.390644)"
,27042984,"Arxiu Central Administratiu del Departament de Salut","Arxiu Central Administratiu del Departament de Salut","Cultura|Arxius||","archive",,,,,,"Travessera de les Corts",,"131-159",,,"08028","Barcelona",80193,"Barcelonès","+34-935566478","935566478",426904250,4581484500,"2.125806483","41.381565426","arxiu.salut@gencat.cat",,"07/10/2024 07:23:23 AM","Titularitat|Generalitat de Catalunya: central administratiu de departament","POINT (2.1258066 41.381565)"
,27044512,"Arxiu Central Administratiu del Servei Català de la Salut","Arxiu Central Administratiu del Servei Català de la Salut","Cultura|Arxius||","archive",,,,,,"Travessera de les Corts",,"131-159 (Edifici Olímpia)",,,"08028","Barcelona",80193,"Barcelonès","+34-934038585","934038585",427227280,4581674000,"2.129646595","41.383301458","arxiu@catsalut.cat",,"07/10/2024 07:23:22 AM","Titularitat|Generalitat de Catalunya: organismes autònoms i empreses públiques","POINT (2.1296465 41.3833)"
,27041887,"Museu-Arxiu de Sant Andreu de Llavaneres","Museu-Arxiu de Sant Andreu de Llavaneres","Cultura|Arxius||","archive",,,,,,"Carretera de Sant Vicenç ",,"14 -Can Caralt-",,,"08392","Sant Andreu de Llavaneres",81976,"Maresme","+34-937929282","937929282",457507280,4602531000,"2.490303563","41.573332426","museuarxiu@ajllavaneres.cat","http://ajllavaneres.cat/ambit.php?id=1","07/10/2024 07:36:41 AM","Titularitat|Administració local: municipal","POINT (2.4903035 41.573334)"
,27043382,"Arxiu Central dels Jutjats de Santa Coloma de Gramenet","Arxiu Central dels Jutjats de Santa Coloma de Gramenet","Cultura|Arxius||","archive",,,,,,"Passeig de la Salzereda",,"15-18",,,"08921","Santa Coloma de Gramenet",82457,"Barcelonès","+34-935515537","935515537",433602160,4588683000,"2.205112765","41.446980941","arxiu.santacolomagramenet@xij.gencat.cat",,"07/10/2024 07:20:49 AM","Titularitat|Generalitat de Catalunya: Administració de Justícia","POINT (2.2051127 41.44698)"
,27045521,"Arxiu Central dels Jutjats de Sant Feliu de Guíxols","Arxiu Central dels Jutjats de Sant Feliu de Guíxols","Cultura|Arxius||","archive",,,,,,"Carrer d'Antoni de Campmany",,"15-21",,,17220,"Sant Feliu de Guíxols",171609,"Baix Empordà","+34-972658070","972658070",502107400,4625599500,"3.025359997","41.782241331","arxiu.santfeliuguixols@xij.gencat.cat",,"07/10/2024 07:21:02 AM","Titularitat|Generalitat de Catalunya: Administració de Justícia","POINT (3.02536 41.78224)"
,27042830,"Arxiu del Museu Picasso","Arxiu del Museu Picasso","Cultura|Arxius||","archive",,,,,,"Carrer de Montcada",,"15-23",,,"08003","Barcelona",80193,"Barcelonès","+34-932565922","932565922",431512800,4581844000,"2.180876525","41.385208834","nsoleb@bcn.cat","http://www.museupicasso.bcn.cat/","07/10/2024 07:32:55 AM","Titularitat|Administració local: municipal","POINT (2.1808765 41.38521)"
,27040655,"Arxiu Municipal de Flix","Arxiu Municipal de Flix","Cultura|Arxius||","archive",,,,,,"Carrer Major",,"16-18"," 1r",,43750,"Flix",430607,"Ribera d'Ebre","+34-977410153","977410153",294666250,4567317500,"0.550019557","41.231200883","arxiu@flix.cat","https://www.flix.cat/ajuntament/atencio-al-ciutada/altres-serveis/","07/10/2024 07:27:38 AM","Titularitat|Administració local: municipal","POINT (0.55001956 41.2312)"
,27040633,"Arxiu Central Administratiu de la Delegació Territorial del Govern de la Generalitat a Tarragona","Arxiu Central Administratiu de la Delegació Territorial del Govern de la Generalitat a Tarragona","Cultura|Arxius||","archive",,,,,,"Carrer del Granit Naus",,"17-18 (Polígon Riu Clar)",,,43006,"Tarragona",431482,"Tarragonès","+34-977541292","977541292",350503340,4555253500,"1.218830888","41.134829710","alfredo.redondo@gencat.cat",,"07/10/2024 07:20:39 AM","Titularitat|Generalitat de Catalunya: administratiu territorial","POINT (1.218831 41.13483)"
,27043521,"Arxiu i Biblioteca del Deganat dels registradors de la Propietat, Mercantils i de Béns Mobles de Catalunya","Arxiu i Biblioteca del Deganat dels registradors de la Propietat, Mercantils i de Béns Mobles de Catalunya","Cultura|Arxius||","archive",,,,,,"Carrer de Joan Miró",,"19-21",,,"08005","Barcelona",80193,"Barcelonès","+34-932252611","932252611",432659900,4582431500,"2.194529499","41.390597132","secretariacer.catalunya@registradores.org",,"07/10/2024 07:23:20 AM","Titularitat|Corporacions i entitats oficials: col.legi professional","POINT (2.1945295 41.3906)"
,27043692,"Arxiu Provincial dels Caputxins de Catalunya","Arxiu Provincial dels Caputxins de Catalunya","Cultura|Arxius||","archive",,,,,,"Carrer del Cardenal Vives i Tutó",,"2-16",,,"08034","Barcelona",80193,"Barcelonès","+34-932043458","932043458",426517660,4582946000,"2.121006272","41.394693310","conselldelaics@caputxins.cat",,"07/10/2024 07:23:19 AM","Titularitat|Església catolica: monàstics, conventuals i de congregacions","POINT (2.1210063 41.39469)"
,27044964,"Arxiu de la Comissió Jurídica Assessora","Arxiu de la Comissió Jurídica Assessora","Cultura|Arxius||","archive",,,,,,"Plaça Nova",,"2-3",,,"08002","Barcelona",80193,"Barcelonès","+34-932388283","932388283",431032120,4581743000,"2.175139543","41.384258091",,,"07/10/2024 07:23:21 AM","Titularitat|Generalitat de Catalunya: organismes autònoms i empreses públiques","POINT (2.1751394 41.38426)"
,27042591,"Arxiu Central Administratiu del Departament de Territori","Arxiu Central Administratiu del Departament de Territori","Cultura|Arxius||","archive",,,,,,"Avinguda de Josep Tarradellas",,"2-6",,,"08029","Barcelona",80193,"Barcelonès","+34-934958000","934958000",428320220,4581423000,"2.142746309","41.381138914","arxiucentraltarradellas.tes@gencat.cat",,"07/10/2024 07:23:23 AM","Titularitat|Generalitat de Catalunya: central administratiu de departament","POINT (2.1427462 41.381138)"
,27041658,"Arxiu Històric del Col.legi d'Arquitectes de Catalunya. Demarcació Tarragona","Arxiu Històric del Col.legi d'Arquitectes de Catalunya. Demarcació Tarragona","Cultura|Arxius||","archive",,,,,,"Carrer de Sant Llorenç",,"20-22",,,43003,"Tarragona",431482,"Tarragonès","+34-977249367","977249367",353873500,4553432000,"1.259400109","41.119042907","arxiu.tar@coac.es","https://www.arquitectes.cat/es/arquitectes/departaments/arxiu","07/10/2024 07:27:57 AM","Titularitat|Corporacions i entitats oficials: col.legi professional","POINT (1.2594001 41.11904)"
,27042179,"Arxiu Central de l'Institut Municipal d'Hisenda de Barcelona","Arxiu Central de l'Institut Municipal d'Hisenda de Barcelona","Cultura|Arxius||","archive",,,,,,"Carrer del Pallars",,"200-202",,,"08005","Barcelona",80193,"Barcelonès","+34-934023766","934023766",433267160,4583930000,"2.201627243","41.404144344","imhsgdid@bcn.cat","https://ajuntament.barcelona.cat/arxiumunicipal/ca/arxius-centrals","07/10/2024 07:28:44 AM","Titularitat|Administració local: municipal","POINT (2.2016273 41.404144)"
,27045362,"Arxiu Central Administratiu del Departament d'Educació","Arxiu Central Administratiu del Departament d'Educació","Cultura|Arxius||","archive",,,,,,"Via Augusta ",,"202-226",,,"08021","Barcelona",80193,"Barcelonès","+34-934006900","934006900",428221900,4583252500,"2.141353789","41.397607750","arxiu.educacio@gencat.cat",,"07/10/2024 07:23:23 AM","Titularitat|Generalitat de Catalunya: central administratiu de departament","POINT (2.1413538 41.397606)"
,27043205,"Arxiu Comarcal del Baix Ebre","Arxiu Comarcal del Baix Ebre","Cultura|Arxius||","archive",,,,,,"Carrer de Sant Domènec",,"21-23",,,43500,"Tortosa",431554,"Baix Ebre","+34-977441525","977441525",291235720,4521130500,"0.524746178","40.814652568","acbaixebre.cultura@gencat.cat","http://cultura.gencat.cat/arxius/acbeb","07/10/2024 07:36:24 AM","Titularitat|Generalitat de Catalunya: comarcal","POINT (0.5247462 40.81465)"
,27043333,"Arxiu Municipal del Districte de Sarrià-Sant Gervasi","Arxiu Municipal del Districte de Sarrià-Sant Gervasi","Cultura|Arxius||","archive",,,,,,"Carrer d'Eduardo Conde",,"22-42",,,"08034","Barcelona",80193,"Barcelonès","+34-932562722","932562722",426543900,4582766500,"2.121341891","41.393079030","amdsg@bcn.cat","http://ajuntament.barcelona.cat/arxiumunicipal/ca/sarria-sant-gervasi","07/10/2024 07:36:40 AM","Titularitat|Administració local: municipal","POINT (2.121342 41.393078)"
,27044094,"Arxiu Central Administratiu de la Delegació Territorial del Govern de la Generalitat a Lleida","Arxiu Central Administratiu de la Delegació Territorial del Govern de la Generalitat a Lleida","Cultura|Arxius||","archive",,,,,,"Carrer de Ricard Calvet Serra Naus",,"24-25 (Polígon Mecanova)",,,25191,"Lleida",251207,"Segrià","+34-973105164","973105164",304849200,4609276500,"0.657883717","41.611355635","ccapdevila@gencat.cat",,"07/10/2024 07:22:17 AM","Titularitat|Generalitat de Catalunya: administratiu territorial","POINT (0.6578837 41.611355)"
,27043394,"Arxiu de l'Institut Català Internacional per la Pau ","Arxiu de l'Institut Català Internacional per la Pau ","Cultura|Arxius||","archive",,,,,,"Carrer d'Aragó",,"244-248",,,"08007","Barcelona",80193,"Barcelonès","+34-935544270","935544270",415897880,4539238500,"2.000000184","40.999999198",,,"07/10/2024 07:23:21 AM","Titularitat|Generalitat de Catalunya: organismes autònoms i empreses públiques","POINT (2.0000002 41)"
,27043213,"Arxiu de la Universitat Pompeu Fabra","Arxiu de la Universitat Pompeu Fabra","Cultura|Arxius||","archive",,,,,,"Carrer de Ramon Trias Fargas",,"25-27",,,"08005","Barcelona",80193,"Barcelonès","+34-935422652","935422652",432579660,4582148500,"2.193601320","41.388041504","general.arxiu@upf.edu","http://www.upf.edu/arxiu","07/10/2024 07:30:07 AM","Titularitat|Corporacions i entitats oficials: universitari","POINT (2.1936014 41.388042)"
,27040881,"Arxiu de la Universitat Rovira i Virgili","Arxiu de la Universitat Rovira i Virgili","Cultura|Arxius||","archive",,,,,,"Avinguda dels Països Catalans",,"26. Campus Sescelades",,,43007,"Tarragona",431482,"Tarragonès","+34-977559507","977559507",352763200,4554948000,"1.245816989","41.132492144","arxiu@urv.cat","http://www.urv.cat/universitat/arxiu.html","07/10/2024 07:29:58 AM","Titularitat|Corporacions i entitats oficials: universitari","POINT (1.245817 41.132492)"
,27044572,"Arxiu Central dels Jutjats de Manresa","Arxiu Central dels Jutjats de Manresa","Cultura|Arxius||","archive",,,,,,"Carrer d'Arbonés",,"29-39",,,"08240","Manresa",81136,"Bages","+34-936930424","936930424",402226030,4619572000,"1.824519335","41.721941518","arxiu.manresa@xij.gencat.cat",,"07/10/2024 07:22:06 AM","Titularitat|Generalitat de Catalunya: Administració de Justícia","POINT (1.8245193 41.721943)"
,27042136,"Arxiu Central Administratiu del Servei Públic d’Ocupació de Catalunya","Arxiu Central Administratiu del Servei Públic d’Ocupació de Catalunya","Cultura|Arxius||","archive",,,,,,"Carrer de Llull",,"297-307",,,"08019","Barcelona",80193,"Barcelonès","+34-935536678","935536678",433830200,4584184500,"2.208334851","41.406483099","arxiu_central.soc@gencat.cat",,"07/10/2024 07:23:22 AM","Titularitat|Generalitat de Catalunya: central administratiu de departament","POINT (2.208335 41.406483)"
,27043124,"Arxiu Municipal d'Amposta","Arxiu Municipal d'Amposta","Cultura|Arxius||","archive",,,,,,"Plaça de l'Ajuntament",,"3-4",,,43870,"Amposta",430141,"Montsià","+34-977700057","977700057",295670300,4509757000,"0.580997004","40.713400556","acompany@amposta.cat","http://www.amposta.cat","07/10/2024 07:35:47 AM","Titularitat|Administració local: municipal","POINT (0.580997 40.7134)"
,27043759,"Arxiu Municipal del Districte de Ciutat Vella","Arxiu Municipal del Districte de Ciutat Vella","Cultura|Arxius||","archive",,,,,,"Carrer dels Àngels",,"3-5",,,"08001","Barcelona",80193,"Barcelonès","+34-934432265","934432265",430437340,4581532000,"2.168050874","41.382306471","amdcv@bcn.cat","http://ajuntament.barcelona.cat/arxiumunicipal/ciutat-vella","07/10/2024 07:36:40 AM","Titularitat|Administració local: municipal","POINT (2.1680508 41.382305)"
,27043935,"Arxiu Central dels Jutjats de Balaguer","Arxiu Central dels Jutjats de Balaguer","Cultura|Arxius||","archive",,,,,,"Carrer de Francesc Borràs",,"3-7",,,25600,"Balaguer",250404,"Noguera","+34-973700279","973700279",317688970,4628958000,"0.805852415","41.791535231","arxiu.balaguer@xij.gencat.cat",,"07/10/2024 07:23:27 AM","Titularitat|Generalitat de Catalunya: Administració de Justícia","POINT (0.8058524 41.791534)"
,27041559,"Arxiu del Foment del Treball Nacional","Arxiu del Foment del Treball Nacional","Cultura|Arxius||","archive",,,,,,"Via Laietana",,"32-34",,,"08003","Barcelona",80193,"Barcelonès","+34-934841200","934841200",431231440,4581826000,"2.177513767","41.385022710","biblioteca@foment.com","http://www.foment.com/sobre-nosaltres/biblioteca-arxiu","07/10/2024 07:34:19 AM","Titularitat|Privat: entitats, associacions, fundacions","POINT (2.1775138 41.38502)"
,27044416,"Arxiu Municipal de Viladecans","Arxiu Municipal de Viladecans","Cultura|Arxius||","archive",,,,,,"Carrer de Guifré El Pelós",,"32-36",,,"08840","Viladecans",83015,"Baix Llobregat","+34-936352985","936352985",418429600,4574394000,"2.025419562","41.316891113","arxiumunicipal@viladecans.cat","http://www.viladecans.cat","07/10/2024 07:29:29 AM","Titularitat|Administració local: municipal","POINT (2.0254195 41.31689)"
,27042420,"Arxiu Central dels Jutjats de Badalona","Arxiu Central dels Jutjats de Badalona","Cultura|Arxius||","archive",,,,,,"Carrer de Prim",,"32-40",,,"08911","Badalona",80155,"Barcelonès","+34-935538893","935538893",437321940,4589403000,"2.249565912","41.453764873","arxiu.badalona@xij.gencat.cat",,"07/10/2024 07:23:27 AM","Titularitat|Generalitat de Catalunya: Administració de Justícia","POINT (2.2495658 41.453766)"
,27045449,"Arxiu Central de Ponti & Partners, SLP","Arxiu Central de Ponti & Partners, SLP","Cultura|Arxius||","archive",,,,,,"Carrer del Consell de Cent",,"322 baixos",,,"08007","Barcelona",80193,"Barcelonès","+34-934874936","934874936",429509560,4581798000,"2.156925096","41.384621490","arxiu@ponti.pro","https://www.ponti.pro","07/10/2024 07:27:22 AM","Titularitat|Privats: altres","POINT (2.1569252 41.38462)"
,27041425,"Arxiu Nacional de Catalunya","Arxiu Nacional de Catalunya","Cultura|Arxius||","archive",,,,,,"Carrer de Jaume I",,"33-51",,,"08195","Sant Cugat del Vallès",82055,"Vallès Occidental","+34-935897788","935897788",422143000,4590903000,"2.067658330","41.465945379","anc.cultura@gencat.cat","http://anc.gencat.cat","07/10/2024 07:36:37 AM","Titularitat|Generalitat de Catalunya: general o institucional","POINT (2.0676584 41.465946)"
,27042356,"Arxiu Biblioteca del Pavelló de la República","Arxiu Biblioteca del Pavelló de la República","Cultura|Arxius||","archive",,,,,,"Avinguda del Cardenal Vidal i Barraquer",,"34-36",,,"08035","Barcelona",80193,"Barcelonès","+34-934285457","934285457",429074000,4586897500,"2.151118640","41.430512413","lourdesprades@ub.edu","https://crai.ub.edu/ca/coneix-el-crai/biblioteques/biblioteca-pavello-republica/El-Fons-d-Arxiu-del-CRAI-Biblioteca-Pavello-de-la-Republica","07/10/2024 07:28:24 AM","Titularitat|Corporacions i entitats oficials: universitari","POINT (2.1511188 41.43051)"
,27040854,"Arxiu Històric Banc Sabadell","Arxiu Històric Banc Sabadell","Cultura|Arxius||","archive",,,,,,"Carrer de la Tramuntana",,"34-40",,,"08213","Polinyà",81672,"Vallès Occidental","+34-937205472","937205472",430131500,4601588000,"2.162070401","41.562915030","archivohistorico@bancsabadell.com","https://www.fundacionbancosabadell.com/ca/arxiu-historic/","07/10/2024 07:27:37 AM","Titularitat|Privats: altres","POINT (2.1620705 41.562916)"
,27043872,"Arxiu Central Administratiu d'Infraestructures de la Generalitat de Catalunya","Arxiu Central Administratiu d'Infraestructures de la Generalitat de Catalunya","Cultura|Arxius||","archive",,,,,,"Carrer dels Vergós",,"36-42",,,"08017","Barcelona",80193,"Barcelonès","+34-934444444","934444444",427024620,4583238500,"2.127034585","41.397373894","mjsigalat@infraestructures.cat","http://www.infraestructures.cat","07/10/2024 07:33:55 AM","Titularitat|Generalitat de Catalunya: organismes autònoms i empreses públiques","POINT (2.1270347 41.397373)"
,27045536,"Arxiu Central Administratiu del Consell de l’Audiovisual de Catalunya","Arxiu Central Administratiu del Consell de l’Audiovisual de Catalunya","Cultura|Arxius||","archive",,,,,,"Carrer dels Vergós",,"36-42",,,"08017","Barcelona",80193,"Barcelonès","+34-935575000","935575000",427130940,4583251000,"2.128304789","41.397496118",,,"07/10/2024 07:23:25 AM","Titularitat|Generalitat de Catalunya: organismes autònoms i empreses públiques","POINT (2.1283047 41.397495)"
,27040999,"Arxiu Històric de Cardona","Arxiu Històric de Cardona","Cultura|Arxius||","archive",,,,,,"Carrer de Graells",,"37-39",,,"08261","Cardona",80478,"Bages","+34-938692633","938692633",390732500,4641231500,"1.682379899","41.915479707","arxiuhistoric@cardona.cat","https://www.cardona.cat/ca/vila/adreces-i-telefons-interes/arxiu-historic-municipal-de-cardona","07/10/2024 07:27:48 AM","Titularitat|Administració local: municipal","POINT (1.6823798 41.91548)"
,27042522,"Arxiu Municipal del Prat de Llobregat","Arxiu Municipal del Prat de Llobregat","Cultura|Arxius||","archive",,,,,,"Plaça de Catalunya",,"39-41",,,"08820","Prat de Llobregat, el",81691,"Baix Llobregat","+34-934782858","934782858",424182700,4574932000,"2.094080348","41.322298101","patrimonicultural@elprat.cat","http://www.elprat.cat/cultura/arxiu-municipal-del-prat-de-llobregat","07/10/2024 07:34:28 AM","Titularitat|Administració local: municipal","POINT (2.0940804 41.3223)"
,27045227,"Arxiu de la Universitat Oberta de Catalunya","Arxiu de la Universitat Oberta de Catalunya","Cultura|Arxius||","archive",,,,,,"Avinguda del Tibidabo",,"39-43",,,"08035","Barcelona",80193,"Barcelonès","+34-933263839","933263839",427541970,4585005000,"2.133011207","41.413330784","arxiu@uoc.edu","https://www.uoc.edu/portal/ca/arxiu/index.html","07/10/2024 07:27:00 AM","Titularitat|Corporacions i entitats oficials: universitari","POINT (2.133011 41.41333)"
,27041310,"Arxiu General de la Diputació de Girona","Arxiu General de la Diputació de Girona","Cultura|Arxius||","archive",,,,,,"Partida de Sant Martí",,"4-5",,,17004,"Girona",170792,"Gironès","+34-972185124","972185124",485590900,4648097500,"2.826055639","41.984748486","arxiu@ddgi.cat","http://www.ddgi.cat/arxiugeneral","07/10/2024 07:34:33 AM","Titularitat|Administració local: diputació provincial","POINT (2.8260555 41.98475)"
,27044310,"Centre de Documentació de l'Orfeó Català","Centre de Documentació de l'Orfeó Català","Cultura|Arxius||","archive",,,,,,"Carrer del Palau de la Música",,"4-6",,,"08003","Barcelona",80193,"Barcelonès","+34-932957252","932957252",431055900,4582108500,"2.175382332","41.387552078","centredocumentacio@palaumusica.cat","http://www.cedoc.cat","07/10/2024 07:34:43 AM","Titularitat|Privat: entitats, associacions, fundacions","POINT (2.1753824 41.38755)"
,27040791,"Arxiu Central dels Jutjats de Girona","Arxiu Central dels Jutjats de Girona","Cultura|Arxius||","archive",,,,,,"Avinguda de Ramon Folch",,"4-6",,,17001,"Girona",170792,"Gironès","+34-972940480","972940480",485276750,4648297500,"2.822258277","41.986544007","arxiu.girona@xij.gencat.cat",,"07/10/2024 07:22:26 AM","Titularitat|Generalitat de Catalunya: Administració de Justícia","POINT (2.8222582 41.986546)"
,27045911,"Arxiu Comarcal de l'Urgell","Arxiu Comarcal de l'Urgell","Cultura|Arxius||","archive",,,,,,"Carrer de les Sitges",,"4-6",,,25300,"Tàrrega",252173,"Urgell","+34-973312411","973312411",345032530,4612062500,"1.139149178","41.645249652","acurgell.cultura@gencat.cat","http://cultura.gencat.cat/arxius/acur","07/10/2024 07:36:21 AM","Titularitat|Generalitat de Catalunya: comarcal","POINT (1.1391492 41.64525)"
,27041741,"Arxiu Municipal de Sant Feliu de Guíxols","Arxiu Municipal de Sant Feliu de Guíxols","Cultura|Arxius||","archive",,,,,,"Carretera de Girona ",,"45-47",,,17220,"Sant Feliu de Guíxols",171609,"Baix Empordà","+34-972322593","972322593",502180970,4625788500,"3.026246017","41.783943457","arxiu@guixols.cat","http://www.arxiumunicipal.guixols.cat/","07/10/2024 07:35:44 AM","Titularitat|Administració local: municipal","POINT (3.026246 41.783943)"
,27042682,"Arxiu Central Administratiu del Departament d'Acció Climàtica, Alimentació i Agenda Rural","Arxiu Central Administratiu del Departament d'Acció Climàtica, Alimentació i Agenda Rural","Cultura|Arxius||","archive",,,,,,"Gran Via de les Corts Catalanes",,"612-614",,,"08007","Barcelona",80193,"Barcelonès","+34-933046700","933046700",430283600,4582098500,"2.166147190","41.387395448","arxiu.daam@gencat.cat",,"07/10/2024 07:23:24 AM","Titularitat|Generalitat de Catalunya: central administratiu de departament","POINT (2.1661472 41.387394)"
,27044433,"Arxiu Comarcal del Montsià","Arxiu Comarcal del Montsià","Cultura|Arxius||","archive",,,,,,"Avinguda de la Generalitat",,"70-80",,,43870,"Amposta",430141,"Montsià","+34-977707923","977707923",294980500,4508714000,"0.573178636","40.703841565","acmontsia@gencat.cat","http://cultura.gencat.cat/arxius/acmo","07/10/2024 07:36:23 AM","Titularitat|Generalitat de Catalunya: comarcal","POINT (0.57317865 40.703842)"
,27043632,"Arxiu Central dels Jutjats de Martorell","Arxiu Central dels Jutjats de Martorell","Cultura|Arxius||","archive",,,,,,"Passatge del Sindicat",,"8 baixos",,,"08760","Martorell",81141,"Baix Llobregat","+34-935516739","935516739",410042380,4592372500,"1.922556580","41.477913923","arxiu.martorell@xij.gencat.cat",,"07/10/2024 07:22:04 AM","Titularitat|Generalitat de Catalunya: Administració de Justícia","POINT (1.9225566 41.477913)"
,27044163,"Arxiu Històric Fidel Fita, municipal d’Arenys de Mar","Arxiu Històric Fidel Fita, municipal d’Arenys de Mar","Cultura|Arxius||","archive",,,,,,"Ronda del Bisbe Pol",,"8 i",10,,"08350","Arenys de Mar",80060,"Maresme","+34-937959519","937959519",462517720,4603281500,"2.550354568","41.580342925","paloumh@arenysdemar.cat","http://arxiu.arenysdemar.cat/app.php/","07/10/2024 07:36:36 AM","Titularitat|Administració local: municipal","POINT (2.5503545 41.58034)"
,27041279,"Arxiu Històric de la Fundació Privada Casa de Misericòrdia de Barcelona","Arxiu Històric de la Fundació Privada Casa de Misericòrdia de Barcelona","Cultura|Arxius||","archive",,,,,,"Carrer de les Elisabets",,"8-10",,,"08001","Barcelona",80193,"Barcelonès","+34-933021692","933021692",430484620,4581662000,"2.168601358","41.383481427","arxiu@fcmb.org","http://www.fcmb.org","07/10/2024 07:34:23 AM","Titularitat|Privat: entitats, associacions, fundacions","POINT (2.1686013 41.38348)"
,27041187,"Arxiu Municipal de Sant Joan de Vilatorrada","Arxiu Municipal de Sant Joan de Vilatorrada","Cultura|Arxius||","archive",,,,,,"Carrer Major",,"91-93",,,"08250","Sant Joan de Vilatorrada",82188,"Bages","+34-938764040","938764040",400683200,4622219000,"1.805533022","41.745586867","sanchezcf@santjoanvilatorrada.cat","http://www.santjoanvilatorrada.cat","07/10/2024 07:31:55 AM","Titularitat|Administració local: municipal","POINT (1.805533 41.745586)"
,27041370,"Arxiu Central dels Jutjats de Gavà","Arxiu Central dels Jutjats de Gavà","Cultura|Arxius||","archive",,,,,,"Plaça de Batista i Roca","yes",,,,"08850","Gavà",80898,"Baix Llobregat","+34-626072993","626072993",416695470,4573405000,"2.004839107","41.307806519","arxiu.gava@xij.gencat.cat",,"07/10/2024 07:22:28 AM","Titularitat|Generalitat de Catalunya: Administració de Justícia","POINT (2.0048392 41.307808)"
,27043723,"Arxiu del Parlament de Catalunya","Arxiu del Parlament de Catalunya","Cultura|Arxius||","archive",,,,,,"Parc de la Ciutadella","yes",,,,"08003","Barcelona",80193,"Barcelonès","+34-933046500","933046500",431945500,4582163500,"2.186015328","41.388123202","arxiu@parlament.cat","https://www.parlament.cat/web/documentacio/recursos-documentals/index.html#180635950","07/10/2024 07:27:24 AM","Titularitat|Generalitat de Catalunya: general o institucional","POINT (2.1860154 41.388123)"
,27045195,"Arxiu Capitular de la Santa Església Catedral Basílica de Barcelona","Arxiu Capitular de la Santa Església Catedral Basílica de Barcelona","Cultura|Arxius||","archive",,,,,,"Plaça del Pla de la Seu","yes",,,,"08002","Barcelona",80193,"Barcelonès","+34-933100669","933100669",431105800,4581759000,"2.176018854","41.384408512","arxiu@catedralbcn.org","http://www.catedralbcn.org","07/10/2024 07:34:44 AM","Titularitat|Església catòlica: capitular","POINT (2.176019 41.384407)"
,27041091,"Arxiu General del Museu Marítim de Barcelona","Arxiu General del Museu Marítim de Barcelona","Cultura|Arxius||","archive",,,,,,"Avinguda de les Drassanes ","yes",,,,"08001","Barcelona",80193,"Barcelonès","+34-933429920","933429920",431015300,4580883000,"2.175036291","41.376510882","informacio@mmb.cat","http://www.mmb.cat","07/10/2024 07:33:23 AM","Titularitat|Corporacions i entitats oficials: altres","POINT (2.1750362 41.37651)"
,27043887,"Arxiu Municipal de l’Ajuntament de Montgat","Arxiu Municipal de l’Ajuntament de Montgat","Cultura|Arxius||","archive",,,,,,"Plaça de la Vila","yes",,,,"08390","Montgat",81265,"Maresme","+34-934694900","934694900",439796700,4590802500,"2.279053914","41.466559356",,,"07/10/2024 07:21:51 AM","Titularitat|Administració local: municipal","POINT (2.279054 41.46656)"
,27044477,"Arxiu Històric de Cornellà de Llobregat","Arxiu Històric de Cornellà de Llobregat","Cultura|Arxius||","archive",,,,,,"Carrer de Mossèn Jacint Verdaguer","yes",,,,"08940","Cornellà de Llobregat",80734,"Baix Llobregat","+34-934745135","934745135",422455800,4578536000,"2.072988484","41.354593383","informacio@aj-cornella.cat","http://www.cornella.cat/ca/ArxiuHistoricMunicipal.asp","07/10/2024 07:34:36 AM","Titularitat|Administració local: municipal","POINT (2.0729885 41.354595)"
,27041874,"Arxiu Central del Tribunal Superior de Justícia de Catalunya i de l’Audiència Provincial de Barcelona ","Arxiu Central del Tribunal Superior de Justícia de Catalunya i de l’Audiència Provincial de Barcelona ","Cultura|Arxius||","archive",,,,,,"Passeig de Lluís Companys","yes",,,,"08018","Barcelona",80193,"Barcelonès","+34-934866222","934866222",431600000,4582388500,"2.181857877","41.390120406","arxiu.tsjcat@xij.gencat.cat",,"07/10/2024 07:23:21 AM","Titularitat|Generalitat de Catalunya: Administració de Justícia","POINT (2.1818578 41.39012)"
,27043520,"Arxiu Municipal de Ripollet","Arxiu Municipal de Ripollet","Cultura|Arxius||","archive",,,,,,"Plaça de la Constitució","yes",,,,"08291","Ripollet",81803,"Vallès Occidental","+34-935046000","935046000",429481940,4594281000,"2.155137784","41.497048053","arxiumunicipal@ripollet.cat","https://www.ripollet.cat/serveis/arxiu-municipal","07/10/2024 07:27:20 AM","Titularitat|Administració local: municipal","POINT (2.1551378 41.497047)"
,27042108,"Institut Cartogràfic i Geològic de Catalunya. Cartoteca de Catalunya","Institut Cartogràfic i Geològic de Catalunya. Cartoteca de Catalunya","Cultura|Arxius||","archive",,,,,,"Parc de Montjuïc","yes",,,,"08038","Barcelona",80193,"Barcelonès","+34-935671500","935671500",429542000,4580408000,"2.157474633","41.372105062","cartoteca@icgc.cat","http://www.icgc.cat","07/10/2024 07:33:58 AM","Titularitat|Generalitat de Catalunya: organismes autònoms i empreses públiques","POINT (2.1574745 41.372105)"
,27041562,"Arxiu Municipal de Montmeló","Arxiu Municipal de Montmeló","Cultura|Arxius||","archive",,,,,,"Plaça de la Vila","yes",,,,"08160","Montmeló",81350,"Vallès Oriental","+34-935720000","935720000",437301900,4600257500,"2.248196031","41.551526253","arxiu@montmelo.cat","http://www.montmelo.cat","07/10/2024 07:33:15 AM","Titularitat|Administració local: municipal","POINT (2.2481961 41.551525)"
,27042995,"Arxiu Municipal de Parets del Vallès","Arxiu Municipal de Parets del Vallès","Cultura|Arxius||","archive",,,,,,"Carrer 1 ","yes",,,,"08150","Parets del Vallès",81593,"Vallès Oriental","+34-935739800","935739800",436140600,4602584000,"2.234024817","41.572388113","arxiu@parets.cat","http://www.parets.cat/temes/arxiu-municipal","07/10/2024 07:32:40 AM","Titularitat|Administració local: municipal","POINT (2.2340248 41.572388)"
,27044204,"Arxiu Municipal de Pallejà","Arxiu Municipal de Pallejà","Cultura|Arxius||","archive",,,,,,"Carrer del Sol 08780","yes",,,,"08780","Pallejà",81574,"Baix Llobregat","+34-936630000","936630000",331792120,4540683500,"1.000000070","40.999999739",,,"07/10/2024 07:21:39 AM","Titularitat|Administració local: municipal","POINT (1.0000001 41)"
,27043051,"Arxiu Municipal de Sant Vicenç de Castellet","Arxiu Municipal de Sant Vicenç de Castellet","Cultura|Arxius||","archive",,,,,,"Plaça de la Generalitat","yes",,,,"08295","Sant Vicenç de Castellet",82628,"Bages","+34-936930611","936930611",405112800,4613270000,"1.860221055","41.665539482","sid@svc.cat","https://www.svc.cat/","07/10/2024 07:27:09 AM","Titularitat|Administració local: municipal","POINT (1.860221 41.66554)"
,27042165,"Arxiu Central dels Jutjats d'Arenys de Mar","Arxiu Central dels Jutjats d'Arenys de Mar","Cultura|Arxius||","archive",,,,,,"Carrer d'Auterive","yes",,,,"08350","Arenys de Mar",80060,"Maresme","+34-936931068","936931068",462134160,4603650000,"2.545730178","41.583643934","arxiu.arenys@xij.gencat.cat",,"07/10/2024 07:23:29 AM","Titularitat|Generalitat de Catalunya: Administració de Justícia","POINT (2.54573 41.583645)"
,27042194,"Arxiu Central dels Jutjats de Rubí","Arxiu Central dels Jutjats de Rubí","Cultura|Arxius||","archive",,,,,,"Carrer d'Espoz i Mina","yes",,,,"08191","Rubí",81846,"Vallès Occidental","+34-936932567","936932567",418954300,4593498500,"2.029129830","41.489005148","arxiu.rubi@xij.gencat.cat",,"07/10/2024 07:21:11 AM","Titularitat|Generalitat de Catalunya: Administració de Justícia","POINT (2.0291297 41.489006)"
,27041193,"Arxiu Municipal de Badia del Vallès","Arxiu Municipal de Badia del Vallès","Cultura|Arxius||","archive",,,,,,"Avinguda de Burgos","yes",,,,"08214","Badia del Vallès",89045,"Vallès Occidental","+34-937182216","937182216",426188900,4595552500,"2.115533148","41.508203103",,,"07/10/2024 07:23:27 AM","Titularitat|Administració local: municipal","POINT (2.115533 41.5082)"
,27041569,"Arxiu Central dels Jutjats de Mataró","Arxiu Central dels Jutjats de Mataró","Cultura|Arxius||","archive",,,,,,"Plaça de Francisco Tomás Y Valiente","yes",,,,"08302","Mataró",81213,"Maresme","+34-937417362","937417362",453201840,4598084500,"2.439008848","41.533042558","arxiu.mataro@xij.gencat.cat",,"07/10/2024 07:22:01 AM","Titularitat|Generalitat de Catalunya: Administració de Justícia","POINT (2.439009 41.533043)"
,27045717,"Arxiu Històric Municipal de Tordera - Espai Prudenci Bertrana","Arxiu Històric Municipal de Tordera - Espai Prudenci Bertrana","Cultura|Arxius||","archive",,,,,,"Carrer de Joan Maragall ","yes",,,,"08490","Tordera",82845,"Maresme","+34-937643717","937643717",476802380,4616115000,"2.721216135","41.696478367","arxiuhistoric@tordera.cat","https://www.tordera.cat","07/10/2024 07:27:03 AM","Titularitat|Administració local: municipal","POINT (2.7212162 41.69648)"
,27045077,"Arxiu Municipal de Lliçà de Vall","Arxiu Municipal de Lliçà de Vall","Cultura|Arxius||","archive",,,,,,"Plaça de la Vila","yes",,,,"08185","Lliçà de Vall",81081,"Vallès Oriental","+34-938439000","938439000",436610300,4604107000,"2.239497338","41.586142457","bustova@llissadevall.cat","http://www.llissadevall.cat/arxiu-municipal","07/10/2024 07:33:39 AM","Titularitat|Administració local: municipal","POINT (2.2394974 41.586143)"
,27043331,"Arxiu Comarcal del Garraf","Arxiu Comarcal del Garraf","Cultura|Arxius||","archive",,,,,,"Plaça de Font i Gumà","yes",,,,"08800","Vilanova i la Geltrú",83073,"Garraf","+34-938930013","938930013",393351200,4564722000,"1.727545111","41.226862567","acgarraf.cultura@gencat.cat","http://cultura.gencat.cat/arxius/acgaf","07/10/2024 07:36:23 AM","Titularitat|Generalitat de Catalunya: comarcal","POINT (1.7275451 41.226864)"
,27045757,"Arxiu Històric Municipal de Tossa de Mar","Arxiu Històric Municipal de Tossa de Mar","Cultura|Arxius||","archive",,,,,,"Plaça de Sant Joan","yes",,,,17320,"Tossa de Mar",172023,"Selva","+34-972342606","972342606",494295000,4619326500,"2.931407461","41.725722403","arxiutossa@gmail.com",,"07/10/2024 07:20:20 AM","Titularitat|Administració local: municipal","POINT (2.9314075 41.725723)"
,27045462,"Arxiu Central dels Jutjats de Santa Coloma de Farners","Arxiu Central dels Jutjats de Santa Coloma de Farners","Cultura|Arxius||","archive",,,,,,"Carretera de Sant Hilari Sacalm ","yes",,,,17430,"Santa Coloma de Farners",171805,"Selva","+34-972394414","972394414",472041900,4634407500,"2.663145505","41.861083344","arxiu.territorial.girona@xij.gencat.cat",,"07/10/2024 07:20:50 AM","Titularitat|Generalitat de Catalunya: Administració de Justícia","POINT (2.6631455 41.861084)"
,27042431,"Biblioteca-Arxiu del Palau de Peralada","Biblioteca-Arxiu del Palau de Peralada","Cultura|Arxius||","archive",,,,,,"Carrer de Sant Joan ","yes",,,,17491,"Peralada",171328,"Alt Empordà","+34-972538125","972538125",500753840,4683964000,"3.009146638","42.307909277","inespadrosa@castilloperalada.com","http://www.museucastellperalada.com/es/biblioteca/archivo/","07/10/2024 07:33:09 AM","Titularitat|Privats: altres","POINT (3.0091467 42.30791)"
,27045543,"Arxiu Comarcal de l'Alt Empordà","Arxiu Comarcal de l'Alt Empordà","Cultura|Arxius||","archive",,,,,,"Plaça de l'Escorxador Vell","yes",,,,17600,"Figueres",170669,"Alt Empordà","+34-972670178","972670178",497107000,4679509000,"2.964920362","42.267781593","acaltemporda.cultura@gencat.cat","http://cultura.gencat.cat/arxius/acae","07/10/2024 07:36:25 AM","Titularitat|Generalitat de Catalunya: comarcal","POINT (2.9649203 42.26778)"
,27042144,"Arxiu Municipal de Santa Cristina d'Aro","Arxiu Municipal de Santa Cristina d'Aro","Cultura|Arxius||","archive",,,,,,"Plaça de Catalunya","yes",,,,17246,"Santa Cristina d'Aro",171812,"Baix Empordà","+34-972837010","972837010",499931880,4628749500,"2.999179897","41.810616140","arxiu@santacristina.cat","https://santacristina.cat/arees/arxiu-municipal.html","07/10/2024 07:28:08 AM","Titularitat|Administració local: municipal","POINT (2.9991798 41.810616)"
,27041657,"Arxiu Diocesà de Lleida","Arxiu Diocesà de Lleida","Cultura|Arxius||","archive",,,,,,"Carrer del Bisbe","yes",,,,25002,"Lleida",251207,"Segrià","+34-973268628","973268628",301802530,4609773500,"0.621184553","41.615077852","arxiu@bisbatlleida.org",,"07/10/2024 07:22:17 AM","Titularitat|Església catòlica: diocesà","POINT (0.6211845 41.615078)"
,27043848,"Servei del Patrimoni Bibliogràfic i Documental de l'Institut d'Estudis Ilerdencs","Servei del Patrimoni Bibliogràfic i Documental de l'Institut d'Estudis Ilerdencs","Cultura|Arxius||","archive",,,,,,"Plaça de la Catedral","yes",,,,25002,"Lleida",251207,"Segrià","+34-973271500","973271500",301960100,4609512000,"0.623160626","41.612763588","arxiusiei@diputaciolleida.cat","http://www.fpiei.es","07/10/2024 07:34:17 AM","Titularitat|Administració local: diputació provincial","POINT (0.6231606 41.612762)"
,27045045,"Arxiu Capitular de la Catedral de Lleida","Arxiu Capitular de la Catedral de Lleida","Cultura|Arxius||","archive",,,,,,"Carrer de l'Almodí Vell","yes",,,,25007,"Lleida",251207,"Segrià","+34-973275177","973275177",301986530,4609560000,"0.623461707","41.613202120","arcalleida@gmail.com","http://www.acl.cat","07/10/2024 07:35:55 AM","Titularitat|Església catòlica: capitular","POINT (0.6234617 41.6132)"
,27042120,"Arxiu Històric de Lleida","Arxiu Històric de Lleida","Cultura|Arxius||","archive",,,,,,"Carrer del Governador Montcada","yes",,,,25002,"Lleida",251207,"Segrià","+34-973288250","973288250",301765900,4609522500,"0.620828331","41.612809883","ahll.cultura@gencat.cat","http://cultura.gencat.cat/arxius/ahl","07/10/2024 07:36:19 AM","Titularitat|Generalitat de Catalunya: comarcal","POINT (0.62082833 41.61281)"
,27041660,"Arxiu Diocesà d'Urgell","Arxiu Diocesà d'Urgell","Cultura|Arxius||","archive",,,,,,"Carrer del Cadí","yes",,,,25700,"Seu d'Urgell, la",252038,"Alt Urgell","+34-973350054","973350054",373764400,4690119000,"1.467254224","42.353096392","bmarques@bisbaturgell.org",,"07/10/2024 07:20:44 AM","Titularitat|Església catòlica: diocesà","POINT (1.4672543 42.353096)"
,27045669,"Arxiu Capitular d'Urgell","Arxiu Capitular d'Urgell","Cultura|Arxius||","archive",,,,,,"Parc del Cadí","yes",,,,25700,"Seu d'Urgell, la",252038,"Alt Urgell","+34-973350054","973350054",372870750,4690534000,"1.456315929","42.356687022","bmarques@bisbaturgell.org","https://arxiubisbaturgell.wordpress.com/","07/10/2024 07:28:40 AM","Titularitat|Església catòlica: capitular","POINT (1.4563159 42.356686)"
,27042551,"Arxiu Comarcal de la Segarra","Arxiu Comarcal de la Segarra","Cultura|Arxius||","archive",,,,,,"Passeig de Jaume Balmes","yes",,,,25200,"Cervera",250729,"Segarra","+34-973531718","973531718",356405700,4614633500,"1.275038681","41.670526161","acsegarra.cultura@gencat.cat","http://cultura.gencat.cat/arxius/acsg","07/10/2024 07:36:21 AM","Titularitat|Generalitat de Catalunya: comarcal","POINT (1.2750387 41.670525)"
,27044938,"Arxiu Comarcal del Pallars Sobirà","Arxiu Comarcal del Pallars Sobirà","Cultura|Arxius||","archive",,,,,,"Carrer de Joaquim Sostres","yes",,,,25560,"Sort",252094,"Pallars Sobirà","+34-973621409","973621409",346048660,4697347000,"1.128958048","42.413166261","acpallarssobira.cultura@gencat.cat","http://cultura.gencat.cat/arxius/acps","07/10/2024 07:36:22 AM","Titularitat|Generalitat de Catalunya: comarcal","POINT (1.1289581 42.413166)"
,27042373,"Archiu Generau d'Aran","Archiu Generau d'Aran","Cultura|Arxius||","archive",,,,,,"Carrer Major","yes",,,,25537,"Vielha e Mijaran",252430,"Val d'Aran","+34-973642569","973642569",319769560,4732242000,"0.798768565","42.721535787","acvallaran.cultura@gencat.cat","http://cultura.gencat.cat/arxius/aga","07/10/2024 07:36:19 AM","Titularitat|Generalitat de Catalunya: comarcal","POINT (0.7987686 42.721535)"
,27045544,"Arxiu Central de l'Audiència Provincial i dels Jutjats de Lleida","Arxiu Central de l'Audiència Provincial i dels Jutjats de Lleida","Cultura|Arxius||","archive",,,,,,"Carrer de Canyeret","yes",,,,25007,"Lleida",251207,"Segrià","+34-973700279","973700279",302315780,4609906000,"0.627295892","41.616397560","arxiu.lleida@xij.gencat.cat",,"07/10/2024 07:22:17 AM","Titularitat|Generalitat de Catalunya: Administració de Justícia","POINT (0.6272959 41.616398)"
,27043120,"Arxiu Central dels Jutjats d'Amposta","Arxiu Central dels Jutjats d'Amposta","Cultura|Arxius||","archive",,,,,,"Carrer dels Muntells","yes",,,,43870,"Amposta",430141,"Montsià","+34-977280527","977280527",294974500,4509296500,"0.572917233","40.709082922","arxiu.amposta@xij.gencat.cat",,"07/10/2024 07:23:31 AM","Titularitat|Generalitat de Catalunya: Administració de Justícia","POINT (0.5729172 40.709084)"
,27043726,"Arxiu Històric de la Ciutat de Tarragona","Arxiu Històric de la Ciutat de Tarragona","Cultura|Arxius||","archive",,,,,,"Avinguda de Vidal i Barraquer","yes",,,,43005,"Tarragona",431482,"Tarragonès","+34-977296230","977296230",352329100,4553144000,"1.241081333","41.116170451","arxiu@tarragona.cat","http://www.tarragona.cat","07/10/2024 07:31:28 AM","Titularitat|Administració local: municipal","POINT (1.2410814 41.11617)"
,27041036,"Arxiu Capitular de la Catedral de Tortosa","Arxiu Capitular de la Catedral de Tortosa","Cultura|Arxius||","archive",,,,,,"Carrer dels Capellans","yes",,,,43500,"Tortosa",431554,"Baix Ebre","+34-977510129","977510129",291155840,4521119000,"0.523803759","40.814528750","arxiucatedral@bisbattortosa.org","https://www.bisbattortosa.org/es/","07/10/2024 07:27:49 AM","Titularitat|Església catòlica: capitular","POINT (0.5238038 40.81453)"
,27044342,"Arxiu Comarcal del Priorat","Arxiu Comarcal del Priorat","Cultura|Arxius||","archive",,,,,,"Carrer de Bonaventura Pascó","yes",,,,43730,"Falset",430555,"Priorat","+34-977830145","977830145",316860250,4557211500,"0.817660387","41.145561887","acpriorat.cultura@gencat.cat","http://cultura.gencat.cat/arxius/acpr","07/10/2024 07:36:22 AM","Titularitat|Generalitat de Catalunya: comarcal","POINT (0.8176604 41.14556)"
,27040852,"Arxiu Montserrat Tarradellas i Macià","Arxiu Montserrat Tarradellas i Macià","Cultura|Arxius||","archive",,,,,,"Plaça de la Corona d'Aragó","yes",,,,43448,"Vimbod�� i Poblet",431763,"Conca de Barberà","+34-977871039","977871039",339613800,4582804500,"1.081909691","41.380787128","atarradellas@poblet.cat","http://www.poblet.cat/index.php?OA==&LDQ2;","07/10/2024 07:32:36 AM","Titularitat|Església catòlica: altres","POINT (1.0819097 41.380787)"
,27040760,"Institut Amatller d'Art Hispànic","Institut Amatller d'Art Hispànic","Cultura|Arxius||","archive",,,,,,"Passeig de Gràcia",,,,,"08007","Barcelona",80193,"Barcelonès","+34-932160175","932160175",430099780,4582682000,"2.163881473","41.392634885","amatller@amatller.org","https://amatller.org/ca/","07/10/2024 07:28:42 AM","Titularitat|Privat: entitats, associacions, fundacions","POINT (2.1638815 41.392635)"
,27044283,"Arxiu Provincial de l'Escola Pia de Catalunya","Arxiu Provincial de l'Escola Pia de Catalunya","Cultura|Arxius||","archive",,,,,,"Ronda de Sant Pau",,,0,,"08001","Barcelona",80193,"Barcelonès","+34-934410004","934410004",430055470,4581122500,"2.163531550","41.378585128","arxiu.provincial@escolapia.cat","https://www.escolapia.cat/arxiu-provincial","07/10/2024 07:27:40 AM","Titularitat|Església catolica: monàstics, conventuals i de congregacions","POINT (2.1635315 41.378586)"
,27045146,"Arxiu Central dels Jutjats de Cerdanyola del Vallès","Arxiu Central dels Jutjats de Cerdanyola del Vallès","Cultura|Arxius||","archive",,,,,,"Passeig d'Horta","yes",,,,"08290","Cerdanyola del Vallès",82665,"Vallès Occidental","+34-935516739","935516739",428512800,4592962000,"2.143684421","41.485082661","arxiu.cerdanyola@xij.gencat.cat",,"07/10/2024 07:22:45 AM","Titularitat|Generalitat de Catalunya: Administració de Justícia","POINT (2.1436844 41.485085)"
,27041089,"Arxiu Central de la Ciutat de la Justícia de Barcelona","Arxiu Central de la Ciutat de la Justícia de Barcelona","Cultura|Arxius||","archive",,,,,,"Gran Via de les Corts Catalanes",,,,,"08075","Barcelona",80193,"Barcelonès","+34-935548822","935548822",430824750,4582681000,"2.172552517","41.392688561","arxiu.ciutatjusticia.bcn@xij.gencat.cat",,"07/10/2024 07:23:22 AM","Titularitat|Generalitat de Catalunya: Administració de Justícia","POINT (2.1725526 41.39269)"
,27042971,"Arxiu Judicial Territorial de Barcelona i l’Hospitalet de Llobregat","Arxiu Judicial Territorial de Barcelona i l’Hospitalet de Llobregat","Cultura|Arxius||","archive",,,,,,"Gran Via de les Corts Catalanes",,,,,"08075","Barcelona",80193,"Barcelonès","+34-935548822","935548822",430824750,4582681000,"2.172552517","41.392688561","arxiu.territorial.bcn@xij.gencat.cat",,"07/10/2024 07:23:19 AM","Titularitat|Generalitat de Catalunya: Administració de Justícia","POINT (2.1725526 41.39269)"
,27043843,"Arxiu Municipal de Llançà","Arxiu Municipal de Llançà","Cultura|Arxius||","archive",,,,,,"Avinguda d'Europa",,,0,,17490,"Llançà",170926,"Alt Empordà","+34-972380245","972380245",512630600,4690435000,"3.153393352","42.366085743","arxiu@llanca.cat","http://arxiu.llanca.cat","07/10/2024 07:36:36 AM","Titularitat|Administració local: municipal","POINT (3.1533933 42.366085)"
